address,block,street_name,lat_long
726 YISHUN STREET 71,726,YISHUN ST 71,"1.42655885, 103.83095734812065"
366 YISHUN RING ROAD,366,YISHUN RING RD,"1.42905135, 103.84589390288139"
671 JALAN DAMAI,671,JLN DAMAI,"1.33239865, 103.90908613303044"
705 CHOA CHU KANG STREET 53,705,CHOA CHU KANG ST 53,"Error: Road retrieved. Returned address Choa Chu Kang Street 53, Northwest, 689189, Singapore"
658 HOUGANG AVENUE 8,658,HOUGANG AVE 8,"Error: Road retrieved. Returned address Hougang Avenue 8, Hougang, Northeast, 530631, Singapore"
89 DAWSON ROAD,89,DAWSON RD,"Error: Not Singapore. Returned address Dawson Road, Dawson, Shelby County, Ohio, 45845, United States"
497C TAMPINES STREET 45,497C,TAMPINES ST 45,"1.3584391500000002, 103.95871108550753"
534 ANG MO KIO AVENUE 10,534,ANG MO KIO AVE 10,"1.3741793, 103.85376098334456"
515 JELAPANG ROAD,515,JELAPANG RD,"Error: Road retrieved. Returned address Jelapang Road, Bukit Panjang, Northwest, 671524, Singapore"
246 BANGKIT ROAD,246,BANGKIT RD,"Error: Road retrieved. Returned address Bangkit Road, Bukit Panjang, Northwest, 670260, Singapore"
117C RIVERVALE DRIVE,117C,RIVERVALE DR,"Error: Not Singapore. Returned address Rivervale Drive, Santa Cruz County, California, 95073, United States"
878 WOODLANDS AVENUE 9,878,WOODLANDS AVE 9,"1.4454268, 103.79178123020638"
752 JURONG WEST STREET 74,752,JURONG WEST ST 74,"1.34860485, 103.69944429632676"
643 YISHUN STREET 61,643,YISHUN ST 61,"1.4213002000000001, 103.83741159839212"
336 TAH CHING ROAD,336,TAH CHING RD,"1.338568, 103.72340696185236"
631 ANG MO KIO AVENUE 4,631,ANG MO KIO AVE 4,"Error: Road retrieved. Returned address Ang Mo Kio Avenue 4, Ang Mo Kio, Singapore, Central, 568987, Singapore"
489B CHOA CHU KANG AVENUE 5,489B,CHOA CHU KANG AVE 5,"1.37569395, 103.73954344879817"
701 CHOA CHU KANG STREET 53,701,CHOA CHU KANG ST 53,"Error: Road retrieved. Returned address Choa Chu Kang Street 53, Northwest, 689189, Singapore"
53 PIPIT ROAD,53,PIPIT RD,"1.3241684, 103.88703430070093"
543 HOUGANG AVENUE 8,543,HOUGANG AVE 8,"Error: Road retrieved. Returned address Hougang Avenue 8, Hougang, Northeast, 530631, Singapore"
468D ADMIRALTY DRIVE,468D,ADMIRALTY DR,"Error: Not Singapore. Returned address Admiralty Drive, Sunset Beach, Huntington Beach, Orange County, California, 92649, United States"
732 TAMPINES STREET 71,732,TAMPINES ST 71,"1.3575416, 103.9343393149371"
234 BUKIT PANJANG RING ROAD,234,BT PANJANG RING RD,"1.3784713, 103.7718388141289"
614 HOUGANG AVENUE 8,614,HOUGANG AVE 8,"Error: Road retrieved. Returned address Hougang Avenue 8, Hougang, Northeast, 530631, Singapore"
61 LORONG 5 TOA PAYOH,61,LOR 5 TOA PAYOH,"1.3364126, 103.85211977115085"
507D WELLINGTON CIRCLE,507D,WELLINGTON CIRCLE,"Error: Not Singapore. Returned address 507, Wellington Circle, Rochester Hills, Oakland County, Michigan, 48309, United States"
156 JALAN TECK WHYE,156,JLN TECK WHYE,"1.37883045, 103.75661446774313"
681 HOUGANG AVENUE 8,681,HOUGANG AVE 8,"Error: Road retrieved. Returned address Hougang Avenue 8, Hougang, Northeast, 530631, Singapore"
321B ANCHORVALE DRIVE,321B,ANCHORVALE DR,"1.39074945, 103.89240919579932"
21 JOO SENG ROAD,21,JOO SENG RD,"Error: Road retrieved. Returned address Joo Seng Road, Joo Seng, Southeast, 349700, Singapore"
81 REDHILL LANE,81,REDHILL LANE,"1.28779935, 103.81940593152174"
851 JURONG WEST STREET 81,851,JURONG WEST ST 81,"1.3466489, 103.6926915"
830A JURONG WEST STREET 81,830A,JURONG WEST ST 81,"1.34530045, 103.6940344680659"
640 PASIR RIS DRIVE 1,640,PASIR RIS DR 1,"1.37584155, 103.94036124124791"
274C PUNGGOL PLACE,274C,PUNGGOL PL,"1.4033597, 103.90206876758843"
334 SERANGOON AVENUE 3,334,SERANGOON AVE 3,"Error: Road retrieved. Returned address Serangoon Avenue 3, The Scala, Serangoon, Southeast, 556112, Singapore"
258 TAMPINES STREET 21,258,TAMPINES ST 21,"1.3540641999999998, 103.95028779027497"
106 BEDOK RESERVOIR ROAD,106,BEDOK RESERVOIR RD,"1.3295301, 103.90935680980974"
413 EUNOS ROAD 5,413,EUNOS RD 5,"1.3185866499999999, 103.89904177855793"
416 PASIR RIS DRIVE 6,416,PASIR RIS DR 6,"1.3716565, 103.9556941"
642B PUNGGOL DRIVE,642B,PUNGGOL DR,"1.39839645, 103.91633949117397"
239 BUKIT PANJANG RING ROAD,239,BT PANJANG RING RD,"Error: Road retrieved. Returned address Bukit Panjang Ring Road, Bukit Panjang, Northwest, 679910, Singapore"
521 HOUGANG AVENUE 6,521,HOUGANG AVE 6,"1.3731529, 103.8906705719497"
339A SEMBAWANG CLOSE,339A,SEMBAWANG CL,"Error: Road retrieved. Returned address Sembawang Close, Sun Trellis, Sembawang, Northwest, 750333, Singapore"
506 WOODLANDS DRIVE 14,506,WOODLANDS DR 14,"Error: Road retrieved. Returned address Woodlands Drive 14, Fragrant Woods, Woodlands, Northwest, 738079, Singapore"
503 JELAPANG ROAD,503,JELAPANG RD,"Error: Road retrieved. Returned address Jelapang Road, Bukit Panjang, Northwest, 671524, Singapore"
18D CIRCUIT ROAD,18D,CIRCUIT RD,"1.3294757000000001, 103.8892932152119"
529 JURONG WEST STREET 52,529,JURONG WEST ST 52,"1.3484196000000002, 103.71622885286892"
186 PASIR RIS STREET 11,186,PASIR RIS ST 11,"1.3650457999999999, 103.9595673500935"
306B ANCHORVALE LINK,306B,ANCHORVALE LINK,"1.38964895, 103.88853634055405"
571B WOODLANDS AVENUE 1,571B,WOODLANDS AVE 1,"Error: Road retrieved. Returned address Woodlands Avenue 1, Woodlands, Northwest, 739069, Singapore"
808C CHAI CHEE ROAD,808C,CHAI CHEE RD,"1.3278492000000002, 103.92425038857144"
551 PASIR RIS STREET 51,551,PASIR RIS ST 51,"1.3677169, 103.95313101643032"
130 CLARENCE LANE,130,CLARENCE LANE,"1.2927895999999999, 103.81490205598591"
403B FERNVALE LANE,403B,FERNVALE LANE,"1.38880215, 103.87299434003288"
288F BUKIT BATOK STREET 25,288F,BT BATOK ST 25,"1.34530845, 103.75832143555664"
544 WOODLANDS DRIVE 16,544,WOODLANDS DR 16,"Error: Road retrieved. Returned address Woodlands Drive 16, Woodlands, Northwest, 730548, Singapore"
519 JURONG WEST STREET 52,519,JURONG WEST ST 52,"1.345706, 103.7175118"
806 KING GEORGE'S AVENUE,806,KING GEORGE'S AVE,"Error: Road retrieved. Returned address King George's Avenue, Kallang, Singapore, Central, 200803, Singapore"
109 RIVERVALE WALK,109,RIVERVALE WALK,"1.3832841999999999, 103.89958114727938"
253 ANG MO KIO STREET 21,253,ANG MO KIO ST 21,"1.3695867, 103.8344666082647"
221C BEDOK CENTRAL,221C,BEDOK CTRL,"1.3249819, 103.9340663667108"
139 BUKIT BATOK WEST AVENUE 6,139,BT BATOK WEST AVE 6,"1.3509950000000002, 103.74424518875406"
339 ANG MO KIO AVENUE 1,339,ANG MO KIO AVE 1,"1.3653809, 103.8491043"
119B KIM TIAN ROAD,119B,KIM TIAN RD,"1.2831479, 103.82614831062807"
304 UBI AVENUE 1,304,UBI AVE 1,"1.32969935, 103.90159317145245"
766 JURONG WEST STREET 74,766,JURONG WEST ST 74,"1.34978705, 103.6976968996712"
490A TAMPINES STREET 45,490A,TAMPINES ST 45,"1.36204155, 103.9567479594622"
223 LORONG 8 TOA PAYOH,223,LOR 8 TOA PAYOH,"1.3412581000000001, 103.855580675"
270 YISHUN STREET 22,270,YISHUN ST 22,"1.43742275, 103.83996789712032"
79 MARINE DRIVE,79,MARINE DR,"Error: Not Singapore. Returned address 79, Marine Drive, Bucyrus Heights, Buffalo, Amherst, Erie County, New York, 14228, United States"
601D PUNGGOL CENTRAL,601D,PUNGGOL CTRL,"1.4029802, 103.90765647513112"
451A SENGKANG WEST WAY,451A,SENGKANG WEST WAY,"Error: Road retrieved. Returned address Sengkang West Way, Fernvale, Central, 791453, Singapore"
336B YISHUN STREET 31,336B,YISHUN ST 31,"1.4314589500000001, 103.84439006403807"
133 BEDOK NORTH AVENUE 3,133,BEDOK NTH AVE 3,"1.32756465, 103.93579205446534"
55 NEW UPPER CHANGI ROAD,55,NEW UPP CHANGI RD,"1.3250842, 103.94214244845095"
465 CHOA CHU KANG AVENUE 4,465,CHOA CHU KANG AVE 4,"1.37754895, 103.73648842046056"
134 SIMEI STREET 1,134,SIMEI ST 1,"1.34805165, 103.95559016408129"
60 LORONG 4 TOA PAYOH,60,LOR 4 TOA PAYOH,"1.33631765, 103.85072701919977"
793 WOODLANDS AVENUE 6,793,WOODLANDS AVE 6,"Error: Road retrieved. Returned address Woodlands Avenue 6, Woodlands, Northwest, 737858, Singapore"
302 YISHUN CENTRAL,302,YISHUN CTRL,"1.4300202999999998, 103.83970542699956"
612 BEDOK RESERVOIR ROAD,612,BEDOK RESERVOIR RD,"1.33159555, 103.91577151384567"
446 PASIR RIS DRIVE 6,446,PASIR RIS DR 6,"1.370052, 103.957437"
108 JALAN BUKIT MERAH,108,JLN BT MERAH,"Error: Road retrieved. Returned address Jalan Bukit Merah, Radin Mas, Bukit Merah, Singapore, Central, 169545, Singapore"
274 TOH GUAN ROAD,274,TOH GUAN RD,"1.341967, 103.74694534894095"
148 WOODLANDS STREET 13,148,WOODLANDS ST 13,"Error: Road retrieved. Returned address Woodlands Street 13, Woodlands, Northwest, 738623, Singapore"
477 SEMBAWANG DRIVE,477,SEMBAWANG DR,"1.4522461, 103.81655671417107"
465 TAMPINES STREET 44,465,TAMPINES ST 44,"1.3595389999999998, 103.95464045"
131 POTONG PASIR AVENUE 1,131,POTONG PASIR AVE 1,"1.3343647, 103.86532674834172"
36 CHAI CHEE AVENUE,36,CHAI CHEE AVE,"Error: Road retrieved. Returned address Chai Chee Avenue, Ansar Garden, Bedok, Southeast, 461029, Singapore"
23 JALAN MEMBINA,23,JLN MEMBINA,"1.2846999499999998, 103.82688537446694"
210 NEW UPPER CHANGI ROAD,210,NEW UPP CHANGI RD,"1.3246238, 103.93181"
320 HOUGANG AVENUE 5,320,HOUGANG AVE 5,"Error: Road retrieved. Returned address Hougang Avenue 5, Hougang, Northeast, 530334, Singapore"
835 HOUGANG CENTRAL,835,HOUGANG CTRL,"1.3702811000000001, 103.89015150181818"
106 BISHAN STREET 12,106,BISHAN ST 12,"Error: Road retrieved. Returned address Bishan Street 12, Bishan, Singapore, Central, 570139, Singapore"
664 BUFFALO ROAD,664,BUFFALO RD,"Error: Not Singapore. Returned address 664, Buffalo Road, Buffalo, Sullivan County, Tennessee, 37617, United States"
829 JURONG WEST STREET 81,829,JURONG WEST ST 81,"1.34491045, 103.69405917275932"
112 BUKIT PURMEI ROAD,112,BT PURMEI RD,"1.2744724, 103.825486"
831 JURONG WEST STREET 81,831,JURONG WEST ST 81,"1.3449643999999998, 103.69474520353214"
802 YISHUN RING ROAD,802,YISHUN RING RD,"1.418487, 103.83178536700916"
610 ELIAS ROAD,610,ELIAS RD,"1.3751413000000001, 103.94196550308567"
415 SERANGOON CENTRAL,415,SERANGOON CTRL,"1.3497852, 103.87448916411147"
629 ANG MO KIO AVENUE 4,629,ANG MO KIO AVE 4,"Error: Road retrieved. Returned address Ang Mo Kio Avenue 4, Ang Mo Kio, Singapore, Central, 560629, Singapore"
624 SENJA ROAD,624,SENJA RD,"Error: Road retrieved. Returned address Senja Road, Bukit Panjang, Northwest, 677741, Singapore"
311C CLEMENTI AVENUE 4,311C,CLEMENTI AVE 4,"1.3199674, 103.76574775613031"
695 JURONG WEST CENTRAL 1,695,JURONG WEST CTRL 1,"1.3426383999999998, 103.7074952075608"
11 JALAN BATU,11,JLN BATU,"Error: Not Singapore. Returned address Jalan Batu, RW 01, Gambir, Jakarta Pusat, Daerah Khusus Ibukota Jakarta, 10110, Indonesia"
292A COMPASSVALE STREET,292A,COMPASSVALE ST,"1.39613415, 103.89916700744284"
314 SERANGOON AVENUE 2,314,SERANGOON AVE 2,"Error: Road retrieved. Returned address Serangoon Avenue 2, Serangoon, Southeast, 556138, Singapore"
118 LORONG 1 TOA PAYOH,118,LOR 1 TOA PAYOH,"1.3395596, 103.84489912731789"
157 BISHAN STREET 13,157,BISHAN ST 13,"1.34594535, 103.85655110770655"
487B CHOA CHU KANG AVENUE 5,487B,CHOA CHU KANG AVE 5,"1.37635425, 103.73834601464793"
230 PASIR RIS STREET 21,230,PASIR RIS ST 21,"1.37259385, 103.9610369536808"
502A WELLINGTON CIRCLE,502A,WELLINGTON CIRCLE,"Error: Not Singapore. Returned address 502, Wellington Circle, Rochester Hills, Oakland County, Michigan, 48309, United States"
279C SENGKANG EAST AVENUE,279C,SENGKANG EAST AVE,"1.3857545500000001, 103.89252231782407"
357 TAMPINES STREET 33,357,TAMPINES ST 33,"1.35416435, 103.96187013002225"
347A YISHUN AVENUE 11,347A,YISHUN AVE 11,"1.4279940500000001, 103.84246661978598"
440 YISHUN AVENUE 11,440,YISHUN AVE 11,"1.422329, 103.84640478026216"
289F BUKIT BATOK STREET 25,289F,BT BATOK ST 25,"1.344514, 103.75943401536125"
539 BUKIT PANJANG RING ROAD,539,BT PANJANG RING RD,"Error: Road retrieved. Returned address Bukit Panjang Ring Road, Bukit Panjang, Northwest, 679910, Singapore"
729 CLEMENTI WEST STREET 2,729,CLEMENTI WEST ST 2,"1.3049989000000002, 103.76353259999999"
409A FERNVALE ROAD,409A,FERNVALE RD,"1.38909945, 103.87714247877798"
620 WOODLANDS DRIVE 52,620,WOODLANDS DR 52,"1.4335811999999999, 103.79869783415732"
458 YISHUN AVENUE 11,458,YISHUN AVE 11,"Error: Road retrieved. Returned address Yishun Avenue 11, Yishun, Northwest, 760413, Singapore"
408 YISHUN AVENUE 6,408,YISHUN AVE 6,"1.42624035, 103.848421140429"
21 EUNOS CRESCENT,21,EUNOS CRES,"1.32503235, 103.90318403065035"
339B SEMBAWANG CLOSE,339B,SEMBAWANG CL,"1.4479661, 103.81726243865988"
276 CHOA CHU KANG AVENUE 2,276,CHOA CHU KANG AVE 2,"1.3795380499999998, 103.74443938415484"
331 UBI AVENUE 1,331,UBI AVE 1,"1.32659715, 103.90352306189608"
613B PUNGGOL DRIVE,613B,PUNGGOL DR,"1.40432085, 103.90833461879365"
23 DOVER CRESCENT,23,DOVER CRES,"1.3074274, 103.78364621397719"
58 STRATHMORE AVENUE,58,STRATHMORE AVE,"Error: Not Singapore. Returned address 58, Strathmore Avenue, Lower Stoke, Coventry, West Midlands Combined Authority, West Midlands, England, CV1 2AH, United Kingdom"
908 TAMPINES AVENUE 4,908,TAMPINES AVE 4,"1.3504382000000001, 103.93872908541844"
50 DORSET ROAD,50,DORSET RD,"Error: Not Singapore. Returned address 50, Dorset Road, Town of Horicon, Warren County, New York, 12815, United States"
110 WOODLANDS STREET 13,110,WOODLANDS ST 13,"Error: Road retrieved. Returned address Woodlands Street 13, Woodlands, Northwest, 738623, Singapore"
273B PUNGGOL PLACE,273B,PUNGGOL PL,"1.4020318, 103.90169169862102"
173D PUNGGOL FIELD,173D,PUNGGOL FIELD,"Error: Road retrieved. Returned address Punggol Field, Punggol Cove, Punggol, Northeast, 820198, Singapore"
284 CHOA CHU KANG AVENUE 3,284,CHOA CHU KANG AVE 3,"1.3798835999999999, 103.74242643066688"
272D JURONG WEST STREET 24,272D,JURONG WEST ST 24,"1.35119015, 103.70454148822968"
13 MARINE TERRACE,13,MARINE TER,"Error: Not Singapore. Returned address Corporate & Workwear Solutions, 13, Marine Terrace, Burnie, City of Burnie, Tasmania, 7320, Australia"
50 STIRLING ROAD,50,STIRLING RD,"Error: Not Singapore. Returned address 50, Stirling Road, Longstanton, Northstowe, Cambridge, Cambridgeshire, East of England, England, CB24 1BW, United Kingdom"
42A SIMS DRIVE,42A,SIMS DR,"Error: Not Singapore. Returned address 42, Sims Drive, Redwood, Suffolk County, New York, 11963, United States"
345 KANG CHING ROAD,345,KANG CHING RD,"1.3400105500000001, 103.72138597113025"
576 WOODLANDS DRIVE 16,576,WOODLANDS DR 16,"1.4304644, 103.79687200000001"
637 HOUGANG AVENUE 8,637,HOUGANG AVE 8,"Error: Road retrieved. Returned address Hougang Avenue 8, Hougang, Northeast, 530631, Singapore"
514 PASIR RIS STREET 52,514,PASIR RIS ST 52,"1.3745473000000001, 103.94313724473969"
485 ADMIRALTY LINK,485,ADMIRALTY LINK,"Error: Road retrieved. Returned address Admiralty Link, Sembawang, Northwest, 757521, Singapore"
69 LORONG 4 TOA PAYOH,69,LOR 4 TOA PAYOH,"Error: Road retrieved. Returned address Lorong 4 Toa Payoh, Toa Payoh, Singapore, Central, 319194, Singapore"
731 WOODLANDS CIRCLE,731,WOODLANDS CIRCLE,"1.4428878, 103.79753630776416"
330 BUKIT BATOK STREET 33,330,BT BATOK ST 33,"1.3632895, 103.74836098274537"
52 TELOK BLANGAH DRIVE,52,TELOK BLANGAH DR,"1.2738502, 103.81131045416714"
411 EUNOS ROAD 5,411,EUNOS RD 5,"1.31869815, 103.899507374633"
92 COMMONWEALTH DRIVE,92,C'WEALTH DR,"1.30572555, 103.80032216837782"
426B YISHUN AVENUE 11,426B,YISHUN AVE 11,"Error: Road retrieved. Returned address Yishun Avenue 11, Yishun, Northwest, 760413, Singapore"
227 BUKIT BATOK CENTRAL,227,BT BATOK CTRL,"1.3483535, 103.75349229406146"
333 CLEMENTI AVENUE 2,333,CLEMENTI AVE 2,"1.3151924, 103.76751276979252"
212B COMPASSVALE DRIVE,212B,COMPASSVALE DR,"1.3863026999999999, 103.90052654666718"
255 COMPASSVALE ROAD,255,COMPASSVALE RD,"1.3943987, 103.89947679281153"
119 LORONG 1 TOA PAYOH,119,LOR 1 TOA PAYOH,"Error: Road retrieved. Returned address Lorong 1 Toa Payoh, Toa Payoh, Singapore, Central, 313130, Singapore"
796 YISHUN RING ROAD,796,YISHUN RING RD,"Error: Road retrieved. Returned address Yishun Ring Road, Yishun, Northwest, 760413, Singapore"
410 YISHUN RING ROAD,410,YISHUN RING RD,"1.4263141, 103.84650112444683"
122 BEDOK RESERVOIR ROAD,122,BEDOK RESERVOIR RD,"1.332062, 103.91092294774276"
508A WELLINGTON CIRCLE,508A,WELLINGTON CIRCLE,"1.4524756, 103.82058674999999"
776 YISHUN AVENUE 2,776,YISHUN AVE 2,"Error: Road retrieved. Returned address Yishun Avenue 2, Yishun, Northwest, 760175, Singapore"
412 CHOA CHU KANG AVENUE 3,412,CHOA CHU KANG AVE 3,"1.3816301, 103.7421019293336"
653 HOUGANG AVENUE 8,653,HOUGANG AVE 8,"Error: Road retrieved. Returned address Hougang Avenue 8, Hougang, Northeast, 530631, Singapore"
338 WOODLANDS AVENUE 1,338,WOODLANDS AVE 1,"Error: Road retrieved. Returned address Woodlands Avenue 1, Woodlands, Northwest, 739069, Singapore"
817 WOODLANDS STREET 82,817,WOODLANDS ST 82,"1.44184335, 103.79095304610019"
636A PUNGGOL DRIVE,636A,PUNGGOL DR,"1.4003006999999998, 103.91396372312114"
333 SEMBAWANG CLOSE,333,SEMBAWANG CL,"1.4468230499999999, 103.81627039123222"
261A SENGKANG EAST WAY,261A,SENGKANG EAST WAY,"1.3941034, 103.89456020869537"
236A SERANGOON AVENUE 2,236A,SERANGOON AVE 2,"Error: Road retrieved. Returned address Serangoon Avenue 2, Serangoon, Southeast, 556138, Singapore"
712 TAMPINES STREET 71,712,TAMPINES ST 71,"1.35898215, 103.93710917593285"
46 CIRCUIT ROAD,46,CIRCUIT RD,"1.326123, 103.88606316170242"
959 HOUGANG STREET 91,959,HOUGANG ST 91,"1.3768801, 103.87915027839007"
545 SERANGOON NORTH AVENUE 3,545,SERANGOON NTH AVE 3,"Error: Road retrieved. Returned address Serangoon North Avenue 3, Serangoon North, Singapore, Central, 550102, Singapore"
263 JURONG EAST STREET 24,263,JURONG EAST ST 24,"1.3443759499999999, 103.74161239712933"
460 SEGAR ROAD,460,SEGAR RD,"1.38737455, 103.77209993749963"
962 HOUGANG AVENUE 9,962,HOUGANG AVE 9,"Error: Road retrieved. Returned address Hougang Avenue 9, Hougang, Northeast, 538692, Singapore"
450G TAMPINES STREET 42,450G,TAMPINES ST 42,"1.35822735, 103.95265384999999"
477 SEGAR ROAD,477,SEGAR RD,"Error: Road retrieved. Returned address Segar Road, Bukit Panjang, Northwest, 677738, Singapore"
228 SIMEI STREET 4,228,SIMEI ST 4,"1.3425199, 103.95604520982863"
389 TAMPINES STREET 32,389,TAMPINES ST 32,"1.3548877, 103.9580333815"
884 TAMPINES STREET 83,884,TAMPINES ST 83,"1.35150705, 103.93287882668307"
316 WOODLANDS STREET 31,316,WOODLANDS ST 31,"1.4314896, 103.77638162409012"
765 WOODLANDS CIRCLE,765,WOODLANDS CIRCLE,"1.4459132000000001, 103.796855100827"
176 BUKIT BATOK WEST AVENUE 8,176,BT BATOK WEST AVE 8,"1.3460029, 103.74137861723757"
640 ROWELL ROAD,640,ROWELL RD,"Error: Not Singapore. Returned address 640, Rowell Road, Crawford County, Georgia, 31078, United States"
633 ANG MO KIO AVENUE 6,633,ANG MO KIO AVE 6,"Error: Road retrieved. Returned address Ang Mo Kio Avenue 6, Ang Mo Kio, Singapore, Central, 569845, Singapore"
11 LORONG 8 TOA PAYOH,11,LOR 8 TOA PAYOH,"1.33710685, 103.85913207845286"
794 WOODLANDS DRIVE 72,794,WOODLANDS DR 72,"Error: Road retrieved. Returned address Woodlands Drive 72, Woodlands, Northwest, 730789, Singapore"
111 ANG MO KIO AVENUE 4,111,ANG MO KIO AVE 4,"Error: Road retrieved. Returned address Ang Mo Kio Avenue 4, Ang Mo Kio, Singapore, Central, 568987, Singapore"
2 JALAN BUKIT MERAH,2,JLN BT MERAH,"Error: Road retrieved. Returned address Jalan Bukit Merah, Bukit Merah, Singapore, Central, 169207, Singapore"
253 PASIR RIS STREET 21,253,PASIR RIS ST 21,"1.36819945, 103.96303793498112"
222 TAMPINES STREET 24,222,TAMPINES ST 24,"1.3554986, 103.95267972652611"
416 ANG MO KIO AVENUE 10,416,ANG MO KIO AVE 10,"1.3645516500000001, 103.85508566916289"
449 BUKIT PANJANG RING ROAD,449,BT PANJANG RING RD,"Error: Road retrieved. Returned address Bukit Panjang Ring Road, Bukit Panjang, Northwest, 679910, Singapore"
753 CHOA CHU KANG NORTH 5,753,CHOA CHU KANG NTH 5,"Error: Road retrieved. Returned address Choa Chu Kang North 5, Northwest, 680533, Singapore"
225A JURONG EAST STREET 21,225A,JURONG EAST ST 21,"1.34203035, 103.73682432904411"
112 BEDOK NORTH ROAD,112,BEDOK NTH RD,"1.33102155, 103.93543605384049"
116 HOUGANG AVENUE 1,116,HOUGANG AVE 1,"Error: Road retrieved. Returned address Hougang Avenue 1, Hougang, Northeast, 530110, Singapore"
531 HOUGANG AVENUE 6,531,HOUGANG AVE 6,"Error: Road retrieved. Returned address Hougang Avenue 6, Hougang, Northeast, 538787, Singapore"
28B DOVER CRESCENT,28B,DOVER CRES,"1.3053821, 103.78190340834242"
211A COMPASSVALE LANE,211A,COMPASSVALE LANE,"1.3847390000000002, 103.89940927569236"
705 BEDOK NORTH ROAD,705,BEDOK NTH RD,"1.33661885, 103.91896625289809"
749 YISHUN STREET 72,749,YISHUN ST 72,"1.4283868, 103.83411849648719"
871B TAMPINES STREET 86,871B,TAMPINES ST 86,"Error: Road retrieved. Returned address Tampines Street 86, Q bay Residences, Tampines, Northeast, 524879, Singapore"
657 YISHUN AVENUE 4,657,YISHUN AVE 4,"Error: Road retrieved. Returned address Yishun Avenue 4, Yishun, Northwest, 761672, Singapore"
626 HOUGANG AVENUE 8,626,HOUGANG AVE 8,"Error: Road retrieved. Returned address Hougang Avenue 8, Hougang, Northeast, 530631, Singapore"
161 BUKIT BATOK STREET 11,161,BT BATOK ST 11,"1.34845485, 103.7420858139877"
201 CLEMENTI AVENUE 6,201,CLEMENTI AVE 6,"Error: Road retrieved. Returned address Clementi Avenue 6, Clementi, Southwest, 128808, Singapore"
141 LORONG AH SOO,141,LOR AH SOO,"1.3531046, 103.88391379954311"
504C CANBERRA LINK,504C,CANBERRA LINK,"1.45025205, 103.82334376583442"
75B REDHILL ROAD,75B,REDHILL RD,"Error: Not Singapore. Returned address Redhill Road, Redhill, Arnold, Gedling, Nottinghamshire, East Midlands, England, NG5 8HB, United Kingdom"
462 CLEMENTI AVENUE 3,462,CLEMENTI AVE 3,"1.31116905, 103.76603705"
7 BOON KENG ROAD,7,BOON KENG RD,"1.31677585, 103.86189918155178"
261 TAMPINES STREET 21,261,TAMPINES ST 21,"1.3541534, 103.95127896547831"
459 YISHUN AVENUE 11,459,YISHUN AVE 11,"Error: Road retrieved. Returned address Yishun Avenue 11, Yishun, Northwest, 760413, Singapore"
553 JURONG WEST STREET 42,553,JURONG WEST ST 42,"1.3531830500000002, 103.71918097138003"
338 TAMPINES STREET 33,338,TAMPINES ST 33,"1.3516912, 103.95936564630335"
526 BEDOK NORTH STREET 3,526,BEDOK NTH ST 3,"1.3341482, 103.9297352"
11 CANTONMENT CLOSE,11,CANTONMENT CL,"1.2744195, 103.83972925747867"
114 HO CHING ROAD,114,HO CHING RD,"1.33378855, 103.72410629752123"
440 PASIR RIS DRIVE 4,440,PASIR RIS DR 4,"1.3690709, 103.9585122"
209 PASIR RIS STREET 21,209,PASIR RIS ST 21,"1.3666626, 103.96178634454361"
311A ANCHORVALE LANE,311A,ANCHORVALE LANE,"1.39095825, 103.88422291133222"
503 BEDOK NORTH STREET 3,503,BEDOK NTH ST 3,"1.33144265, 103.93242485038215"
271D JURONG WEST STREET 24,271D,JURONG WEST ST 24,"1.3500662499999998, 103.70486891115242"
359C ADMIRALTY DRIVE,359C,ADMIRALTY DR,"Error: Not Singapore. Returned address Admiralty Drive, Sunset Beach, Huntington Beach, Orange County, California, 92649, United States"
303 CANBERRA ROAD,303,CANBERRA RD,"Error: Not Singapore. Returned address Canberra Road, London Borough of Newham, London, Greater London, England, E6 2RW, United Kingdom"
30 KELANTAN ROAD,30,KELANTAN RD,"Error: Road retrieved. Returned address Kelantan Road, Rochor, Singapore, Central, 208828, Singapore"
976 JURONG WEST STREET 93,976,JURONG WEST ST 93,"1.33992775, 103.69371166948525"
319C ANCHORVALE DRIVE,319C,ANCHORVALE DR,"1.39087455, 103.89051071833987"
340 WOODLANDS AVENUE 1,340,WOODLANDS AVE 1,"Error: Road retrieved. Returned address Woodlands Avenue 1, Woodlands, Northwest, 739069, Singapore"
666B JURONG WEST STREET 65,666B,JURONG WEST ST 65,"1.3396925, 103.70202326975146"
160 YUNG PING ROAD,160,YUNG PING RD,NONE
328 ANG MO KIO AVENUE 3,328,ANG MO KIO AVE 3,"Error: Road retrieved. Returned address Ang Mo Kio Avenue 3, Ang Mo Kio, Singapore, Central, 560564, Singapore"
686A CHOA CHU KANG CRESCENT,686A,CHOA CHU KANG CRES,"Error: Road retrieved. Returned address Choa Chu Kang Crescent, Northwest, 689097, Singapore"
472 SEGAR ROAD,472,SEGAR RD,"Error: Road retrieved. Returned address Segar Road, Bukit Panjang, Northwest, 677738, Singapore"
808C CHOA CHU KANG AVENUE 1,808C,CHOA CHU KANG AVE 1,"Error: Road retrieved. Returned address Choa Chu Kang Avenue 1, Choa Chu Kang, Southwest, 682296, Singapore"
815B CHOA CHU KANG AVENUE 7,815B,CHOA CHU KANG AVE 7,"1.3768123, 103.74766662985806"
634 BEDOK RESERVOIR ROAD,634,BEDOK RESERVOIR RD,"1.3302334, 103.90509711629387"
137 BUKIT BATOK WEST AVENUE 6,137,BT BATOK WEST AVE 6,"1.35055505, 103.74503238144464"
404 FAJAR ROAD,404,FAJAR RD,"Error: Road retrieved. Returned address Fajar Road, Bukit Panjang, Northwest, 673443, Singapore"
166 GANGSA ROAD,166,GANGSA RD,"Error: Road retrieved. Returned address Gangsa Road, Bukit Panjang, Northwest, 679002, Singapore"
758 CHOA CHU KANG NORTH 5,758,CHOA CHU KANG NTH 5,"Error: Road retrieved. Returned address Choa Chu Kang North 5, Northwest, 680533, Singapore"
22 TEBAN GARDENS ROAD,22,TEBAN GDNS RD,"1.32278185, 103.73978960230095"
3C UPPER BOON KENG ROAD,3C,UPP BOON KENG RD,"1.3138205, 103.87306042155683"
316A ANCHORVALE LINK,316A,ANCHORVALE LINK,"1.3926224999999999, 103.88933894793007"
886B WOODLANDS DRIVE 50,886B,WOODLANDS DR 50,"Error: Road retrieved. Returned address Woodlands Drive 50, Woodlands, Northwest, 738853, Singapore"
720 BEDOK RESERVOIR ROAD,720,BEDOK RESERVOIR RD,"1.3359477499999999, 103.92491745348197"
682 CHOA CHU KANG CRESCENT,682,CHOA CHU KANG CRES,"Error: Road retrieved. Returned address Choa Chu Kang Crescent, Northwest, 689097, Singapore"
617B PUNGGOL DRIVE,617B,PUNGGOL DR,"1.4021324499999999, 103.91220891361917"
146 BEDOK RESERVOIR ROAD,146,BEDOK RESERVOIR RD,"1.33457685, 103.91194743350968"
263 BISHAN STREET 22,263,BISHAN ST 22,"1.3589468, 103.84241943382229"
158 BISHAN STREET 13,158,BISHAN ST 13,"1.34659715, 103.85609319385446"
112A DEPOT ROAD,112A,DEPOT RD,"1.2815592, 103.80813957512287"
182 JELEBU ROAD,182,JELEBU RD,"Error: Road retrieved. Returned address Jelebu Road, Bukit Panjang, Northwest, 677743, Singapore"
476D CHOA CHU KANG AVENUE 5,476D,CHOA CHU KANG AVE 5,"1.37729265, 103.73839586738862"
966 HOUGANG AVENUE 9,966,HOUGANG AVE 9,"Error: Road retrieved. Returned address Hougang Avenue 9, Hougang, Northeast, 538692, Singapore"
543 JURONG WEST STREET 42,543,JURONG WEST ST 42,"1.3519543, 103.7161630547625"
734 JURONG WEST STREET 73,734,JURONG WEST ST 73,"1.34542545, 103.70042370955133"
292 TAMPINES STREET 22,292,TAMPINES ST 22,"1.35006455, 103.95583387484484"
7 MARSILING DRIVE,7,MARSILING DR,"1.4417681500000001, 103.77703170747978"
113 ANG MO KIO AVENUE 4,113,ANG MO KIO AVE 4,"1.37176695, 103.83596414724087"
34 UPPER CROSS STREET,34,UPP CROSS ST,"1.285799, 103.842693"
217 BISHAN STREET 23,217,BISHAN ST 23,"1.3566877000000002, 103.84940756350566"
2 TECK WHYE AVENUE,2,TECK WHYE AVE,"1.38207835, 103.7514741109789"
56 CASSIA CRESCENT,56,CASSIA CRES,"Error: Not Singapore. Returned address 56, Cassia Crescent, Vaughan, York Region, Golden Horseshoe, Ontario, L6A 2L1, Canada"
571 HOUGANG STREET 51,571,HOUGANG ST 51,"1.37841705, 103.88799940392622"
503 BISHAN STREET 11,503,BISHAN ST 11,"Error: Road retrieved. Returned address Bishan Street 11, Bishan, Singapore, Central, 570503, Singapore"
44 LENGKOK BAHRU,44,LENGKOK BAHRU,"1.28680895, 103.81192415923778"
467A FERNVALE LINK,467A,FERNVALE LINK,"Error: Road retrieved. Returned address Fernvale Link, Fernvale, Central, 790470, Singapore"
14A LORONG 7 TOA PAYOH,14A,LOR 7 TOA PAYOH,"1.33614935, 103.85819892658913"
203 SERANGOON CENTRAL,203,SERANGOON CTRL,"1.3517139, 103.8730069844865"
754 WOODLANDS CIRCLE,754,WOODLANDS CIRCLE,"Error: Not Singapore. Returned address 754, Woodlands Circle, Woodlands, Cumberland County, Tennessee, 38571, United States"
51 TELOK BLANGAH DRIVE,51,TELOK BLANGAH DR,"1.2735126, 103.8097031"
254 PASIR RIS STREET 21,254,PASIR RIS ST 21,"1.3681887, 103.9638259425468"
443A FERNVALE ROAD,443A,FERNVALE RD,"1.3912227000000001, 103.87432667056285"
454 TAMPINES STREET 42,454,TAMPINES ST 42,"1.3574188, 103.95515522895334"
844 SIMS AVENUE,844,SIMS AVE,"1.3179824500000001, 103.90116625622117"
189C RIVERVALE DRIVE,189C,RIVERVALE DR,"Error: Not Singapore. Returned address Rivervale Drive, Santa Cruz County, California, 95073, United States"
28 MARSILING DRIVE,28,MARSILING DR,"1.4427846, 103.77371616970208"
357 WOODLANDS AVENUE 5,357,WOODLANDS AVE 5,"Error: Road retrieved. Returned address Woodlands Avenue 5, Woodlands, Northwest, 730900, Singapore"
804 CHAI CHEE ROAD,804,CHAI CHEE RD,"1.32432535, 103.92213670177534"
252 BUKIT BATOK EAST AVENUE 5,252,BT BATOK EAST AVE 5,"1.35052275, 103.7572681638548"
83 REDHILL LANE,83,REDHILL LANE,"1.2865570000000002, 103.81928147030447"
408 CHOA CHU KANG AVENUE 3,408,CHOA CHU KANG AVE 3,"1.37992015, 103.74057901811416"
767 WOODLANDS CIRCLE,767,WOODLANDS CIRCLE,"Error: Not Singapore. Returned address 767, Woodlands Circle, Woodlands, Cumberland County, Tennessee, 38571, United States"
166 BEDOK SOUTH AVENUE 3,166,BEDOK STH AVE 3,"1.3200314, 103.94518834849134"
141 BISHAN STREET 12,141,BISHAN ST 12,"1.34507265, 103.85350755432164"
392 BUKIT BATOK WEST AVENUE 5,392,BT BATOK WEST AVE 5,"1.3658234500000002, 103.75329952288635"
53 SIMS PLACE,53,SIMS PL,"1.31782955, 103.88010421120791"
921 HOUGANG STREET 91,921,HOUGANG ST 91,"Error: Road retrieved. Returned address Hougang Street 91, Hougang, Northeast, 530920, Singapore"
285D TOH GUAN ROAD,285D,TOH GUAN RD,"1.33799205, 103.74584420055493"
21 SAINT GEORGE'S ROAD,21,ST. GEORGE'S RD,"Error: Not Singapore. Returned address 21, St Georges Road, Saint Georges, Town of Three Rivers, Kings County, Prince Edward Island, C0A 1G0, Canada"
453D FERNVALE ROAD,453D,FERNVALE RD,"1.39346525, 103.87548798335129"
240 TAMPINES STREET 21,240,TAMPINES ST 21,"1.35498465, 103.94713139999999"
857B TAMPINES STREET 83,857B,TAMPINES ST 83,"1.35427085, 103.93668715"
394 TAMPINES AVENUE 7,394,TAMPINES AVE 7,"1.355239, 103.95587772537799"
252 KIM KEAT LINK,252,KIM KEAT LINK,"1.3312450999999998, 103.85722484808629"
111 BEDOK RESERVOIR ROAD,111,BEDOK RESERVOIR RD,"1.3298816, 103.91005251912105"
411 BUKIT BATOK WEST AVENUE 4,411,BT BATOK WEST AVE 4,"1.36411015, 103.7462920119"
174 LOMPANG ROAD,174,LOMPANG RD,"Error: Road retrieved. Returned address Lompang Road, Bukit Panjang, Northwest, 677743, Singapore"
969 HOUGANG STREET 91,969,HOUGANG ST 91,"Error: Road retrieved. Returned address Hougang Street 91, Hougang, Northeast, 530920, Singapore"
304 JURONG EAST STREET 32,304,JURONG EAST ST 32,"Error: Road retrieved. Returned address Jurong East Street 32, Jurong East, Southwest, 600371, Singapore"
287A JURONG EAST STREET 21,287A,JURONG EAST ST 21,"1.3383148, 103.74369346859802"
447A JALAN KAYU,447A,JLN KAYU,"1.3923315, 103.872624"
246 BISHAN STREET 22,246,BISHAN ST 22,"1.3606916500000001, 103.84333226312775"
145 BUKIT BATOK STREET 11,145,BT BATOK ST 11,"1.34995405, 103.74378655124534"
114 HOUGANG AVENUE 1,114,HOUGANG AVE 1,"1.35318235, 103.88902272068493"
557 PASIR RIS STREET 51,557,PASIR RIS ST 51,"1.36677935, 103.9523415870791"
590C MONTREAL LINK,590C,MONTREAL LINK,"Error: Road retrieved. Returned address Montreal Link, Sembawang, Northwest, 752592, Singapore"
168C SIMEI LANE,168C,SIMEI LANE,"1.342499, 103.95845751426035"
736 TAMPINES STREET 72,736,TAMPINES ST 72,"1.3589438500000002, 103.9343633986065"
727 TAMPINES STREET 71,727,TAMPINES ST 71,"1.3562181999999998, 103.93545296251393"
858 TAMPINES AVENUE 5,858,TAMPINES AVE 5,"1.3542732, 103.937899725"
208A PUNGGOL PLACE,208A,PUNGGOL PL,"1.4014684000000002, 103.90061857799972"
21 GHIM MOH ROAD,21,GHIM MOH RD,"1.3103391, 103.789086"
522 HOUGANG AVENUE 6,522,HOUGANG AVE 6,"1.3736169999999999, 103.89195210723898"
678C JURONG WEST STREET 64,678C,JURONG WEST ST 64,"1.3448229999999999, 103.7036136071489"
268B PUNGGOL FIELD,268B,PUNGGOL FIELD,"Error: Road retrieved. Returned address Punggol Field, Punggol Cove, Punggol, Northeast, 820198, Singapore"
682D WOODLANDS DRIVE 73,682D,WOODLANDS DR 73,"1.4409954, 103.80467610947065"
51 CHAI CHEE STREET,51,CHAI CHEE ST,"1.3287813499999999, 103.92212562517565"
45 TELOK BLANGAH DRIVE,45,TELOK BLANGAH DR,"1.2720905500000002, 103.80973704077661"
608 JURONG WEST STREET 65,608,JURONG WEST ST 65,"1.33804, 103.7003224047632"
36 MARSILING DRIVE,36,MARSILING DR,"1.4453225, 103.77218462597631"
119 BUKIT BATOK WEST AVENUE 6,119,BT BATOK WEST AVE 6,"1.3504011, 103.74678287371398"
602 SENJA ROAD,602,SENJA RD,"Error: Road retrieved. Returned address Senja Road, Bukit Panjang, Northwest, 677741, Singapore"
654 SENJA ROAD,654,SENJA RD,"Error: Road retrieved. Returned address Senja Road, Bukit Panjang, Northwest, 677741, Singapore"
258B COMPASSVALE ROAD,258B,COMPASSVALE RD,"1.39287405, 103.89755906298302"
392 TAMPINES AVENUE 7,392,TAMPINES AVE 7,"1.3553012500000001, 103.95763923470528"
313 BUKIT BATOK STREET 32,313,BT BATOK ST 32,"1.3602652000000002, 103.74755017299191"
133 CASHEW ROAD,133,CASHEW RD,"Error: Not Singapore. Returned address 133, Cashew Road, Greensboro, Hale County, Alabama, 36744, United States"
208B COMPASSVALE LANE,208B,COMPASSVALE LANE,"1.3845651, 103.8987942677976"
6 TOH YI DRIVE,6,TOH YI DR,"Error: Road retrieved. Returned address Toh Yi Drive, Southwest, 596569, Singapore"
349 CORPORATION DRIVE,349,CORPORATION DR,"1.33952015, 103.71919700918588"
22 JALAN MEMBINA,22,JLN MEMBINA,"1.28483305, 103.82649489269834"
307A ANG MO KIO AVENUE 1,307A,ANG MO KIO AVE 1,"Error: Road retrieved. Returned address Ang Mo Kio Avenue 1, Ang Mo Kio, Singapore, Central, 560218, Singapore"
3 HAIG ROAD,3,HAIG RD,"1.3117043499999999, 103.89738633320279"
605 JURONG WEST STREET 62,605,JURONG WEST ST 62,"1.3385064500000001, 103.6995016873155"
267 TAMPINES STREET 21,267,TAMPINES ST 21,"1.3508668, 103.94889025467137"
12 MARSILING LANE,12,MARSILING LANE,"1.4406477500000001, 103.7787539588818"
504D YISHUN STREET 51,504D,YISHUN ST 51,"Error: Road retrieved. Returned address Yishun Street 51, Yishun, Northwest, 762511, Singapore"
401 BEDOK NORTH AVENUE 3,401,BEDOK NTH AVE 3,"1.33093895, 103.9336714498124"
613B BEDOK RESERVOIR ROAD,613B,BEDOK RESERVOIR RD,"1.3328012999999999, 103.91822299179105"
127D KIM TIAN ROAD,127D,KIM TIAN RD,"Error: Road retrieved. Returned address Kim Tian Road, Bukit Merah, Singapore, Central, 169252, Singapore"
197D BOON LAY DRIVE,197D,BOON LAY DR,"1.34347875, 103.7140093760473"
119C RIVERVALE DRIVE,119C,RIVERVALE DR,"Error: Not Singapore. Returned address Rivervale Drive, Santa Cruz County, California, 95073, United States"
417 TAMPINES STREET 41,417,TAMPINES ST 41,"1.3587795, 103.94728457986426"
423 YISHUN AVENUE 11,423,YISHUN AVE 11,"1.4228304, 103.8482815196034"
265 YISHUN STREET 22,265,YISHUN ST 22,"1.43671345, 103.83914474513978"
513 ANG MO KIO AVENUE 8,513,ANG MO KIO AVE 8,"Error: Road retrieved. Returned address Ang Mo Kio Avenue 8, Ang Mo Kio, Singapore, Central, 569843, Singapore"
136 BEDOK RESERVOIR ROAD,136,BEDOK RESERVOIR RD,"1.3336763999999999, 103.91356534574666"
49 HOY FATT ROAD,49,HOY FATT RD,"Error: Road retrieved. Returned address Hoy Fatt Road, Bukit Merah, Singapore, Central, 151028, Singapore"
546 HOUGANG STREET 51,546,HOUGANG ST 51,"Error: Road retrieved. Returned address Hougang Street 51, Hougang, Northeast, 530699, Singapore"
156 YUNG LOH ROAD,156,YUNG LOH RD,"1.3279442, 103.7217462"
4C SAINT GEORGE'S LANE,4C,ST. GEORGE'S LANE,"1.3221538499999999, 103.86090633026889"
489A TAMPINES STREET 45,489A,TAMPINES ST 45,"1.3610495, 103.95723423047491"
317B YISHUN AVENUE 9,317B,YISHUN AVE 9,"Error: Road retrieved. Returned address Yishun Avenue 9, Yishun, Northwest, 760246, Singapore"
50 MOH GUAN TERRACE,50,MOH GUAN TER,"Error: Road retrieved. Returned address Moh Guan Terrace, Tiong Bahru Estate, Bukit Merah, Singapore, Central, 169715, Singapore"
431 BUKIT PANJANG RING ROAD,431,BT PANJANG RING RD,"Error: Road retrieved. Returned address Bukit Panjang Ring Road, Bukit Panjang, Northwest, 679910, Singapore"
548 JURONG WEST STREET 42,548,JURONG WEST ST 42,"1.3534262, 103.71586540282749"
946 TAMPINES AVENUE 4,946,TAMPINES AVE 4,"1.3513764, 103.94000863231742"
160 TAMPINES STREET 12,160,TAMPINES ST 12,"1.35066575, 103.94518936655585"
863 WOODLANDS STREET 83,863,WOODLANDS ST 83,"Error: Road retrieved. Returned address Woodlands Street 83, Woodlands, Northwest, 738489, Singapore"
401 YISHUN AVENUE 6,401,YISHUN AVE 6,"Error: Road retrieved. Returned address Yishun Avenue 6, Yishun, Northwest, 760406, Singapore"
532 BUKIT BATOK STREET 51,532,BT BATOK ST 51,Error: geocode failed on input 532 BUKIT BATOK STREET 51
163 LORONG 1 TOA PAYOH,163,LOR 1 TOA PAYOH,"1.33203315, 103.84409033163348"
172 BEDOK SOUTH ROAD,172,BEDOK STH RD,"1.3205917500000002, 103.94458996581072"
170 HOUGANG AVENUE 1,170,HOUGANG AVE 1,"Error: Block retrieved. Returned address 170, Hougang Ave 1, Hougang, Southeast, 530108, Singapore"
102 TOWNER ROAD,102,TOWNER RD,"1.3202315, 103.861781"
470 PASIR RIS DRIVE 6,470,PASIR RIS DR 6,"1.3738047500000001, 103.95773641455446"
101B PUNGGOL FIELD,101B,PUNGGOL FIELD,"Error: Road retrieved. Returned address Punggol Field, Punggol Cove, Punggol, Northeast, 820198, Singapore"
12 DOVER CLOSE EAST,12,DOVER CL EAST,"1.30497905, 103.78583256938705"
634 PASIR RIS DRIVE 1,634,PASIR RIS DR 1,"1.37752935, 103.94078310167671"
151 PASIR RIS STREET 13,151,PASIR RIS ST 13,"1.3630746500000002, 103.96249432965337"
124 TECK WHYE LANE,124,TECK WHYE LANE,"1.3799517, 103.74947493107338"
103 HOUGANG AVENUE 1,103,HOUGANG AVE 1,"1.3551210999999999, 103.89026926249358"
188B RIVERVALE DRIVE,188B,RIVERVALE DR,"Error: Not Singapore. Returned address Rivervale Drive, Santa Cruz County, California, 95073, United States"
146 TAMPINES AVENUE 5,146,TAMPINES AVE 5,"1.34804185, 103.94288795222288"
113 TAO CHING ROAD,113,TAO CHING RD,"1.3331840000000001, 103.72430627520421"
148 POTONG PASIR AVENUE 1,148,POTONG PASIR AVE 1,"1.3322734, 103.8684226"
223D COMPASSVALE WALK,223D,COMPASSVALE WALK,"1.3890925, 103.8973851470889"
410 SERANGOON CENTRAL,410,SERANGOON CTRL,"1.3477708499999999, 103.87392140290311"
761 CHOA CHU KANG NORTH 5,761,CHOA CHU KANG NTH 5,"Error: Road retrieved. Returned address Choa Chu Kang North 5, Northwest, 680533, Singapore"
6B BOON TIONG ROAD,6B,BOON TIONG RD,"Error: Road retrieved. Returned address Boon Tiong Road, Boon Tiong Aracadia, Bukit Merah, Singapore, Central, 163028, Singapore"
166B TECK WHYE CRESCENT,166B,TECK WHYE CRES,"1.3831251999999998, 103.75339868330131"
441A CLEMENTI AVENUE 3,441A,CLEMENTI AVE 3,"Error: Road retrieved. Returned address Clementi Avenue 3, Clementi, Southwest, 120443, Singapore"
93 JALAN DUA,93,JLN DUA,"1.3086604, 103.88713940439857"
550 HOUGANG STREET 51,550,HOUGANG ST 51,"1.37815895, 103.89075065862289"
104 JALAN RAJAH,104,JLN RAJAH,"1.3278590000000001, 103.85338665962185"
764 PASIR RIS STREET 71,764,PASIR RIS ST 71,"1.3765261, 103.93444253515963"
613D PUNGGOL DRIVE,613D,PUNGGOL DR,"1.4038703, 103.90878698729449"
328 SEMBAWANG CRESCENT,328,SEMBAWANG CRES,"Error: Road retrieved. Returned address Sembawang Crescent, Sembawang, Northwest, 757632, Singapore"
515D TAMPINES CENTRAL 7,515D,TAMPINES CTRL 7,"1.35694955, 103.93929404622642"
175 WOODLANDS STREET 13,175,WOODLANDS ST 13,"1.4335955999999999, 103.77778140000001"
893A WOODLANDS DRIVE 50,893A,WOODLANDS DR 50,"1.4368561, 103.79053961603773"
504 BEDOK NORTH STREET 3,504,BEDOK NTH ST 3,"1.3318580500000001, 103.93246045032313"
411 PANDAN GARDENS,411,PANDAN GDNS,"1.31897845, 103.74668868802806"
180C BOON LAY DRIVE,180C,BOON LAY DR,"1.3483782, 103.70880132258955"
17 MARINE TERRACE,17,MARINE TER,"1.3037621000000001, 103.91420862224315"
18A HOLLAND DRIVE,18A,HOLLAND DR,"1.31104385, 103.79195255576951"
101 SERANGOON NORTH AVENUE 1,101,SERANGOON NTH AVE 1,"1.3710233, 103.8703865164769"
245 SIMEI STREET 5,245,SIMEI ST 5,"1.3443942500000001, 103.95411661779258"
895A WOODLANDS DRIVE 50,895A,WOODLANDS DR 50,"1.43601995, 103.79129685387414"
538 ANG MO KIO AVENUE 5,538,ANG MO KIO AVE 5,"1.3753665000000002, 103.8537119904004"
209 BUKIT BATOK STREET 21,209,BT BATOK ST 21,"1.3454616000000001, 103.74881245369771"
409 CHOA CHU KANG AVENUE 3,409,CHOA CHU KANG AVE 3,"1.3809985999999999, 103.74206817016957"
448 HOUGANG AVENUE 10,448,HOUGANG AVE 10,"Error: Road retrieved. Returned address Hougang Avenue 10, Hougang, Northeast, 538766, Singapore"
665 HOUGANG AVENUE 4,665,HOUGANG AVE 4,"Error: Road retrieved. Returned address Hougang Avenue 4, Hougang, Northeast, 530682, Singapore"
402 PANDAN GARDENS,402,PANDAN GDNS,"1.3207203, 103.74967714039819"
338A TAH CHING ROAD,338A,TAH CHING RD,"1.33775135, 103.72197302578837"
481 SEMBAWANG DRIVE,481,SEMBAWANG DR,"1.4527481500000001, 103.81502417433269"
268A COMPASSVALE LINK,268A,COMPASSVALE LINK,"Error: Road retrieved. Returned address Compassvale Link, Seng Kang, Northeast, 541275, Singapore"
122 BEDOK NORTH STREET 2,122,BEDOK NTH ST 2,"1.32912845, 103.9380310021696"
115 LENGKONG TIGA,115,LENGKONG TIGA,"1.3231108, 103.91121"
404 PANDAN GARDENS,404,PANDAN GDNS,"1.3198001000000001, 103.74929627208121"
106B PUNGGOL FIELD,106B,PUNGGOL FIELD,"1.39709025, 103.90812392173652"
402 BEDOK NORTH AVENUE 3,402,BEDOK NTH AVE 3,"1.3305346999999998, 103.93371925813838"
546 ANG MO KIO AVENUE 10,546,ANG MO KIO AVE 10,"Error: Road retrieved. Returned address Ang Mo Kio Avenue 10, Ang Mo Kio, Singapore, Central, 560449, Singapore"
241 BISHAN STREET 22,241,BISHAN ST 22,"1.3607546, 103.84552702786536"
324 JURONG EAST STREET 31,324,JURONG EAST ST 31,"1.3487992000000002, 103.73000708317366"
989B JURONG WEST STREET 93,989B,JURONG WEST ST 93,"1.3358495000000001, 103.69486230764983"
303B ANCHORVALE LINK,303B,ANCHORVALE LINK,"1.3874086, 103.88987662320999"
227A COMPASSVALE DRIVE,227A,COMPASSVALE DR,"1.3873216, 103.90026243332453"
491E TAMPINES STREET 45,491E,TAMPINES ST 45,"1.3625329499999999, 103.95534610237377"
17 SENG POH ROAD,17,SENG POH RD,"Error: Road retrieved. Returned address Seng Poh Road, Bukit Merah, Singapore, Central, 168895, Singapore"
668 WOODLANDS RING ROAD,668,WOODLANDS RING RD,"Error: Road retrieved. Returned address Woodlands Ring Road, Woodlands, Northwest, 737890, Singapore"
321C ANCHORVALE DRIVE,321C,ANCHORVALE DR,"1.3905712499999998, 103.89150220394413"
804A KEAT HONG CLOSE,804A,KEAT HONG CL,"1.37365565, 103.74191488080493"
333 TAMPINES STREET 32,333,TAMPINES ST 32,"1.3533675500000002, 103.96119515017935"
507 BEDOK NORTH AVENUE 3,507,BEDOK NTH AVE 3,"1.33295425, 103.93258005598048"
131 JALAN BUKIT MERAH,131,JLN BT MERAH,"Error: Road retrieved. Returned address Jalan Bukit Merah, Radin Mas, Bukit Merah, Singapore, Central, 169545, Singapore"
414B FERNVALE LINK,414B,FERNVALE LINK,"1.3900217499999998, 103.87980884999999"
414 BUKIT BATOK WEST AVENUE 4,414,BT BATOK WEST AVE 4,"1.3635581, 103.7459985797619"
635 JURONG WEST STREET 65,635,JURONG WEST ST 65,"1.3426423, 103.69826134720054"
609 ELIAS ROAD,609,ELIAS RD,"1.3755647, 103.94281748641612"
27 GHIM MOH LINK,27,GHIM MOH LINK,"1.30835505, 103.7852237239124"
860 WOODLANDS STREET 83,860,WOODLANDS ST 83,"Error: Road retrieved. Returned address Woodlands Street 83, Woodlands, Northwest, 738489, Singapore"
629 WOODLANDS RING ROAD,629,WOODLANDS RING RD,"Error: Road retrieved. Returned address Woodlands Ring Road, Woodlands, Northwest, 737890, Singapore"
617 BUKIT PANJANG RING ROAD,617,BT PANJANG RING RD,"Error: Road retrieved. Returned address Bukit Panjang Ring Road, Bukit Panjang, Northwest, 679910, Singapore"
444 CHOA CHU KANG AVENUE 4,444,CHOA CHU KANG AVE 4,"1.38163045, 103.73731984873623"
204D PUNGGOL FIELD,204D,PUNGGOL FIELD,"Error: Road retrieved. Returned address Punggol Field, Punggol Cove, Punggol, Northeast, 820198, Singapore"
238 COMPASSVALE WALK,238,COMPASSVALE WALK,"1.39055585, 103.89892097462496"
540 SERANGOON NORTH AVENUE 4,540,SERANGOON NTH AVE 4,"Error: Road retrieved. Returned address Serangoon North Avenue 4, Ang Mo Kio Industrial Park 2, Serangoon North, Singapore, Central, 555859, Singapore"
522C TAMPINES CENTRAL 7,522C,TAMPINES CTRL 7,"1.3580336, 103.93933934862486"
314 ANG MO KIO AVENUE 3,314,ANG MO KIO AVE 3,"Error: Road retrieved. Returned address Ang Mo Kio Avenue 3, Ang Mo Kio, Singapore, Central, 560564, Singapore"
211A PUNGGOL WALK,211A,PUNGGOL WALK,"1.4017054, 103.8998087260598"
916 TAMPINES STREET 91,916,TAMPINES ST 91,"1.34887205, 103.94036906472557"
292 BISHAN STREET 22,292,BISHAN ST 22,"Error: Road retrieved. Returned address Bishan Street 22, Bishan, Singapore, Central, 570282, Singapore"
504 CHOA CHU KANG STREET 51,504,CHOA CHU KANG ST 51,"Error: Road retrieved. Returned address Choa Chu Kang Street 51, Northwest, 689333, Singapore"
61 MARINE DRIVE,61,MARINE DR,"1.3030922500000002, 103.90874717973634"
216 SERANGOON AVENUE 4,216,SERANGOON AVE 4,"Error: Road retrieved. Returned address Serangoon Avenue 4, Serangoon Green, Serangoon, Southeast, 551223, Singapore"
980 JURONG WEST STREET 93,980,JURONG WEST ST 93,"1.3391941, 103.69379843780865"
779 PASIR RIS STREET 71,779,PASIR RIS ST 71,"1.3739872499999999, 103.93803596681046"
668B EDGEFIELD PLAINS,668B,EDGEFIELD PLAINS,"1.40483995, 103.91298147792864"
544 SERANGOON NORTH AVENUE 3,544,SERANGOON NTH AVE 3,"1.37430545, 103.87079272459212"
134 MARSILING ROAD,134,MARSILING RD,"Error: Road retrieved. Returned address Marsiling Road, Woodlands, Northwest, 731188, Singapore"
633 YISHUN STREET 61,633,YISHUN ST 61,"Error: Road retrieved. Returned address Yishun Street 61, Nee Soon Central Meadows, Yishun, Northwest, 768548, Singapore"
101 JURONG EAST STREET 13,101,JURONG EAST ST 13,"1.3369092, 103.7391973872176"
654C JURONG WEST STREET 61,654C,JURONG WEST ST 61,"1.3359222499999999, 103.69729783785232"
356 TAMPINES STREET 33,356,TAMPINES ST 33,"1.35451645, 103.96138214424742"
320 ANG MO KIO AVENUE 1,320,ANG MO KIO AVE 1,"Error: Road retrieved. Returned address Ang Mo Kio Avenue 1, Ang Mo Kio, Singapore, Central, 560218, Singapore"
206 JURONG EAST STREET 21,206,JURONG EAST ST 21,"1.33773575, 103.74206153923743"
8 JALAN BATU,8,JLN BATU,"Error: Not Singapore. Returned address Jalan Batu, RW 08, Srengseng Sawah, Jagakarsa, Jakarta Selatan, Daerah Khusus Ibukota Jakarta, 12640, Indonesia"
24 BENDEMEER ROAD,24,BENDEMEER RD,"1.3186013, 103.86232951769219"
336 WOODLANDS AVENUE 1,336,WOODLANDS AVE 1,"1.43036235, 103.78178577887365"
162C RIVERVALE CRESCENT,162C,RIVERVALE CRES,"1.3900158, 103.9086299886427"
536 ANG MO KIO AVENUE 10,536,ANG MO KIO AVE 10,"1.37448265, 103.85408712607315"
447 BUKIT PANJANG RING ROAD,447,BT PANJANG RING RD,"Error: Road retrieved. Returned address Bukit Panjang Ring Road, Bukit Panjang, Northwest, 679910, Singapore"
329 JURONG EAST AVENUE 1,329,JURONG EAST AVE 1,"1.3501471, 103.72988888161954"
275 PASIR RIS STREET 21,275,PASIR RIS ST 21,"1.3643342999999999, 103.96477675"
460 PASIR RIS DRIVE 4,460,PASIR RIS DR 4,"1.3710624500000002, 103.9592426"
260C PUNGGOL WAY,260C,PUNGGOL WAY,"1.4052093, 103.89636974697504"
833 TAMPINES STREET 83,833,TAMPINES ST 83,"1.3506721, 103.93399667290359"
824 YISHUN STREET 81,824,YISHUN ST 81,"1.41378885, 103.83313231995253"
357 CLEMENTI AVENUE 2,357,CLEMENTI AVE 2,"1.3140401, 103.76928556743792"
104 TOWNER ROAD,104,TOWNER RD,"1.32028295, 103.85852940000001"
101 PASIR RIS STREET 12,101,PASIR RIS ST 12,"1.367117, 103.95809213010453"
472C FERNVALE STREET,472C,FERNVALE ST,"Error: Not Singapore. Returned address Fernvale Street, Sydenham, County Down, Northern Ireland, BT4 1QE, United Kingdom"
114 POTONG PASIR AVENUE 1,114,POTONG PASIR AVE 1,"1.3369542, 103.86316669527864"
77 INDUS ROAD,77,INDUS RD,"1.29120165, 103.82668427359968"
9 JALAN KUKOH,9,JLN KUKOH,"1.2876285, 103.83887776476459"
239 CHOA CHU KANG CENTRAL,239,CHOA CHU KANG CTRL,"1.3794338499999999, 103.74751198081647"
452B SENGKANG WEST WAY,452B,SENGKANG WEST WAY,"1.3936838, 103.87401545920076"
645 WOODLANDS RING ROAD,645,WOODLANDS RING RD,"1.4370726, 103.8009729"
123 MARSILING RISE,123,MARSILING RISE,"Error: Road retrieved. Returned address Marsiling Rise, Woodlands, Northwest, 738099, Singapore"
159 YUNG PING ROAD,159,YUNG PING RD,NONE
520 WOODLANDS DRIVE 14,520,WOODLANDS DR 14,"Error: Road retrieved. Returned address Woodlands Drive 14, Fragrant Woods, Woodlands, Northwest, 738079, Singapore"
54 PIPIT ROAD,54,PIPIT RD,"1.3238568, 103.887585"
126 BUKIT MERAH VIEW,126,BT MERAH VIEW,"1.2844210999999999, 103.82398219677506"
674B JURONG WEST STREET 65,674B,JURONG WEST ST 65,"1.34508205, 103.70196930719536"
336 SEMBAWANG CRESCENT,336,SEMBAWANG CRES,"1.44681755, 103.81579275048958"
585 ANG MO KIO AVENUE 3,585,ANG MO KIO AVE 3,"1.3706075, 103.85237168056298"
652 JALAN TENAGA,652,JLN TENAGA,"1.33259255, 103.90752587421366"
953 HOUGANG AVENUE 9,953,HOUGANG AVE 9,"Error: Road retrieved. Returned address Hougang Avenue 9, Hougang, Northeast, 538692, Singapore"
214 PASIR RIS STREET 21,214,PASIR RIS ST 21,"1.3677937500000001, 103.96120769412082"
933 TAMPINES STREET 91,933,TAMPINES ST 91,"1.3453772499999999, 103.93872690277954"
330 TAMPINES STREET 32,330,TAMPINES ST 32,"1.3533716, 103.95960185628164"
532 JELAPANG ROAD,532,JELAPANG RD,"Error: Road retrieved. Returned address Jelapang Road, Bukit Panjang, Northwest, 671524, Singapore"
445B FERNVALE ROAD,445B,FERNVALE RD,"1.3922707, 103.87404304633176"
256 SIMEI STREET 1,256,SIMEI ST 1,"1.34289575, 103.951684925168"
101 BUKIT PURMEI ROAD,101,BT PURMEI RD,"1.2716132500000001, 103.82554328337454"
131B KIM TIAN ROAD,131B,KIM TIAN RD,"1.2809001, 103.82836302704592"
124 GEYLANG EAST AVENUE 1,124,GEYLANG EAST AVE 1,"1.3182874999999998, 103.88707659374876"
577 WOODLANDS DRIVE 16,577,WOODLANDS DR 16,"1.43100785, 103.79657845"
342 UBI AVENUE 1,342,UBI AVE 1,"1.32640805, 103.90118833235192"
542 HOUGANG AVENUE 8,542,HOUGANG AVE 8,"1.3771516, 103.89151145039682"
123E RIVERVALE DRIVE,123E,RIVERVALE DR,"1.3867642, 103.90281893589787"
313B ANCHORVALE ROAD,313B,ANCHORVALE RD,"1.39138825, 103.88828928121526"
416 TAMPINES STREET 41,416,TAMPINES ST 41,"1.35899685, 103.94767408325791"
106 JALAN DUSUN,106,JLN DUSUN,"Error: Road retrieved. Returned address Jalan Dusun, Novena, Singapore, Central, 329885, Singapore"
124 BISHAN STREET 12,124,BISHAN ST 12,"1.34654545, 103.85140243941271"
465 SEGAR ROAD,465,SEGAR RD,"Error: Road retrieved. Returned address Segar Road, Bukit Panjang, Northwest, 677738, Singapore"
322 JURONG EAST STREET 31,322,JURONG EAST ST 31,"1.34802935, 103.72915087148662"
415B FERNVALE LINK,415B,FERNVALE LINK,"1.3888403999999999, 103.8801156376457"
761 WOODLANDS AVENUE 6,761,WOODLANDS AVE 6,"1.44653685, 103.7968136666855"
109 BEDOK RESERVOIR ROAD,109,BEDOK RESERVOIR RD,"1.32980455, 103.90979664686971"
437 CHOA CHU KANG AVENUE 4,437,CHOA CHU KANG AVE 4,"1.3841592999999999, 103.74066294779462"
302 UBI AVENUE 1,302,UBI AVE 1,"1.33023815, 103.90130658129931"
669C JURONG WEST STREET 64,669C,JURONG WEST ST 64,"1.3433973, 103.7026590886831"
644 YISHUN STREET 61,644,YISHUN ST 61,"1.4216588, 103.83745392270397"
707 CLEMENTI WEST STREET 2,707,CLEMENTI WEST ST 2,"1.3062559999999999, 103.76245476314472"
23 BEDOK SOUTH AVENUE 1,23,BEDOK STH AVE 1,"1.3232756499999998, 103.93280289813904"
720 ANG MO KIO AVENUE 6,720,ANG MO KIO AVE 6,"Error: Road retrieved. Returned address Ang Mo Kio Avenue 6, Ang Mo Kio, Singapore, Central, 569845, Singapore"
524 WOODLANDS DRIVE 14,524,WOODLANDS DR 14,"Error: Road retrieved. Returned address Woodlands Drive 14, Fragrant Woods, Woodlands, Northwest, 738079, Singapore"
604B PUNGGOL ROAD,604B,PUNGGOL RD,"Error: Road retrieved. Returned address Punggol Road, Punggol, Northeast, 820198, Singapore"
117B RIVERVALE DRIVE,117B,RIVERVALE DR,"1.3836531, 103.90283171995927"
122C SENGKANG EAST WAY,122C,SENGKANG EAST WAY,"1.3874833500000001, 103.90610349666736"
151 YISHUN STREET 11,151,YISHUN ST 11,"Error: Road retrieved. Returned address Yishun Street 11, Yishun, Northwest, 768643, Singapore"
253 YISHUN RING ROAD,253,YISHUN RING RD,"1.4349478, 103.84053890000001"
25 SIN MING ROAD,25,SIN MING RD,"Error: Road retrieved. Returned address Sin Ming Road, Bishan, Singapore, Central, 575625, Singapore"
688C CHOA CHU KANG CRESCENT,688C,CHOA CHU KANG CRES,"1.40326315, 103.75092269135972"
714 JURONG WEST STREET 71,714,JURONG WEST ST 71,"1.3430963, 103.69666434295567"
250C COMPASSVALE STREET,250C,COMPASSVALE ST,"Error: Road retrieved. Returned address Compassvale Street, Seng Kang, Northeast, 540294, Singapore"
895A TAMPINES STREET 81,895A,TAMPINES ST 81,"1.34764665, 103.93246420796362"
204 TOA PAYOH NORTH,204,TOA PAYOH NTH,"1.341448, 103.84913307380327"
258C COMPASSVALE ROAD,258C,COMPASSVALE RD,"1.3933550499999998, 103.89751320999851"
139 MARSILING ROAD,139,MARSILING RD,"1.4377016, 103.77733635"
324 ANG MO KIO AVENUE 3,324,ANG MO KIO AVE 3,"Error: Road retrieved. Returned address Ang Mo Kio Avenue 3, Ang Mo Kio, Singapore, Central, 560564, Singapore"
834 JURONG WEST STREET 81,834,JURONG WEST ST 81,"1.34315265, 103.69379191881617"
52 KENT ROAD,52,KENT RD,"Error: Not Singapore. Returned address 52, Kent Road, Wappingers Falls, Town of Wappinger, Dutchess County, New York, 12590, United States"
229 CHOA CHU KANG CENTRAL,229,CHOA CHU KANG CTRL,"1.3806475, 103.74635753472822"
538 JELAPANG ROAD,538,JELAPANG RD,"Error: Road retrieved. Returned address Jelapang Road, Bukit Panjang, Northwest, 671524, Singapore"
30 BENDEMEER ROAD,30,BENDEMEER RD,"1.3190161, 103.8638661"
53 COMMONWEALTH DRIVE,53,C'WEALTH DR,"Error: Not Singapore. Returned address 53, Commonwealth Drive, Portland, Cumberland County, Maine, 04103, United States"
295A COMPASSVALE CRESCENT,295A,COMPASSVALE CRES,"1.39815025, 103.89956513219553"
257B COMPASSVALE ROAD,257B,COMPASSVALE RD,"1.39257295, 103.89701687360166"
310 SERANGOON AVENUE 2,310,SERANGOON AVE 2,"Error: Road retrieved. Returned address Serangoon Avenue 2, Serangoon, Southeast, 556138, Singapore"
317 WOODLANDS STREET 31,317,WOODLANDS ST 31,"1.4317940999999998, 103.7762904254925"
608 ANG MO KIO AVENUE 5,608,ANG MO KIO AVE 5,"1.37873095, 103.83694926889964"
8 SELEGIE ROAD,8,SELEGIE RD,"Error: Road retrieved. Returned address Selegie Road, Rochor, Singapore, Central, 188214, Singapore"
372 JURONG EAST STREET 32,372,JURONG EAST ST 32,"Error: Road retrieved. Returned address Jurong East Street 32, Jurong East, Southwest, 600371, Singapore"
651 PUNGGOL CENTRAL,651,PUNGGOL CTRL,"1.3968484, 103.91549609270493"
121C SENGKANG EAST WAY,121C,SENGKANG EAST WAY,"Error: Road retrieved. Returned address Sengkang East Way, Seng Kang, Northeast, 540143, Singapore"
261 SERANGOON CENTRAL DRIVE,261,SERANGOON CTRL DR,"1.3538627, 103.8723813"
485A TAMPINES AVENUE 9,485A,TAMPINES AVE 9,"1.3600145, 103.955741925"
108 BEDOK NORTH ROAD,108,BEDOK NTH RD,"1.33271835, 103.93627460658684"
663 JALAN DAMAI,663,JLN DAMAI,"1.334715, 103.90888114533777"
111 COMMONWEALTH CRESCENT,111,C'WEALTH CRES,"1.30634315, 103.79849229999999"
325B SENGKANG EAST WAY,325B,SENGKANG EAST WAY,"1.39312105, 103.89067280698441"
878 TAMPINES AVENUE 8,878,TAMPINES AVE 8,"1.3521830000000001, 103.93139689009195"
538 WOODLANDS DRIVE 16,538,WOODLANDS DR 16,"Error: Road retrieved. Returned address Woodlands Drive 16, Woodlands, Northwest, 730548, Singapore"
683C CHOA CHU KANG CRESCENT,683C,CHOA CHU KANG CRES,"Error: Road retrieved. Returned address Choa Chu Kang Crescent, Northwest, 689097, Singapore"
131 GEYLANG EAST AVENUE 1,131,GEYLANG EAST AVE 1,"1.3166896499999998, 103.8865471098812"
124 YISHUN STREET 11,124,YISHUN ST 11,"Error: Road retrieved. Returned address Yishun Street 11, Yishun, Northwest, 768643, Singapore"
422 CANBERRA ROAD,422,CANBERRA RD,"1.453263, 103.81820292913943"
74A REDHILL ROAD,74A,REDHILL RD,"Error: Not Singapore. Returned address Redhill Road, Redhill, Arnold, Gedling, Nottinghamshire, East Midlands, England, NG5 8HB, United Kingdom"
296C CHOA CHU KANG AVENUE 2,296C,CHOA CHU KANG AVE 2,"1.3765861, 103.74234124572746"
758 PASIR RIS STREET 71,758,PASIR RIS ST 71,"1.3767667000000001, 103.93340635189384"
425 CANBERRA ROAD,425,CANBERRA RD,"1.45427035, 103.8187210228379"
157B RIVERVALE CRESCENT,157B,RIVERVALE CRES,"Error: Road retrieved. Returned address Rivervale Crescent, Seng Kang, Northeast, 540151, Singapore"
642A PUNGGOL DRIVE,642A,PUNGGOL DR,"1.3981691, 103.91670333160081"
304B ANCHORVALE LINK,304B,ANCHORVALE LINK,"1.3885504499999999, 103.88942312542945"
219C BEDOK CENTRAL,219C,BEDOK CTRL,"1.3248322, 103.93355969492295"
143 JALAN BUKIT MERAH,143,JLN BT MERAH,"Error: Road retrieved. Returned address Jalan Bukit Merah, Radin Mas, Bukit Merah, Singapore, Central, 160143, Singapore"
55 JALAN BAHAGIA,55,JLN BAHAGIA,"Error: Road retrieved. Returned address Jalan Bahagia, Novena, Singapore, Central, 322019, Singapore"
73 MARINE DRIVE,73,MARINE DR,"1.3038079, 103.90834643264225"
641A PUNGGOL DRIVE,641A,PUNGGOL DR,"1.39855705, 103.91698938652776"
148 BISHAN STREET 11,148,BISHAN ST 11,"1.3443689, 103.85448306698302"
216 PETIR ROAD,216,PETIR RD,"Error: Road retrieved. Returned address Petir Road, Bukit Panjang, Northwest, 678272, Singapore"
6 LORONG 7 TOA PAYOH,6,LOR 7 TOA PAYOH,"1.3384817999999998, 103.85707579485924"
25 LIM LIAK STREET,25,LIM LIAK ST,"1.28541625, 103.83127617223039"
807B CHOA CHU KANG AVENUE 1,807B,CHOA CHU KANG AVE 1,"Error: Road retrieved. Returned address Choa Chu Kang Avenue 1, Choa Chu Kang, Southwest, 682296, Singapore"
109 BUKIT PURMEI ROAD,109,BT PURMEI RD,"1.27388335, 103.82533927474063"
10 SELEGIE ROAD,10,SELEGIE RD,"Error: Road retrieved. Returned address Selegie Road, Rochor, Singapore, Central, 188214, Singapore"
636 VEERASAMY ROAD,636,VEERASAMY RD,"Error: Road retrieved. Returned address Veerasamy Road, Rochor, Singapore, Central, 207309, Singapore"
429 TAMPINES STREET 41,429,TAMPINES ST 41,"1.3592686, 103.94964127371055"
932 YISHUN CENTRAL 1,932,YISHUN CTRL 1,"1.4262972999999999, 103.83732857760396"
319 ANG MO KIO AVENUE 1,319,ANG MO KIO AVE 1,"Error: Road retrieved. Returned address Ang Mo Kio Avenue 1, Ang Mo Kio, Singapore, Central, 560218, Singapore"
291 BISHAN STREET 24,291,BISHAN ST 24,"1.3559282499999998, 103.84516399580886"
442 CHOA CHU KANG AVENUE 4,442,CHOA CHU KANG AVE 4,"1.3809278, 103.73779047188793"
125 ALJUNIED ROAD,125,ALJUNIED RD,"1.3232509499999998, 103.8818080713362"
526 HOUGANG AVENUE 6,526,HOUGANG AVE 6,"Error: Road retrieved. Returned address Hougang Avenue 6, Hougang, Northeast, 538787, Singapore"
558 HOUGANG STREET 51,558,HOUGANG ST 51,"1.3805097, 103.88975257988974"
332C ANCHORVALE LINK,332C,ANCHORVALE LINK,"1.39508115, 103.89194217364641"
890B TAMPINES AVENUE 1,890B,TAMPINES AVE 1,"1.3468934, 103.93368172011853"
497G TAMPINES STREET 45,497G,TAMPINES ST 45,"1.3602026, 103.95941034885857"
149 YISHUN STREET 11,149,YISHUN ST 11,"1.43152915, 103.832800223956"
769 BEDOK RESERVOIR VIEW,769,BEDOK RESERVOIR VIEW,"1.3358626, 103.93774982535986"
896B WOODLANDS DRIVE 50,896B,WOODLANDS DR 50,"1.4369447, 103.79252291095459"
366 BUKIT BATOK STREET 31,366,BT BATOK ST 31,"1.360424, 103.74880483575042"
341 JURONG EAST AVENUE 1,341,JURONG EAST AVE 1,"1.3492182000000001, 103.73125486441117"
207D PUNGGOL PLACE,207D,PUNGGOL PL,"1.4010148999999998, 103.9005892"
660 WOODLANDS RING ROAD,660,WOODLANDS RING RD,"1.43579475, 103.79951213915288"
201C PUNGGOL FIELD,201C,PUNGGOL FIELD,"1.39945685, 103.90374011397864"
103A DEPOT ROAD,103A,DEPOT RD,"1.28071795, 103.81353592532155"
510 JURONG WEST STREET 52,510,JURONG WEST ST 52,"1.3485328, 103.7198538"
827 JURONG WEST STREET 81,827,JURONG WEST ST 81,"1.34557855, 103.6931733463916"
112 LORONG 3 GEYLANG,112,LOR 3 GEYLANG,"1.3120589, 103.8736640647605"
827 WOODLANDS STREET 81,827,WOODLANDS ST 81,"Error: Road retrieved. Returned address Woodlands St 81, Woodlands, Northwest, 738525, Singapore"
473 PASIR RIS DRIVE 6,473,PASIR RIS DR 6,"1.37450425, 103.95738272555795"
323 SERANGOON AVENUE 3,323,SERANGOON AVE 3,"1.3513177, 103.86950343644438"
3 GHIM MOH ROAD,3,GHIM MOH RD,"1.3120091, 103.78725602341518"
402 WOODLANDS STREET 41,402,WOODLANDS ST 41,"Error: Road retrieved. Returned address Woodlands Street 41, Woodlands, Northwest, 31, Singapore"
264 BUKIT BATOK EAST AVENUE 4,264,BT BATOK EAST AVE 4,"1.3498778, 103.75904123088813"
880 YISHUN STREET 81,880,YISHUN ST 81,"1.4139338000000001, 103.83618143462252"
8B UPPER BOON KENG ROAD,8B,UPP BOON KENG RD,"1.3125130999999999, 103.86983821339741"
269 BISHAN STREET 24,269,BISHAN ST 24,"1.3569035999999999, 103.84263926090826"
134 BEDOK NORTH STREET 2,134,BEDOK NTH ST 2,"1.3283098, 103.93659173561429"
25A JALAN MEMBINA,25A,JLN MEMBINA,"1.28349635, 103.82604575339411"
20 TECK WHYE LANE,20,TECK WHYE LANE,"1.3786904, 103.75293261337833"
419 BUKIT BATOK WEST AVENUE 2,419,BT BATOK WEST AVE 2,"1.36216395, 103.74634012337916"
224 TAMPINES STREET 23,224,TAMPINES ST 23,"Error: Road retrieved. Returned address Tampines Street 23, Tampines, Northeast, 520210, Singapore"
754 YISHUN STREET 72,754,YISHUN ST 72,"1.42696735, 103.8340882505154"
114 BUKIT BATOK WEST AVENUE 6,114,BT BATOK WEST AVE 6,"1.34886615, 103.74597581437156"
14 TECK WHYE LANE,14,TECK WHYE LANE,"1.3784542, 103.75565597692308"
875 TAMPINES STREET 84,875,TAMPINES ST 84,"1.3526479500000002, 103.93202699808177"
274 YISHUN STREET 22,274,YISHUN ST 22,"1.43737665, 103.83880585"
417 ANG MO KIO AVENUE 10,417,ANG MO KIO AVE 10,"1.3649105499999998, 103.85519827834861"
171 ANG MO KIO AVENUE 4,171,ANG MO KIO AVE 4,"Error: Road retrieved. Returned address Ang Mo Kio Avenue 4, Ang Mo Kio, Singapore, Central, 568987, Singapore"
475B UPPER SERANGOON CRESCENT,475B,UPP SERANGOON CRES,"1.3759069, 103.89995805000001"
136 SERANGOON NORTH AVENUE 2,136,SERANGOON NTH AVE 2,"Error: Road retrieved. Returned address Serangoon North Avenue 2, Serangoon, Southeast, 550151, Singapore"
146 WOODLANDS STREET 13,146,WOODLANDS ST 13,"Error: Road retrieved. Returned address Woodlands Street 13, Woodlands, Northwest, 738623, Singapore"
351 WOODLANDS AVENUE 1,351,WOODLANDS AVE 1,"1.4325139999999998, 103.78403937836042"
316A YISHUN AVENUE 9,316A,YISHUN AVE 9,"Error: Road retrieved. Returned address Yishun Avenue 9, Yishun, Northwest, 760246, Singapore"
249 BISHAN STREET 22,249,BISHAN ST 22,"1.36120915, 103.8438559910096"
136 JALAN BUKIT MERAH,136,JLN BT MERAH,"Error: Road retrieved. Returned address Jalan Bukit Merah, Radin Mas, Bukit Merah, Singapore, Central, 169545, Singapore"
2C GEYLANG SERAI,2C,GEYLANG SERAI,"1.3174606, 103.89807688408239"
271B JURONG WEST STREET 24,271B,JURONG WEST ST 24,"1.3505611, 103.70433378742555"
75 WHAMPOA DRIVE,75,WHAMPOA DR,"Error: Road retrieved. Returned address Whampoa Drive, Novena, Singapore, Central, 320029, Singapore"
420 SERANGOON CENTRAL,420,SERANGOON CTRL,"1.34930175, 103.8748580078796"
331 WOODLANDS AVENUE 1,331,WOODLANDS AVE 1,"1.4294291000000001, 103.7787307495177"
332 SERANGOON AVENUE 3,332,SERANGOON AVE 3,"Error: Road retrieved. Returned address Serangoon Avenue 3, The Scala, Serangoon, Southeast, 556112, Singapore"
118 ANG MO KIO AVENUE 4,118,ANG MO KIO AVE 4,"Error: Road retrieved. Returned address Ang Mo Kio Avenue 4, Ang Mo Kio, Singapore, Central, 568987, Singapore"
3 BEDOK SOUTH AVENUE 1,3,BEDOK STH AVE 1,"1.321912, 103.93319832327938"
632 WOODLANDS RING ROAD,632,WOODLANDS RING RD,"Error: Road retrieved. Returned address Woodlands Ring Road, Woodlands, Northwest, 737890, Singapore"
554 BEDOK NORTH STREET 3,554,BEDOK NTH ST 3,"1.33269935, 103.92811067355312"
51 NEW UPPER CHANGI ROAD,51,NEW UPP CHANGI RD,"1.3234115499999999, 103.94218594442995"
611 BUKIT PANJANG RING ROAD,611,BT PANJANG RING RD,"Error: Road retrieved. Returned address Bukit Panjang Ring Road, Bukit Panjang, Northwest, 679910, Singapore"
36 TEBAN GARDENS ROAD,36,TEBAN GDNS RD,"1.31994945, 103.7427607478827"
524 JURONG WEST STREET 52,524,JURONG WEST ST 52,"1.3472214999999998, 103.71727759999999"
