address,block,street_name,lat_long
158 WOODLANDS STREET 13,158,WOODLANDS ST 13,"Error: Road retrieved. Returned address Woodlands Street 13, Woodlands, Northwest, 738623, Singapore"
33 BEDOK SOUTH AVENUE 2,33,BEDOK STH AVE 2,"1.3228103999999998, 103.93905107774586"
183 BUKIT BATOK WEST AVENUE 8,183,BT BATOK WEST AVE 8,"1.3462705000000001, 103.74338222929208"
18 EUNOS CRESCENT,18,EUNOS CRES,"1.3237537499999998, 103.90443552829564"
286C TOH GUAN ROAD,286C,TOH GUAN RD,"1.3390389, 103.74453350480412"
673A EDGEFIELD PLAINS,673A,EDGEFIELD PLAINS,"1.40669035, 103.91140464087464"
501D WELLINGTON CIRCLE,501D,WELLINGTON CIRCLE,"Error: Not Singapore. Returned address 501, Wellington Circle, Rochester Hills, Oakland County, Michigan, 48309, United States"
100 LORONG 1 TOA PAYOH,100,LOR 1 TOA PAYOH,"1.3395416500000001, 103.84858787356544"
506 ANG MO KIO AVENUE 8,506,ANG MO KIO AVE 8,"Error: Road retrieved. Returned address Ang Mo Kio Avenue 8, Ang Mo Kio, Singapore, Central, 569843, Singapore"
204 BOON LAY DRIVE,204,BOON LAY DR,"1.344387, 103.71514622348784"
671B JURONG WEST STREET 65,671B,JURONG WEST ST 65,"1.3440021, 103.70205103548648"
199C PUNGGOL FIELD,199C,PUNGGOL FIELD,"Error: Road retrieved. Returned address Punggol Field, Punggol Cove, Punggol, Northeast, 820198, Singapore"
412 WOODLANDS STREET 41,412,WOODLANDS ST 41,"1.4281394, 103.77288759999999"
349 WOODLANDS AVENUE 3,349,WOODLANDS AVE 3,"1.4335101, 103.7825328"
253 HOUGANG AVENUE 3,253,HOUGANG AVE 3,"Error: Road retrieved. Returned address Hougang Avenue 3, Hougang, Northeast, 534412, Singapore"
663A PUNGGOL DRIVE,663A,PUNGGOL DR,"1.4003259, 103.91687420357745"
619 BEDOK RESERVOIR ROAD,619,BEDOK RESERVOIR RD,"1.3334453000000002, 103.91767752885784"
669A EDGEFIELD PLAINS,669A,EDGEFIELD PLAINS,"1.40486925, 103.91400309180784"
140 YISHUN RING ROAD,140,YISHUN RING RD,"1.4311779, 103.83056875"
449 CLEMENTI AVENUE 3,449,CLEMENTI AVE 3,"1.312804, 103.7651765"
17 JALAN TENTERAM,17,JLN TENTERAM,"Error: Not Singapore. Returned address Hotel Sentral, 17, Jalan Tenteram, Johor Bahru, Iskandar Malaysia, Johor, 80300, Malaysia"
745 PASIR RIS STREET 71,745,PASIR RIS ST 71,"1.37833495, 103.93567924643678"
158 BEDOK SOUTH AVENUE 3,158,BEDOK STH AVE 3,"1.3187419999999999, 103.94505644769569"
422 PASIR RIS DRIVE 6,422,PASIR RIS DR 6,"1.37058115, 103.95444378729493"
80B LORONG 4 TOA PAYOH,80B,LOR 4 TOA PAYOH,"1.3353188500000002, 103.84982495008316"
407 BUKIT BATOK WEST AVENUE 4,407,BT BATOK WEST AVE 4,"1.36483525, 103.74584425881096"
328 JURONG EAST STREET 31,328,JURONG EAST ST 31,"1.34936935, 103.73016094669117"
814 TAMPINES STREET 81,814,TAMPINES ST 81,"1.34729025, 103.93649422456207"
401 ANG MO KIO AVENUE 10,401,ANG MO KIO AVE 10,"1.3609939500000001, 103.8554229016294"
424 BEDOK NORTH AVENUE 1,424,BEDOK NTH AVE 1,"1.32838355, 103.9275229615746"
21 BALAM ROAD,21,BALAM RD,"1.3312167499999998, 103.8869487531579"
544 JURONG WEST STREET 42,544,JURONG WEST ST 42,"1.3522389, 103.715901"
128C PUNGGOL FIELD WALK,128C,PUNGGOL FIELD WALK,"1.39265545, 103.91233258336268"
93 COMMONWEALTH DRIVE,93,C'WEALTH DR,"1.305255, 103.80008521299172"
206B COMPASSVALE LANE,206B,COMPASSVALE LANE,"1.3871461, 103.8968024"
298 TAMPINES STREET 22,298,TAMPINES ST 22,"1.35160785, 103.95497454738204"
248 KIM KEAT LINK,248,KIM KEAT LINK,"1.3315815500000001, 103.8561473014004"
737 WOODLANDS CIRCLE,737,WOODLANDS CIRCLE,"1.4436018499999999, 103.79663065263762"
386 BUKIT BATOK WEST AVENUE 5,386,BT BATOK WEST AVE 5,"1.3639965, 103.7527407"
108 BUKIT PURMEI ROAD,108,BT PURMEI RD,"1.2734462500000001, 103.82582829067194"
919 HOUGANG AVENUE 4,919,HOUGANG AVE 4,"Error: Road retrieved. Returned address Hougang Avenue 4, Hougang, Northeast, 530682, Singapore"
211 BOON LAY PLACE,211,BOON LAY PL,"1.3483569499999999, 103.71360219294507"
643 JURONG WEST STREET 61,643,JURONG WEST ST 61,"1.3393035, 103.69568471379063"
673 WOODLANDS DRIVE 71,673,WOODLANDS DR 71,"Error: Road retrieved. Returned address Woodlands Drive 71, Woodlands, Northwest, 738344, Singapore"
773 YISHUN AVENUE 3,773,YISHUN AVE 3,"1.42336745, 103.83261672036147"
990B JURONG WEST STREET 93,990B,JURONG WEST ST 93,"1.3352591500000002, 103.69475409578314"
648 WOODLANDS RING ROAD,648,WOODLANDS RING RD,"1.4382708, 103.80160457285066"
348 ANG MO KIO AVENUE 3,348,ANG MO KIO AVE 3,"Error: Road retrieved. Returned address Ang Mo Kio Avenue 3, Ang Mo Kio, Singapore, Central, 560564, Singapore"
171 BISHAN STREET 13,171,BISHAN ST 13,"1.3469209, 103.85355333858871"
122 PAYA LEBAR WAY,122,PAYA LEBAR WAY,"1.32253985, 103.8824314281918"
335 SEMBAWANG CLOSE,335,SEMBAWANG CL,"Error: Road retrieved. Returned address Sembawang Close, Sun Trellis, Sembawang, Northwest, 750333, Singapore"
491B TAMPINES AVENUE 9,491B,TAMPINES AVE 9,"1.36227005, 103.95426213815156"
312 WOODLANDS STREET 31,312,WOODLANDS ST 31,"1.43065315, 103.77566265"
138 BEDOK NORTH STREET 2,138,BEDOK NTH ST 2,"1.32946495, 103.93609535446964"
697 HOUGANG STREET 61,697,HOUGANG ST 61,"Error: Road retrieved. Returned address Hougang Street 61, Hougang, Northeast, 538793, Singapore"
224 PASIR RIS STREET 21,224,PASIR RIS ST 21,"1.3707500499999998, 103.96097199851263"
416 CANBERRA ROAD,416,CANBERRA RD,"Error: Not Singapore. Returned address Canberra Road, London Borough of Newham, London, Greater London, England, E6 2RW, United Kingdom"
267A COMPASSVALE LINK,267A,COMPASSVALE LINK,"Error: Road retrieved. Returned address Compassvale Link, Seng Kang, Northeast, 541275, Singapore"
419 WOODLANDS STREET 41,419,WOODLANDS ST 41,"1.4284756, 103.77459252802093"
704 TAMPINES STREET 71,704,TAMPINES ST 71,"1.356603, 103.93722047450001"
245 BISHAN STREET 22,245,BISHAN ST 22,"1.3604704, 103.843911181924"
253 SERANGOON CENTRAL DRIVE,253,SERANGOON CTRL DR,"1.3540772, 103.8708075"
460 TAMPINES STREET 42,460,TAMPINES ST 42,"1.3581279, 103.95514513766085"
206 YISHUN STREET 21,206,YISHUN ST 21,"Error: Road retrieved. Returned address Yishun Street 21, Yishun, Northwest, 768610, Singapore"
488 ADMIRALTY LINK,488,ADMIRALTY LINK,"1.4552014500000001, 103.81631300633637"
723 TAMPINES STREET 72,723,TAMPINES ST 72,"1.3599507, 103.93517940841613"
370 WOODLANDS AVENUE 1,370,WOODLANDS AVE 1,"Error: Road retrieved. Returned address Woodlands Avenue 1, Woodlands, Northwest, 739069, Singapore"
307 JURONG EAST STREET 32,307,JURONG EAST ST 32,"1.34661835, 103.73517513966897"
303A ANCHORVALE LINK,303A,ANCHORVALE LINK,"1.3872227499999998, 103.89120007491599"
416 WOODLANDS STREET 41,416,WOODLANDS ST 41,"1.4283092499999999, 103.77372165"
204 BISHAN STREET 23,204,BISHAN ST 23,"1.35474475, 103.84774895994474"
112B DEPOT ROAD,112B,DEPOT RD,"1.2816412499999998, 103.80773600869948"
77 MARINE DRIVE,77,MARINE DR,"Error: Not Singapore. Returned address 77, Stella Drive, Porters Lake, Halifax Regional Municipality, Halifax County, Nova Scotia, B3E 1H9, Canada"
54 TELOK BLANGAH DRIVE,54,TELOK BLANGAH DR,"1.27359385, 103.81204234243569"
115 BUKIT PURMEI ROAD,115,BT PURMEI RD,"Error: Road retrieved. Returned address Bukit Purmei Road, Bukit Purmei Ville, Bukit Merah, Singapore, Central, 90112, Singapore"
206 CHOA CHU KANG CENTRAL,206,CHOA CHU KANG CTRL,"1.38063635, 103.74837113323801"
12 TECK WHYE LANE,12,TECK WHYE LANE,"1.3794526999999999, 103.75565280261539"
601 HOUGANG AVENUE 4,601,HOUGANG AVE 4,"Error: Road retrieved. Returned address Hougang Avenue 4, Hougang, Northeast, 530682, Singapore"
227 JURONG EAST STREET 21,227,JURONG EAST ST 21,"1.3418045, 103.73611022784092"
402 JURONG WEST STREET 42,402,JURONG WEST ST 42,"1.3533932499999999, 103.72247383177967"
841 JURONG WEST STREET 81,841,JURONG WEST ST 81,"1.3445283, 103.69287938148074"
508B WELLINGTON CIRCLE,508B,WELLINGTON CIRCLE,"1.45268855, 103.82105580585088"
141 TAMPINES STREET 12,141,TAMPINES ST 12,"1.3482894, 103.94511499641871"
37 LORONG 5 TOA PAYOH,37,LOR 5 TOA PAYOH,"1.33455895, 103.85588494849418"
102 WOODLANDS STREET 13,102,WOODLANDS ST 13,"1.4360995, 103.78122246699809"
864 YISHUN AVENUE 4,864,YISHUN AVE 4,"1.4166676, 103.83920105119077"
334C YISHUN STREET 31,334C,YISHUN ST 31,"1.4325966, 103.8460850452212"
484A CHOA CHU KANG AVENUE 5,484A,CHOA CHU KANG AVE 5,"1.3765842, 103.73671839031337"
683 HOUGANG AVENUE 8,683,HOUGANG AVE 8,"1.373421, 103.8860631"
129 BEDOK NORTH STREET 2,129,BEDOK NTH ST 2,"1.3275328499999999, 103.93808269444034"
614 SENJA ROAD,614,SENJA RD,"Error: Road retrieved. Returned address Senja Road, Bukit Panjang, Northwest, 677741, Singapore"
8 TG PAGAR PLAZA,8,TG PAGAR PLAZA,"Error: Not Singapore. Returned address Tg Alam, Pagar Alam, Sumatera Selatan, Indonesia"
668 CHOA CHU KANG CRESCENT,668,CHOA CHU KANG CRES,"Error: Road retrieved. Returned address Choa Chu Kang Crescent, Northwest, 689097, Singapore"
405 JURONG WEST STREET 42,405,JURONG WEST ST 42,"1.35436065, 103.72119733498408"
656D JURONG WEST STREET 61,656D,JURONG WEST ST 61,"1.3355161, 103.6998071973025"
186A RIVERVALE DRIVE,186A,RIVERVALE DR,"Error: Not Singapore. Returned address Rivervale Drive, Santa Cruz County, California, 95073, United States"
253 BUKIT BATOK EAST AVENUE 5,253,BT BATOK EAST AVE 5,"1.3501566, 103.75764641086172"
323 ANG MO KIO AVENUE 3,323,ANG MO KIO AVE 3,"1.367887, 103.8477376"
154 BISHAN STREET 13,154,BISHAN ST 13,"1.34647235, 103.85544596969639"
543 BEDOK NORTH STREET 3,543,BEDOK NTH ST 3,"1.33027485, 103.92303361071208"
37 LIM LIAK STREET,37,LIM LIAK ST,"1.2850806, 103.83048939937157"
119 TECK WHYE LANE,119,TECK WHYE LANE,"1.37918995, 103.75038549578998"
111 TAMPINES STREET 11,111,TAMPINES ST 11,"1.346791, 103.94713966216526"
552 WOODLANDS DRIVE 44,552,WOODLANDS DR 44,"Error: Road retrieved. Returned address Woodlands Drive 44, Vista Point, Woodlands, Northwest, 730548, Singapore"
742 YISHUN AVENUE 5,742,YISHUN AVE 5,"1.42969385, 103.83308262167402"
507 BUKIT BATOK STREET 52,507,BT BATOK ST 52,"1.3521757, 103.7541541"
275B COMPASSVALE LINK,275B,COMPASSVALE LINK,"1.3833418000000002, 103.89455063414576"
518 WOODLANDS DRIVE 14,518,WOODLANDS DR 14,"Error: Road retrieved. Returned address Woodlands Drive 14, Fragrant Woods, Woodlands, Northwest, 738079, Singapore"
404 CHOA CHU KANG AVENUE 3,404,CHOA CHU KANG AVE 3,"1.3800230500000001, 103.73878323434803"
203B PUNGGOL FIELD,203B,PUNGGOL FIELD,"Error: Road retrieved. Returned address Punggol Field, Punggol Cove, Punggol, Northeast, 820198, Singapore"
874 WOODLANDS STREET 82,874,WOODLANDS ST 82,"Error: Road retrieved. Returned address Woodlands Street 82, Woodlands, Northwest, 738954, Singapore"
584 ANG MO KIO AVENUE 3,584,ANG MO KIO AVE 3,"Error: Road retrieved. Returned address Ang Mo Kio Avenue 3, Ang Mo Kio, Singapore, Central, 560564, Singapore"
537 BEDOK NORTH STREET 3,537,BEDOK NTH ST 3,"1.332013, 103.92369200389079"
409 BUKIT BATOK WEST AVENUE 4,409,BT BATOK WEST AVE 4,"1.3644729, 103.74586331830592"
249 KIM KEAT LINK,249,KIM KEAT LINK,"1.3314194000000001, 103.85643445258795"
35 JALAN RUMAH TINGGI,35,JLN RUMAH TINGGI,"1.2880727, 103.80903511353529"
673B JURONG WEST STREET 65,673B,JURONG WEST ST 65,"1.34450625, 103.70178516897329"
834 YISHUN STREET 81,834,YISHUN ST 81,"1.41504575, 103.83404472427094"
124 BEDOK RESERVOIR ROAD,124,BEDOK RESERVOIR RD,"1.33263375, 103.9101333673749"
553 CHOA CHU KANG NORTH 6,553,CHOA CHU KANG NTH 6,"Error: Road retrieved. Returned address Choa Chu Kang North 6, Northwest, 689579, Singapore"
65 TELOK BLANGAH DRIVE,65,TELOK BLANGAH DR,"1.2740384, 103.8103393"
43 CIRCUIT ROAD,43,CIRCUIT RD,"1.3264778, 103.88553633749166"
301 UBI AVENUE 1,301,UBI AVE 1,"1.3308708500000002, 103.90155380528779"
263 BOON LAY DRIVE,263,BOON LAY DR,"1.3452598500000001, 103.70683782001285"
351 CORPORATION DRIVE,351,CORPORATION DR,"1.3393217499999999, 103.71981499198705"
666A PUNGGOL DRIVE,666A,PUNGGOL DR,"Error: Road retrieved. Returned address Punggol Drive, Punggol, Northeast, 821665, Singapore"
207A COMPASSVALE LANE,207A,COMPASSVALE LANE,"1.3851775499999999, 103.8977250408378"
786B WOODLANDS DRIVE 60,786B,WOODLANDS DR 60,"Error: Road retrieved. Returned address Woodlands Drive 60, Woodlands, Northwest, 731799, Singapore"
10 MARSILING DRIVE,10,MARSILING DR,"Error: Road retrieved. Returned address Marsiling Drive, Woodlands, Northwest, 731007, Singapore"
741 WOODLANDS CIRCLE,741,WOODLANDS CIRCLE,"1.4443312000000001, 103.79595219312762"
831 WOODLANDS STREET 83,831,WOODLANDS ST 83,"Error: Road retrieved. Returned address Woodlands Street 83, Woodlands, Northwest, 738489, Singapore"
35 EUNOS CRESCENT,35,EUNOS CRES,"1.32102525, 103.9015066571163"
788D WOODLANDS CRESCENT,788D,WOODLANDS CRES,"1.4439355, 103.80265516945083"
811 YISHUN RING ROAD,811,YISHUN RING RD,"Error: Road retrieved. Returned address Yishun Ring Road, Yishun, Northwest, 760413, Singapore"
151 ANG MO KIO AVENUE 5,151,ANG MO KIO AVE 5,"1.3767260000000001, 103.84112121995105"
506 JELAPANG ROAD,506,JELAPANG RD,"Error: Road retrieved. Returned address Jelapang Road, Bukit Panjang, Northwest, 671524, Singapore"
282 CHOA CHU KANG AVENUE 3,282,CHOA CHU KANG AVE 3,"1.3802404, 103.74327166658574"
327 HOUGANG AVENUE 5,327,HOUGANG AVE 5,"1.36841945, 103.89591561173509"
115 JURONG EAST STREET 13,115,JURONG EAST ST 13,"1.33980765, 103.73555497186109"
206 SERANGOON CENTRAL,206,SERANGOON CTRL,"1.3531895500000002, 103.87304540947437"
498L TAMPINES STREET 45,498L,TAMPINES ST 45,"1.36238085, 103.95722620729562"
407 SIN MING AVENUE,407,SIN MING AVE,"1.36342845, 103.83426887812382"
271C PUNGGOL WALK,271C,PUNGGOL WALK,"1.40395735, 103.90089649975198"
308A PUNGGOL WALK,308A,PUNGGOL WALK,"1.4073674500000002, 103.90035263927878"
174 ANG MO KIO AVENUE 4,174,ANG MO KIO AVE 4,"Error: Road retrieved. Returned address Ang Mo Kio Avenue 4, Ang Mo Kio, Singapore, Central, 568987, Singapore"
244 BISHAN STREET 22,244,BISHAN ST 22,"1.36045345, 103.84441519234187"
677 HOUGANG AVENUE 8,677,HOUGANG AVE 8,"Error: Road retrieved. Returned address Hougang Avenue 8, Hougang, Northeast, 530631, Singapore"
475 JURONG WEST STREET 41,475,JURONG WEST ST 41,"1.3481060500000002, 103.72512872618715"
12 MARINE TERRACE,12,MARINE TER,"1.3046332500000002, 103.91574399731354"
627 PASIR RIS DRIVE 3,627,PASIR RIS DR 3,"1.3796431, 103.94063572985888"
630 YISHUN STREET 61,630,YISHUN ST 61,"Error: Road retrieved. Returned address Yishun Street 61, Nee Soon Central Meadows, Yishun, Northwest, 768548, Singapore"
143 PETIR ROAD,143,PETIR RD,"1.37619495, 103.76764762895172"
76 LORONG LIMAU,76,LOR LIMAU,"1.3250826, 103.85483290795464"
5 SAINT GEORGE'S LANE,5,ST. GEORGE'S LANE,"1.32312525, 103.85982749932015"
157 BEDOK SOUTH AVENUE 3,157,BEDOK STH AVE 3,"1.3187212000000001, 103.94572304799308"
650 JALAN TENAGA,650,JLN TENAGA,"1.3319849499999998, 103.90773892522981"
331 SERANGOON AVENUE 3,331,SERANGOON AVE 3,"1.3499242, 103.87023282961565"
533 WOODLANDS DRIVE 14,533,WOODLANDS DR 14,"Error: Road retrieved. Returned address Woodlands Drive 14, Fragrant Woods, Woodlands, Northwest, 738079, Singapore"
97 COMMONWEALTH CRESCENT,97,C'WEALTH CRES,"1.3061313499999998, 103.8015861765065"
685 RACE COURSE ROAD,685,RACE COURSE RD,"Error: Not Singapore. Returned address 685, Race Course Road, Warrenton, Fauquier County, Virginia, 20186, United States"
234 SERANGOON AVENUE 3,234,SERANGOON AVE 3,"1.35480025, 103.86954966485246"
103 TOWNER ROAD,103,TOWNER RD,"1.3206093, 103.86163979286084"
318 CLEMENTI AVENUE 4,318,CLEMENTI AVE 4,"1.3180301, 103.76545410239093"
980C BUANGKOK CRESCENT,980C,BUANGKOK CRES,"Error: Road retrieved. Returned address Buangkok Crescent, Hougang, Northeast, 536980, Singapore"
206D COMPASSVALE LANE,206D,COMPASSVALE LANE,"1.38691995, 103.89698874614089"
9 TOH YI DRIVE,9,TOH YI DR,"1.3354040500000002, 103.77097725"
297A CHOA CHU KANG AVENUE 2,297A,CHOA CHU KANG AVE 2,"1.3770164999999999, 103.74245535471863"
631 HOUGANG AVENUE 8,631,HOUGANG AVE 8,"1.3706907, 103.8815125"
657B JURONG WEST STREET 65,657B,JURONG WEST ST 65,"1.33595415, 103.70087521517354"
28 JALAN BAHAGIA,28,JLN BAHAGIA,"1.3256978, 103.85899244370546"
62 JALAN MA'MOR,62,JLN MA'MOR,"Error: Road retrieved. Returned address Jalan Ma'mor, Novena, Singapore, Central, 328958, Singapore"
510B WELLINGTON CIRCLE,510B,WELLINGTON CIRCLE,"1.45370305, 103.82093350320318"
467 TAMPINES STREET 44,467,TAMPINES ST 44,"1.35992165, 103.95465294900231"
19 MARSILING LANE,19,MARSILING LANE,"1.4431625000000001, 103.77723801985124"
310A ANG MO KIO AVENUE 1,310A,ANG MO KIO AVE 1,"1.3649558499999999, 103.8438180100004"
633 BEDOK RESERVOIR ROAD,633,BEDOK RESERVOIR RD,"1.3304629000000001, 103.90521598833682"
288A PUNGGOL PLACE,288A,PUNGGOL PL,"1.40232305, 103.90315755753767"
282B SENGKANG EAST AVENUE,282B,SENGKANG EAST AVE,"1.38486005, 103.8920262"
155 YISHUN STREET 11,155,YISHUN ST 11,"Error: Road retrieved. Returned address Yishun Street 11, Yishun, Northwest, 768643, Singapore"
104 TECK WHYE LANE,104,TECK WHYE LANE,"1.37717775, 103.7526598344599"
92A PIPIT ROAD,92A,PIPIT RD,"1.3230564999999999, 103.88769480968517"
939 JURONG WEST STREET 91,939,JURONG WEST ST 91,"1.34299085, 103.68876963233495"
412 PASIR RIS DRIVE 6,412,PASIR RIS DR 6,"1.37340945, 103.95513158913076"
413A FERNVALE LINK,413A,FERNVALE LINK,"1.38921875, 103.87864127121827"
601A PUNGGOL CENTRAL,601A,PUNGGOL CTRL,"1.4024843, 103.90755895496648"
944 HOUGANG STREET 92,944,HOUGANG ST 92,"1.37413955, 103.88027349625534"
245 HOUGANG STREET 22,245,HOUGANG ST 22,"Error: Road retrieved. Returned address Hougang Street 22, Hougang, Northeast, 530110, Singapore"
589B MONTREAL DRIVE,589B,MONTREAL DR,"Error: Not Singapore. Returned address Montreal Drive, San Jose, Santa Clara County, California, 95130, United States"
527 SERANGOON NORTH AVENUE 4,527,SERANGOON NTH AVE 4,"Error: Road retrieved. Returned address Serangoon North Avenue 4, Ang Mo Kio Industrial Park 2, Serangoon North, Singapore, Central, 555859, Singapore"
135 SIMEI STREET 1,135,SIMEI ST 1,"1.3479128500000002, 103.95720550323438"
114 LORONG 1 TOA PAYOH,114,LOR 1 TOA PAYOH,"Error: Road retrieved. Returned address Lorong 1 Toa Payoh, Toa Payoh, Singapore, Central, 313130, Singapore"
788B WOODLANDS CRESCENT,788B,WOODLANDS CRES,"Error: Road retrieved. Returned address Woodlands Crescent, Woodlands, Northwest, 733783, Singapore"
712 YISHUN AVENUE 5,712,YISHUN AVE 5,"Error: Road retrieved. Returned address Yishun Avenue 5, Yishun, Northwest, 760743, Singapore"
610 HOUGANG AVENUE 8,610,HOUGANG AVE 8,"Error: Road retrieved. Returned address Hougang Avenue 8, Hougang, Northeast, 530631, Singapore"
163 BUKIT BATOK STREET 11,163,BT BATOK ST 11,"Error: Road retrieved. Returned address Bukit Batok Street 11, Bukit Batok, Southwest, 659674, Singapore"
153 YUNG HO ROAD,153,YUNG HO RD,"1.3274906, 103.720930379593"
139 PASIR RIS STREET 11,139,PASIR RIS ST 11,"1.36363035, 103.95940771447303"
15 TECK WHYE LANE,15,TECK WHYE LANE,"1.37911035, 103.75471769945591"
102 PASIR RIS STREET 12,102,PASIR RIS ST 12,"1.3674306500000002, 103.95820582002887"
637D PUNGGOL DRIVE,637D,PUNGGOL DR,"1.3990887, 103.91542592790424"
846 YISHUN RING ROAD,846,YISHUN RING RD,"1.4171724, 103.8345517"
44 MARINE CRESCENT,44,MARINE CRES,"1.3047541, 103.91310441570248"
171 LORONG 1 TOA PAYOH,171,LOR 1 TOA PAYOH,"Error: Road retrieved. Returned address Lorong 1 Toa Payoh, Toa Payoh, Singapore, Central, 313130, Singapore"
305 BUKIT BATOK STREET 31,305,BT BATOK ST 31,"1.35783005, 103.74797109907573"
202 BUKIT BATOK STREET 21,202,BT BATOK ST 21,"1.3466859, 103.74843174170181"
253 JURONG EAST STREET 24,253,JURONG EAST ST 24,"1.3436214, 103.7372137"
57 GEYLANG BAHRU,57,GEYLANG BAHRU,"1.32338295, 103.86902027890973"
590B MONTREAL LINK,590B,MONTREAL LINK,"Error: Road retrieved. Returned address Montreal Link, Sembawang, Northwest, 752592, Singapore"
245 COMPASSVALE ROAD,245,COMPASSVALE RD,"1.3930139499999998, 103.89917512832258"
209 TAMPINES STREET 21,209,TAMPINES ST 21,"1.3516075, 103.95263588297408"
821 YISHUN STREET 81,821,YISHUN ST 81,"1.41338265, 103.83400854390791"
692A CHOA CHU KANG CRESCENT,692A,CHOA CHU KANG CRES,"Error: Road retrieved. Returned address Choa Chu Kang Crescent, Northwest, 689097, Singapore"
277A COMPASSVALE LINK,277A,COMPASSVALE LINK,"1.38186965, 103.89444696418022"
321 YISHUN CENTRAL,321,YISHUN CTRL,"1.4290289999999999, 103.8413856"
756 YISHUN STREET 72,756,YISHUN ST 72,"1.4265721, 103.83325611735009"
223 CHOA CHU KANG CENTRAL,223,CHOA CHU KANG CTRL,"1.38161595, 103.74468378181945"
656 CHOA CHU KANG CRESCENT,656,CHOA CHU KANG CRES,"Error: Road retrieved. Returned address Choa Chu Kang Crescent, Northwest, 689097, Singapore"
211 SERANGOON AVENUE 4,211,SERANGOON AVE 4,"Error: Road retrieved. Returned address Serangoon Avenue 4, Serangoon Green, Serangoon, Southeast, 551223, Singapore"
8 MARSILING DRIVE,8,MARSILING DR,"1.4414571, 103.77751037065022"
110C PUNGGOL FIELD,110C,PUNGGOL FIELD,"1.3954024999999999, 103.91012583925871"
28 KELANTAN ROAD,28,KELANTAN RD,"Error: Road retrieved. Returned address Kelantan Road, Rochor, Singapore, Central, 208828, Singapore"
764 CHOA CHU KANG NORTH 5,764,CHOA CHU KANG NTH 5,"Error: Road retrieved. Returned address Choa Chu Kang North 5, Northwest, 680533, Singapore"
473 SEMBAWANG DRIVE,473,SEMBAWANG DR,"Error: Road retrieved. Returned address Sembawang Drive, Sembawang, Northwest, 757632, Singapore"
203C COMPASSVALE ROAD,203C,COMPASSVALE RD,"Error: Road retrieved. Returned address Compassvale Road, Seng Kang, Northeast, 544757, Singapore"
173 WOODLANDS STREET 13,173,WOODLANDS ST 13,"Error: Road retrieved. Returned address Woodlands Street 13, Woodlands, Northwest, 738623, Singapore"
288E BUKIT BATOK STREET 25,288E,BT BATOK ST 25,"1.3456253, 103.75870385674074"
230 COMPASSVALE WALK,230,COMPASSVALE WALK,"1.38862665, 103.90151539646155"
688B WOODLANDS DRIVE 75,688B,WOODLANDS DR 75,NONE
627 HOUGANG AVENUE 8,627,HOUGANG AVE 8,"Error: Road retrieved. Returned address Hougang Avenue 8, Hougang, Northeast, 530631, Singapore"
175C YUNG KUANG ROAD,175C,YUNG KUANG RD,"1.3327886, 103.72163599999999"
113 WHAMPOA ROAD,113,WHAMPOA RD,"1.3257617000000002, 103.85715112549738"
118 EDGEFIELD PLAINS,118,EDGEFIELD PLAINS,"1.39626625, 103.90634690201438"
224 JURONG EAST STREET 21,224,JURONG EAST ST 21,"1.3416738000000001, 103.73675275011195"
325 SERANGOON AVENUE 3,325,SERANGOON AVE 3,"1.3509788999999999, 103.8685931952705"
126 SIMEI STREET 1,126,SIMEI ST 1,"Error: Road retrieved. Returned address Simei Street 1, Simei, Southeast, 520119, Singapore"
856B TAMPINES STREET 82,856B,TAMPINES ST 82,"1.3530789, 103.9377775"
161 WOODLANDS STREET 13,161,WOODLANDS ST 13,"Error: Road retrieved. Returned address Woodlands Street 13, Woodlands, Northwest, 738623, Singapore"
212 CHOA CHU KANG CENTRAL,212,CHOA CHU KANG CTRL,"1.3824682, 103.74728416546698"
133 GEYLANG EAST AVENUE 1,133,GEYLANG EAST AVE 1,"1.3164345499999999, 103.88548557303363"
851 HOUGANG CENTRAL,851,HOUGANG CTRL,"1.3702549, 103.89361509565813"
84 WHAMPOA DRIVE,84,WHAMPOA DR,"Error: Road retrieved. Returned address Whampoa Drive, Novena, Singapore, Central, 320029, Singapore"
503 CHOA CHU KANG STREET 51,503,CHOA CHU KANG ST 51,"Error: Road retrieved. Returned address Choa Chu Kang Street 51, Northwest, 689333, Singapore"
203 MARSILING DRIVE,203,MARSILING DR,"1.44376595, 103.77442802617253"
536 JURONG WEST STREET 52,536,JURONG WEST ST 52,"1.3497666499999998, 103.7165098187644"
128 KIM TIAN ROAD,128,KIM TIAN RD,"Error: Road retrieved. Returned address Kim Tian Road, Bukit Merah, Singapore, Central, 169252, Singapore"
603C PUNGGOL ROAD,603C,PUNGGOL RD,"Error: Road retrieved. Returned address Punggol Road, Punggol, Northeast, 820198, Singapore"
169 HOUGANG AVENUE 1,169,HOUGANG AVE 1,"Error: Road retrieved. Returned address Hougang Avenue 1, Hougang, Northeast, 530110, Singapore"
702 PASIR RIS DRIVE 10,702,PASIR RIS DR 10,"1.38019395, 103.93760070250013"
554 PASIR RIS STREET 51,554,PASIR RIS ST 51,"1.36839085, 103.95320003064154"
266B PUNGGOL WAY,266B,PUNGGOL WAY,"1.4055122, 103.89791486324785"
5 GHIM MOH ROAD,5,GHIM MOH RD,"1.3126522, 103.7882921999342"
165 STIRLING ROAD,165,STIRLING RD,"Error: Not Singapore. Returned address Stirling Road, Berea, Buffalo City Ward 18, East London, Buffalo City Metropolitan Municipality, Eastern Cape, 5241, South Africa"
250A COMPASSVALE STREET,250A,COMPASSVALE ST,"1.39167545, 103.90005658416956"
886A WOODLANDS DRIVE 50,886A,WOODLANDS DR 50,"Error: Road retrieved. Returned address Woodlands Drive 50, Woodlands, Northwest, 738853, Singapore"
628A WOODLANDS RING ROAD,628A,WOODLANDS RING RD,"1.43485975, 103.80098426193857"
642 ROWELL ROAD,642,ROWELL RD,"Error: Not Singapore. Returned address 642, Rowell Road, Crawford County, Georgia, 31078, United States"
440 HOUGANG AVENUE 8,440,HOUGANG AVE 8,"Error: Road retrieved. Returned address Hougang Avenue 8, Hougang, Northeast, 530631, Singapore"
104A EDGEFIELD PLAINS,104A,EDGEFIELD PLAINS,"Error: Road retrieved. Returned address Edgefield Plains, Punggol, Northeast, 828850, Singapore"
193 RIVERVALE DRIVE,193,RIVERVALE DR,"1.3933659, 103.9020132"
623 WOODLANDS DRIVE 52,623,WOODLANDS DR 52,"1.4347189500000002, 103.79868600378633"
154 HOUGANG STREET 11,154,HOUGANG ST 11,"1.352242, 103.88044380084325"
467 NORTH BRIDGE ROAD,467,NTH BRIDGE RD,"Error: Not Singapore. Returned address 467, North Bridge Road, Clayton County, Georgia, 30215, United States"
141 SERANGOON NORTH AVENUE 2,141,SERANGOON NTH AVE 2,"Error: Road retrieved. Returned address Serangoon North Avenue 2, Serangoon, Southeast, 550151, Singapore"
8 LORONG 7 TOA PAYOH,8,LOR 7 TOA PAYOH,"1.3376641, 103.85687193282543"
222 LORONG 8 TOA PAYOH,222,LOR 8 TOA PAYOH,"Error: Road retrieved. Returned address Lorong 8 Toa Payoh, Toa Payoh, Singapore, Central, 310229, Singapore"
165 YISHUN RING ROAD,165,YISHUN RING RD,"1.435809, 103.83173356971298"
87 TELOK BLANGAH HEIGHTS,87,TELOK BLANGAH HTS,"1.27697295, 103.80813123760524"
671A KLANG LANE,671A,KLANG LANE,"Error: Road retrieved. Returned address Klang Lane, Rochor, Singapore, Central, 219924, Singapore"
685 HOUGANG STREET 61,685,HOUGANG ST 61,"1.3750351, 103.8858868"
624B PUNGGOL CENTRAL,624B,PUNGGOL CTRL,"1.40073445, 103.91169582672771"
446 YISHUN AVENUE 11,446,YISHUN AVE 11,"1.4230295, 103.84501344758795"
205 BUKIT BATOK STREET 21,205,BT BATOK ST 21,"1.3471008, 103.74990876736452"
704 PASIR RIS DRIVE 10,704,PASIR RIS DR 10,"1.3807893999999998, 103.93728047442661"
348 TAMPINES STREET 33,348,TAMPINES ST 33,"1.35269165, 103.96344681510223"
724 YISHUN STREET 71,724,YISHUN ST 71,"1.4264651000000002, 103.82986443669347"
40 SIMS DRIVE,40,SIMS DR,Error: geocode failed on input 40 SIMS DRIVE
443 HOUGANG AVENUE 8,443,HOUGANG AVE 8,"Error: Road retrieved. Returned address Hougang Avenue 8, Hougang, Northeast, 530631, Singapore"
223A COMPASSVALE WALK,223A,COMPASSVALE WALK,"1.3882619, 103.89712435468255"
63 JALAN MA'MOR,63,JLN MA'MOR,"Error: Road retrieved. Returned address Jalan Ma'mor, Novena, Singapore, Central, 328958, Singapore"
117 EDGEFIELD PLAINS,117,EDGEFIELD PLAINS,"1.39587465, 103.90675663577201"
15 TELOK BLANGAH CRESCENT,15,TELOK BLANGAH CRES,"1.2769895, 103.8205408"
532 WOODLANDS DRIVE 14,532,WOODLANDS DR 14,"Error: Road retrieved. Returned address Woodlands Drive 14, Fragrant Woods, Woodlands, Northwest, 738079, Singapore"
454 YISHUN STREET 41,454,YISHUN ST 41,"1.4199088500000001, 103.84510269856574"
703 BEDOK RESERVOIR ROAD,703,BEDOK RESERVOIR RD,"1.3371143, 103.9199923"
32 CHAI CHEE AVENUE,32,CHAI CHEE AVE,"Error: Road retrieved. Returned address Chai Chee Avenue, Ansar Garden, Bedok, Southeast, 461029, Singapore"
670A CHOA CHU KANG CRESCENT,670A,CHOA CHU KANG CRES,"1.4026756, 103.7476255682735"
760 JURONG WEST STREET 74,760,JURONG WEST ST 74,"1.34938, 103.69975601827929"
461 CRAWFORD LANE,461,CRAWFORD LANE,"Error: Not Singapore. Returned address 461, Crawford Lane, Frankfort, Ross County, Ohio, 45628, United States"
526D PASIR RIS STREET 51,526D,PASIR RIS ST 51,"1.36880055, 103.94740832894584"
208 TAMPINES STREET 21,208,TAMPINES ST 21,"1.3514059, 103.95329685712085"
688D WOODLANDS DRIVE 75,688D,WOODLANDS DR 75,NONE
649 WOODLANDS RING ROAD,649,WOODLANDS RING RD,"Error: Road retrieved. Returned address Woodlands Ring Road, Woodlands, Northwest, 737890, Singapore"
513 JELAPANG ROAD,513,JELAPANG RD,"Error: Road retrieved. Returned address Jelapang Road, Bukit Panjang, Northwest, 671524, Singapore"
43 SIMS DRIVE,43,SIMS DR,"1.3170076499999999, 103.87649727644649"
715 JURONG WEST STREET 71,715,JURONG WEST ST 71,"1.3438807499999998, 103.69632191656366"
196A BOON LAY DRIVE,196A,BOON LAY DR,"1.3429782000000001, 103.71383507335466"
548 SERANGOON NORTH AVENUE 3,548,SERANGOON NTH AVE 3,"1.3730980000000002, 103.87045474658501"
553 SERANGOON NORTH AVENUE 3,553,SERANGOON NTH AVE 3,"Error: Road retrieved. Returned address Serangoon North Avenue 3, Serangoon North, Singapore, Central, 550102, Singapore"
241 YISHUN RING ROAD,241,YISHUN RING RD,"Error: Road retrieved. Returned address Yishun Ring Road, Yishun, Northwest, 760413, Singapore"
596C ANG MO KIO STREET 52,596C,ANG MO KIO ST 52,"Error: Road retrieved. Returned address Ang Mo Kio Street 52, Ang Mo Kio, Singapore, Central, 560525, Singapore"
130 BUKIT MERAH VIEW,130,BT MERAH VIEW,"1.2847597, 103.82458359507167"
89 COMMONWEALTH DRIVE,89,C'WEALTH DR,"1.3053331, 103.79938506752566"
86 DAWSON ROAD,86,DAWSON RD,"Error: Not Singapore. Returned address 86, Dawson Road, Mapua, Tasman, 7005, New Zealand / Aotearoa"
138 MARSILING ROAD,138,MARSILING RD,"1.4380743, 103.77732825000001"
617A PUNGGOL DRIVE,617A,PUNGGOL DR,"1.4023951000000001, 103.91187689666117"
531 BEDOK NORTH STREET 3,531,BEDOK NTH ST 3,"1.33327345, 103.92597534549223"
642 CHOA CHU KANG STREET 64,642,CHOA CHU KANG ST 64,"Error: Road retrieved. Returned address Choa Chu Kang Street 64, Zhenghua, Northwest, 689097, Singapore"
849 WOODLANDS STREET 82,849,WOODLANDS ST 82,"Error: Road retrieved. Returned address Woodlands Street 82, Woodlands, Northwest, 738954, Singapore"
113 BUKIT PURMEI ROAD,113,BT PURMEI RD,"Error: Road retrieved. Returned address Bukit Purmei Road, Bukit Purmei Ville, Bukit Merah, Singapore, Central, 90112, Singapore"
832 HOUGANG CENTRAL,832,HOUGANG CTRL,"Error: Road retrieved. Returned address Hougang Central, Hougang, Northeast, 530853, Singapore"
205C COMPASSVALE LANE,205C,COMPASSVALE LANE,"1.3859778, 103.89673873160564"
101 TAMPINES STREET 11,101,TAMPINES ST 11,"1.3472489, 103.94499834999999"
429 ANG MO KIO AVENUE 3,429,ANG MO KIO AVE 3,"1.369135, 103.85342999526313"
620 BUKIT PANJANG RING ROAD,620,BT PANJANG RING RD,"Error: Road retrieved. Returned address Bukit Panjang Ring Road, Bukit Panjang, Northwest, 679910, Singapore"
501 HOUGANG AVENUE 8,501,HOUGANG AVE 8,"1.372192, 103.88642234691596"
167A PUNGGOL EAST,167A,PUNGGOL EAST,"1.3940351999999998, 103.91523106402781"
383 TAMPINES STREET 32,383,TAMPINES ST 32,"1.35406755, 103.95827405"
448 BRIGHT HILL DRIVE,448,BRIGHT HILL DR,"Error: Road retrieved. Returned address Bright Hill Drive, Bishan, Singapore, Central, 573957, Singapore"
16 TAMAN HO SWEE,16,TAMAN HO SWEE,"Error: Road retrieved. Returned address Taman Ho Swee, Bukit Ho Swee View, Bukit Merah, Singapore, Central, 161022, Singapore"
85 CIRCUIT ROAD,85,CIRCUIT RD,"Error: Not Singapore. Returned address 85, Circuit Road, South Commons, Quincy, Norfolk County, Massachusetts, 02169, United States"
307C ANCHORVALE ROAD,307C,ANCHORVALE RD,"1.3899579499999999, 103.88689087145087"
202 SERANGOON CENTRAL,202,SERANGOON CTRL,"1.3514529, 103.87358756131275"
145 SIMEI STREET 2,145,SIMEI ST 2,"1.3448358, 103.95557837235617"
911 TAMPINES STREET 91,911,TAMPINES ST 91,"1.34964945, 103.93997913906031"
104 SPOTTISWOODE PARK ROAD,104,SPOTTISWOODE PK RD,"1.2744043, 103.83488797533494"
45 BENDEMEER ROAD,45,BENDEMEER RD,"1.3225679000000001, 103.86633311101656"
504 SERANGOON NORTH AVENUE 4,504,SERANGOON NTH AVE 4,"Error: Road retrieved. Returned address Serangoon North Avenue 4, Ang Mo Kio Industrial Park 2, Serangoon North, Singapore, Central, 555859, Singapore"
136 SIMEI STREET 1,136,SIMEI ST 1,"1.3479177, 103.95638767538998"
105 CLEMENTI STREET 12,105,CLEMENTI ST 12,"1.3223242, 103.7695272"
316 CLEMENTI AVENUE 4,316,CLEMENTI AVE 4,"1.318444, 103.76455266880922"
444 JURONG WEST AVENUE 1,444,JURONG WEST AVE 1,"1.3518477, 103.71905279876796"
122 BISHAN STREET 12,122,BISHAN ST 12,"1.3468190999999998, 103.85063309728856"
331 BUKIT BATOK STREET 33,331,BT BATOK ST 33,"1.36381795, 103.74740762374958"
32 BALAM ROAD,32,BALAM RD,"1.3294076, 103.8870024"
173 HOUGANG AVENUE 1,173,HOUGANG AVE 1,"Error: Block retrieved. Returned address 173, Hougang Ave 1, Hougang, Southeast, 530129, Singapore"
973 HOUGANG STREET 91,973,HOUGANG ST 91,"1.3776974499999999, 103.87986710893804"
297A COMPASSVALE STREET,297A,COMPASSVALE ST,"1.3950661, 103.90047026856581"
869A TAMPINES AVENUE 8,869A,TAMPINES AVE 8,"1.35511955, 103.93232696667478"
940 TAMPINES AVENUE 5,940,TAMPINES AVE 5,"1.34922575, 103.94140200212436"
630 WOODLANDS RING ROAD,630,WOODLANDS RING RD,"Error: Road retrieved. Returned address Woodlands Ring Road, Woodlands, Northwest, 737890, Singapore"
864 WOODLANDS STREET 83,864,WOODLANDS ST 83,"1.44104005, 103.79513027113785"
734 YISHUN AVENUE 5,734,YISHUN AVE 5,"1.42916795, 103.83080018122214"
537 ANG MO KIO AVENUE 5,537,ANG MO KIO AVE 5,"1.3751905500000001, 103.85307"
508 BEDOK NORTH AVENUE 3,508,BEDOK NTH AVE 3,"1.3333774, 103.9325173033074"
263 BUKIT BATOK EAST AVENUE 4,263,BT BATOK EAST AVE 4,"1.35028495, 103.759153745026"
807 KING GEORGE'S AVENUE,807,KING GEORGE'S AVE,"1.3093099499999998, 103.86144669999999"
505 WOODLANDS DRIVE 14,505,WOODLANDS DR 14,"1.4321288499999998, 103.79117065825812"
117 YISHUN RING ROAD,117,YISHUN RING RD,"Error: Road retrieved. Returned address Yishun Ring Road, Yishun, Northwest, 760413, Singapore"
157 YISHUN STREET 11,157,YISHUN ST 11,"1.43221095, 103.83408365846616"
75 TELOK BLANGAH DRIVE,75,TELOK BLANGAH DR,"1.2748762, 103.80868667363657"
625 SENJA ROAD,625,SENJA RD,"Error: Road retrieved. Returned address Senja Road, Bukit Panjang, Northwest, 677741, Singapore"
267B PUNGGOL FIELD,267B,PUNGGOL FIELD,"Error: Road retrieved. Returned address Punggol Field, Punggol Cove, Punggol, Northeast, 820198, Singapore"
208 YISHUN STREET 21,208,YISHUN ST 21,"Error: Road retrieved. Returned address Yishun Street 21, Yishun, Northwest, 768610, Singapore"
161 PASIR RIS STREET 13,161,PASIR RIS ST 13,"1.36376995, 103.96194698720453"
612 CHOA CHU KANG STREET 62,612,CHOA CHU KANG ST 62,"Error: Road retrieved. Returned address Choa Chu Kang Street 62, Northwest, 680627, Singapore"
117 SIMEI STREET 1,117,SIMEI ST 1,"1.3444394499999999, 103.95120185444759"
321 ANG MO KIO AVENUE 1,321,ANG MO KIO AVE 1,"Error: Road retrieved. Returned address Ang Mo Kio Avenue 1, Ang Mo Kio, Singapore, Central, 560218, Singapore"
509 ANG MO KIO AVENUE 8,509,ANG MO KIO AVE 8,"Error: Road retrieved. Returned address Ang Mo Kio Avenue 8, Ang Mo Kio, Singapore, Central, 569843, Singapore"
144 TAMPINES STREET 12,144,TAMPINES ST 12,"1.34841595, 103.94368965345913"
445 YISHUN AVENUE 11,445,YISHUN AVE 11,"Error: Road retrieved. Returned address Yishun Avenue 11, Yishun, Northwest, 760413, Singapore"
418 ANG MO KIO AVENUE 10,418,ANG MO KIO AVE 10,"1.36493535, 103.8540607691629"
725 ANG MO KIO AVENUE 6,725,ANG MO KIO AVE 6,"Error: Road retrieved. Returned address Ang Mo Kio Avenue 6, Ang Mo Kio, Singapore, Central, 569845, Singapore"
623 BEDOK RESERVOIR ROAD,623,BEDOK RESERVOIR RD,"1.333642, 103.91681929229901"
102 HENDERSON CRESCENT,102,HENDERSON CRES,"Error: Not Singapore. Returned address 102, Henderson Crescent, Alliston, New Tecumseth, Simcoe County, Central Ontario, Ontario, L9R 0E9, Canada"
2 TOH YI DRIVE,2,TOH YI DR,"1.3390216000000001, 103.77544139072614"
207D COMPASSVALE LANE,207D,COMPASSVALE LANE,"1.3845844, 103.89737721648675"
290E BUKIT BATOK STREET 24,290E,BT BATOK ST 24,"1.34387085, 103.7578477023541"
18A CIRCUIT ROAD,18A,CIRCUIT RD,"1.32937645, 103.88806363366714"
112 HO CHING ROAD,112,HO CHING RD,"1.33388535, 103.72369156569812"
37 BEDOK SOUTH AVENUE 2,37,BEDOK STH AVE 2,"1.32189705, 103.93983038506616"
314B ANCHORVALE LINK,314B,ANCHORVALE LINK,"1.3911421000000002, 103.88888271391274"
138 YISHUN RING ROAD,138,YISHUN RING RD,"1.43162805, 103.8305786"
381 TAMPINES STREET 32,381,TAMPINES ST 32,"1.3542724000000002, 103.95912952635379"
269A COMPASSVALE LINK,269A,COMPASSVALE LINK,"1.3837803, 103.89547618349123"
94E BEDOK NORTH AVENUE 4,94E,BEDOK NTH AVE 4,"1.33329095, 103.94099031082786"
112 LENGKONG TIGA,112,LENGKONG TIGA,"1.323574, 103.9116524"
588C ANG MO KIO STREET 52,588C,ANG MO KIO ST 52,"1.3718687, 103.85348335"
75A REDHILL ROAD,75A,REDHILL RD,"Error: Not Singapore. Returned address Redhill Road, Redhill, Arnold, Gedling, Nottinghamshire, East Midlands, England, NG5 8HB, United Kingdom"
167 PETIR ROAD,167,PETIR RD,"Error: Road retrieved. Returned address Petir Road, Bukit Panjang, Northwest, 678272, Singapore"
527 HOUGANG AVENUE 6,527,HOUGANG AVE 6,"Error: Road retrieved. Returned address Hougang Avenue 6, Hougang, Northeast, 538787, Singapore"
210C PUNGGOL PLACE,210C,PUNGGOL PL,"1.3996653499999998, 103.8998812698095"
86 COMMONWEALTH CLOSE,86,C'WEALTH CL,"1.3043464500000002, 103.79941551157862"
929 TAMPINES STREET 91,929,TAMPINES ST 91,"1.3463778, 103.93961789313832"
895 TAMPINES STREET 81,895,TAMPINES ST 81,"1.34775985, 103.93157744431863"
342C YISHUN RING ROAD,342C,YISHUN RING RD,"1.42994815, 103.84415828705676"
646 YISHUN STREET 61,646,YISHUN ST 61,"1.42207525, 103.83774030000001"
1 TELOK BLANGAH CRESCENT,1,TELOK BLANGAH CRES,"1.2758973500000002, 103.81972306008612"
16 CANTONMENT CLOSE,16,CANTONMENT CL,"1.2739018500000001, 103.84030630000001"
633D SENJA ROAD,633D,SENJA RD,"1.38461195, 103.75961315"
535 UPPER CROSS STREET,535,UPP CROSS ST,"1.2845347999999999, 103.84625655218527"
743 PASIR RIS STREET 71,743,PASIR RIS ST 71,"1.37745085, 103.93554606291691"
334A ANCHORVALE CRESCENT,334A,ANCHORVALE CRES,"1.3984442000000001, 103.88962607213378"
607 WOODLANDS RING ROAD,607,WOODLANDS RING RD,"Error: Road retrieved. Returned address Woodlands Ring Road, Woodlands, Northwest, 737890, Singapore"
315A YISHUN AVENUE 9,315A,YISHUN AVE 9,"Error: Road retrieved. Returned address Yishun Avenue 9, Yishun, Northwest, 760246, Singapore"
229 YISHUN STREET 21,229,YISHUN ST 21,"Error: Road retrieved. Returned address Yishun Street 21, Yishun, Northwest, 768610, Singapore"
807B CHAI CHEE ROAD,807B,CHAI CHEE RD,"1.3275507, 103.92353911934822"
14A UPPER BOON KENG ROAD,14A,UPP BOON KENG RD,"1.3153758500000001, 103.87065488402966"
323 SEMBAWANG CLOSE,323,SEMBAWANG CL,"Error: Road retrieved. Returned address Sembawang Close, Sun Trellis, Sembawang, Northwest, 750333, Singapore"
472 ANG MO KIO AVENUE 10,472,ANG MO KIO AVE 10,"Error: Road retrieved. Returned address Ang Mo Kio Avenue 10, Ang Mo Kio, Singapore, Central, 560449, Singapore"
602A PUNGGOL CENTRAL,602A,PUNGGOL CTRL,"1.40347825, 103.90700734632361"
808 YISHUN RING ROAD,808,YISHUN RING RD,"1.416871, 103.83095276623163"
334 HOUGANG AVENUE 5,334,HOUGANG AVE 5,"1.36887025, 103.89798775"
267A PUNGGOL FIELD,267A,PUNGGOL FIELD,"Error: Road retrieved. Returned address Punggol Field, Punggol Cove, Punggol, Northeast, 820198, Singapore"
331 SEMBAWANG CLOSE,331,SEMBAWANG CL,"1.4473535499999999, 103.81646587126492"
792 WOODLANDS AVENUE 6,792,WOODLANDS AVE 6,"Error: Road retrieved. Returned address Woodlands Avenue 6, Woodlands, Northwest, 737858, Singapore"
165 WOODLANDS STREET 13,165,WOODLANDS ST 13,"Error: Road retrieved. Returned address Woodlands Street 13, Woodlands, Northwest, 738623, Singapore"
362 WOODLANDS AVENUE 5,362,WOODLANDS AVE 5,"Error: Road retrieved. Returned address Woodlands Avenue 5, Woodlands, Northwest, 730900, Singapore"
685A JURONG WEST STREET 64,685A,JURONG WEST ST 64,"1.34324575, 103.7041027512002"
517 CHOA CHU KANG STREET 51,517,CHOA CHU KANG ST 51,"Error: Road retrieved. Returned address Choa Chu Kang Street 51, Northwest, 689333, Singapore"
373 CLEMENTI AVENUE 4,373,CLEMENTI AVE 4,"Error: Road retrieved. Returned address Clementi Avenue 4, Clementi, Southwest, 120373, Singapore"
312 SEMBAWANG DRIVE,312,SEMBAWANG DR,"1.44447005, 103.82084983436204"
551 SERANGOON NORTH AVENUE 3,551,SERANGOON NTH AVE 3,"Error: Road retrieved. Returned address Serangoon North Avenue 3, Serangoon North, Singapore, Central, 550102, Singapore"
524 CHOA CHU KANG STREET 51,524,CHOA CHU KANG ST 51,"Error: Road retrieved. Returned address Choa Chu Kang Street 51, Northwest, 689333, Singapore"
253 BISHAN STREET 22,253,BISHAN ST 22,"1.3622542, 103.8432325794257"
450A SENGKANG WEST WAY,450A,SENGKANG WEST WAY,"1.39447645, 103.87345631438554"
405C FERNVALE LANE,405C,FERNVALE LANE,"1.38918375, 103.87341499917468"
780A WOODLANDS CRESCENT,780A,WOODLANDS CRES,"1.4488197999999999, 103.80066794119267"
583 WOODLANDS DRIVE 16,583,WOODLANDS DR 16,"1.4304530999999998, 103.79535120498514"
751 YISHUN STREET 72,751,YISHUN ST 72,"1.4276652, 103.8342616140153"
250 BISHAN STREET 22,250,BISHAN ST 22,"1.3615502, 103.84406176284853"
339 BUKIT BATOK STREET 34,339,BT BATOK ST 34,"1.36318195, 103.75058472027777"
287 BUKIT BATOK EAST AVENUE 3,287,BT BATOK EAST AVE 3,"1.3471651, 103.75857235512424"
119C KIM TIAN ROAD,119C,KIM TIAN RD,"1.2815191499999998, 103.82770650420707"
8 KIM TIAN PLACE,8,KIM TIAN PL,"Error: Not Singapore. Returned address 8, Đơn Quế, Hải Lăng, Tỉnh Quảng Trị, Việt Nam"
257 JURONG EAST STREET 24,257,JURONG EAST ST 24,"1.34429585, 103.7394065387674"
475 PASIR RIS DRIVE 6,475,PASIR RIS DR 6,"1.3749312, 103.95742590422589"
306A PUNGGOL PLACE,306A,PUNGGOL PL,"1.40611565, 103.90553754681588"
271A SENGKANG CENTRAL,271A,SENGKANG CTRL,"1.3859711, 103.89466342000452"
784 YISHUN AVENUE 2,784,YISHUN AVE 2,"Error: Road retrieved. Returned address Yishun Avenue 2, Yishun, Northwest, 760175, Singapore"
140 JALAN BUKIT MERAH,140,JLN BT MERAH,"Error: Road retrieved. Returned address Jalan Bukit Merah, Radin Mas, Bukit Merah, Singapore, Central, 169545, Singapore"
95 ALJUNIED CRESCENT,95,ALJUNIED CRES,"1.3212993499999999, 103.88646084687335"
103 JURONG EAST STREET 13,103,JURONG EAST ST 13,"1.3366757, 103.73807607867693"
606 ELIAS ROAD,606,ELIAS RD,"1.3766968, 103.9426985086067"
210C COMPASSVALE LANE,210C,COMPASSVALE LANE,"1.3843386999999998, 103.89936276434847"
405B FERNVALE LANE,405B,FERNVALE LANE,"1.3890533999999999, 103.8736522027087"
608 CHOA CHU KANG STREET 62,608,CHOA CHU KANG ST 62,"Error: Road retrieved. Returned address Choa Chu Kang Street 62, Northwest, 680627, Singapore"
314 HOUGANG AVENUE 5,314,HOUGANG AVE 5,"Error: Road retrieved. Returned address Hougang Avenue 5, Hougang, Northeast, 530334, Singapore"
101 POTONG PASIR AVENUE 1,101,POTONG PASIR AVE 1,"1.33302895, 103.86851766939229"
738 YISHUN STREET 72,738,YISHUN ST 72,"Error: Road retrieved. Returned address Yishun Street 72, Yishun, Northwest, 760731, Singapore"
256 BISHAN STREET 22,256,BISHAN ST 22,"1.3614076000000002, 103.84251752211394"
280 BUKIT BATOK EAST AVENUE 3,280,BT BATOK EAST AVE 3,"1.34784525, 103.75703076957046"
767 PASIR RIS STREET 71,767,PASIR RIS ST 71,"1.37563435, 103.93602792223066"
524 SERANGOON NORTH AVENUE 4,524,SERANGOON NTH AVE 4,"1.3727380500000002, 103.87284395"
763 WOODLANDS AVENUE 6,763,WOODLANDS AVE 6,"Error: Road retrieved. Returned address Woodlands Avenue 6, Woodlands, Northwest, 737858, Singapore"
710 WOODLANDS DRIVE 70,710,WOODLANDS DR 70,"1.4406876, 103.7972538974848"
365 YISHUN RING ROAD,365,YISHUN RING RD,"1.4292270500000002, 103.84522419999999"
704 WOODLANDS DRIVE 40,704,WOODLANDS DR 40,"Error: Road retrieved. Returned address Woodlands Drive 40, Woodlands, Northwest, 738489, Singapore"
29 JALAN BAHAGIA,29,JLN BAHAGIA,"1.3254079, 103.8585652"
118 PASIR RIS STREET 11,118,PASIR RIS ST 11,"1.3672168, 103.95470926572165"
603 CHOA CHU KANG STREET 62,603,CHOA CHU KANG ST 62,"Error: Road retrieved. Returned address Choa Chu Kang Street 62, Northwest, 680627, Singapore"
537 JURONG WEST AVENUE 1,537,JURONG WEST AVE 1,"1.3506015, 103.71675101381857"
542 PASIR RIS STREET 51,542,PASIR RIS ST 51,"1.36932455, 103.95132387896739"
674A CHOA CHU KANG CRESCENT,674A,CHOA CHU KANG CRES,"Error: Road retrieved. Returned address Choa Chu Kang Crescent, Northwest, 689097, Singapore"
61 JALAN TENTERAM,61,JLN TENTERAM,"Error: Not Singapore. Returned address Jalan Tenteram, Sukaresmi, Jawa Barat, 16153, Indonesia"
20 JALAN KLINIK,20,JLN KLINIK,"Error: Not Singapore. Returned address Jalan Klinik, Pasir Puteh, ڤاسير ڤوتيه / Pasir Puteh, Kelantan, 16800, Malaysia"
450 YISHUN RING ROAD,450,YISHUN RING RD,"1.4221732, 103.84413985202704"
105 BEDOK NORTH AVENUE 4,105,BEDOK NTH AVE 4,"1.3337089, 103.93656069946745"
131 BUKIT BATOK WEST AVENUE 6,131,BT BATOK WEST AVE 6,"1.3507093000000001, 103.74627903390285"
281B SENGKANG EAST AVENUE,281B,SENGKANG EAST AVE,"1.38575115, 103.89193137824267"
151 TAMPINES STREET 12,151,TAMPINES ST 12,"1.35117845, 103.94422379179713"
431 TAMPINES STREET 41,431,TAMPINES ST 41,"1.35954585, 103.95076904999999"
124 BEDOK NORTH ROAD,124,BEDOK NTH RD,"1.3292391000000001, 103.93906235348885"
35 CHAI CHEE AVENUE,35,CHAI CHEE AVE,"Error: Road retrieved. Returned address Chai Chee Avenue, Ansar Garden, Bedok, Southeast, 461029, Singapore"
987A BUANGKOK GREEN,987A,BUANGKOK GREEN,"1.3800168, 103.87807876159192"
152 YUNG HO ROAD,152,YUNG HO RD,"1.3270611, 103.7206635"
8 HOLLAND AVENUE,8,HOLLAND AVE,"Error: Not Singapore. Returned address 8, Holland Avenue, Copse Hill, London Borough of Merton, London, Greater London, England, SW20, United Kingdom"
618 ANG MO KIO AVENUE 4,618,ANG MO KIO AVE 4,"1.3779998500000001, 103.83830918225308"
220 HOUGANG STREET 21,220,HOUGANG ST 21,"1.3570484, 103.88426430024694"
925 JURONG WEST STREET 92,925,JURONG WEST ST 92,"1.34016475, 103.68917087346051"
277C COMPASSVALE LINK,277C,COMPASSVALE LINK,"Error: Road retrieved. Returned address Compassvale Link, Seng Kang, Northeast, 541275, Singapore"
122A SENGKANG EAST WAY,122A,SENGKANG EAST WAY,"Error: Road retrieved. Returned address Sengkang East Way, Seng Kang, Northeast, 540143, Singapore"
524 ANG MO KIO AVENUE 5,524,ANG MO KIO AVE 5,"Error: Road retrieved. Returned address Ang Mo Kio Avenue 5, Ang Mo Kio, Singapore, Central, 569948, Singapore"
530 BUKIT BATOK STREET 51,530,BT BATOK ST 51,"1.3562373, 103.75112414518583"
279 TOH GUAN ROAD,279,TOH GUAN RD,"1.34074485, 103.74690798086121"
297B COMPASSVALE STREET,297B,COMPASSVALE ST,"1.39485825, 103.90126601187256"
233 TAMPINES STREET 21,233,TAMPINES ST 21,"1.3563665999999999, 103.94750099999999"
786E WOODLANDS DRIVE 60,786E,WOODLANDS DR 60,"1.4469472, 103.800312324142"
507 WOODLANDS DRIVE 14,507,WOODLANDS DR 14,"Error: Road retrieved. Returned address Woodlands Drive 14, Fragrant Woods, Woodlands, Northwest, 738079, Singapore"
603 BEDOK RESERVOIR ROAD,603,BEDOK RESERVOIR RD,"1.3299427499999998, 103.9123006805968"
656 JALAN TENAGA,656,JLN TENAGA,"1.33360075, 103.90731819043094"
327 YISHUN RING ROAD,327,YISHUN RING RD,"Error: Road retrieved. Returned address Yishun Ring Road, Yishun, Northwest, 760413, Singapore"
701 BEDOK RESERVOIR ROAD,701,BEDOK RESERVOIR RD,"1.3376318999999999, 103.918887685"
144 BUKIT BATOK WEST AVENUE 6,144,BT BATOK WEST AVE 6,"1.3500142, 103.74424082877067"
711 YISHUN AVENUE 5,711,YISHUN AVE 5,"Error: Road retrieved. Returned address Yishun Avenue 5, Yishun, Northwest, 760743, Singapore"
447 JURONG WEST STREET 42,447,JURONG WEST ST 42,"1.3523987499999999, 103.72018824435185"
635C PUNGGOL DRIVE,635C,PUNGGOL DR,"1.4006368500000002, 103.91416557930273"
226 SIMEI STREET 4,226,SIMEI ST 4,"1.3424418999999999, 103.9570037369125"
698A HOUGANG STREET 61,698A,HOUGANG ST 61,"1.37520745, 103.88762713009748"
123 SIMEI STREET 1,123,SIMEI ST 1,"1.3456239, 103.95358468637124"
126 MARSILING RISE,126,MARSILING RISE,"1.4381319499999998, 103.77989644478865"
160B PUNGGOL CENTRAL,160B,PUNGGOL CTRL,"1.3953362500000002, 103.91604080866227"
782 YISHUN RING ROAD,782,YISHUN RING RD,"1.42196095, 103.83176205000001"
210 BUKIT BATOK STREET 21,210,BT BATOK ST 21,"1.3456452, 103.74957751648532"
254 BANGKIT ROAD,254,BANGKIT RD,"1.379544, 103.77386369999999"
204 CHOA CHU KANG AVENUE 1,204,CHOA CHU KANG AVE 1,"1.3805806500000002, 103.74914961221221"
266C PUNGGOL WAY,266C,PUNGGOL WAY,"1.4051692, 103.8975981"
401 SIN MING AVENUE,401,SIN MING AVE,"1.3624982, 103.83326895591242"
85 TELOK BLANGAH HEIGHTS,85,TELOK BLANGAH HTS,"1.2773029, 103.80868754991735"
505 JELAPANG ROAD,505,JELAPANG RD,"Error: Road retrieved. Returned address Jelapang Road, Bukit Panjang, Northwest, 671524, Singapore"
205 PASIR RIS STREET 21,205,PASIR RIS ST 21,"1.3668003, 103.9632367678729"
201A COMPASSVALE DRIVE,201A,COMPASSVALE DR,"1.3889697, 103.8926186"
95 LORONG 4 TOA PAYOH,95,LOR 4 TOA PAYOH,"Error: Road retrieved. Returned address Lorong 4 Toa Payoh, Toa Payoh, Singapore, Central, 319579, Singapore"
843 WOODLANDS STREET 82,843,WOODLANDS ST 82,"Error: Road retrieved. Returned address Woodlands Street 82, Woodlands, Northwest, 738954, Singapore"
422 ANG MO KIO AVENUE 3,422,ANG MO KIO AVE 3,"Error: Road retrieved. Returned address Ang Mo Kio Avenue 3, Ang Mo Kio, Singapore, Central, 560564, Singapore"
307 CLEMENTI AVENUE 4,307,CLEMENTI AVE 4,"1.3214166500000002, 103.7671518804967"
233 PASIR RIS DRIVE 4,233,PASIR RIS DR 4,"1.37433135, 103.96211512393063"
647 PUNGGOL CENTRAL,647,PUNGGOL CTRL,"1.3980551, 103.91549385189649"
205A PUNGGOL FIELD,205A,PUNGGOL FIELD,"Error: Road retrieved. Returned address Punggol Field, Punggol Cove, Punggol, Northeast, 820198, Singapore"
1 GHIM MOH ROAD,1,GHIM MOH RD,"1.31288055, 103.78692856688173"
260 YISHUN STREET 22,260,YISHUN ST 22,"Error: Road retrieved. Returned address Yishun Street 22, Yishun, Northwest, 760264, Singapore"
840 YISHUN STREET 81,840,YISHUN ST 81,"Error: Road retrieved. Returned address Yishun Street 81, Yishun, Northwest, 760873, Singapore"
521 ANG MO KIO AVENUE 5,521,ANG MO KIO AVE 5,"Error: Road retrieved. Returned address Ang Mo Kio Avenue 5, Ang Mo Kio, Singapore, Central, 569948, Singapore"
636 CHOA CHU KANG NORTH 6,636,CHOA CHU KANG NTH 6,"Error: Road retrieved. Returned address Choa Chu Kang North 6, Northwest, 689579, Singapore"
27 DOVER CRESCENT,27,DOVER CRES,"1.305359, 103.78134478103024"
360B ADMIRALTY DRIVE,360B,ADMIRALTY DR,"Error: Not Singapore. Returned address Admiralty Drive, Sunset Beach, Huntington Beach, Orange County, California, 92649, United States"
436 TAMPINES STREET 43,436,TAMPINES ST 43,"1.35956985, 103.95160630000001"
347 TAMPINES STREET 33,347,TAMPINES ST 33,"1.3517869500000002, 103.96311903222492"
893A TAMPINES AVENUE 8,893A,TAMPINES AVE 8,"1.3483483, 103.93045625773536"
194 KIM KEAT AVENUE,194,KIM KEAT AVE,"1.330951, 103.85823017204721"
556 CHOA CHU KANG NORTH 6,556,CHOA CHU KANG NTH 6,"Error: Road retrieved. Returned address Choa Chu Kang North 6, Northwest, 689579, Singapore"
868B TAMPINES AVENUE 8,868B,TAMPINES AVE 8,"1.35596155, 103.93294157107488"
101B LORONG 2 TOA PAYOH,101B,LOR 2 TOA PAYOH,"1.33952775, 103.84768545587147"
422 HOUGANG AVENUE 6,422,HOUGANG AVE 6,"Error: Road retrieved. Returned address Hougang Avenue 6, Hougang, Northeast, 538787, Singapore"
164B RIVERVALE CRESCENT,164B,RIVERVALE CRES,"1.3896689, 103.90720810494145"
136 BUKIT BATOK WEST AVENUE 6,136,BT BATOK WEST AVE 6,"1.3508738500000002, 103.7448794048901"
262 TAMPINES STREET 21,262,TAMPINES ST 21,"1.3539066, 103.95055316070113"
110 LENGKONG TIGA,110,LENGKONG TIGA,"1.3235646, 103.9109013"
636B PUNGGOL DRIVE,636B,PUNGGOL DR,"1.40041335, 103.91377220044603"
229 ANG MO KIO AVENUE 3,229,ANG MO KIO AVE 3,"Error: Road retrieved. Returned address Ang Mo Kio Avenue 3, Ang Mo Kio, Singapore, Central, 560564, Singapore"
105 BEDOK RESERVOIR ROAD,105,BEDOK RESERVOIR RD,"1.32922715, 103.9090129815935"
627 BEDOK RESERVOIR ROAD,627,BEDOK RESERVOIR RD,"1.3339533000000001, 103.91561484529242"
573 CHOA CHU KANG STREET 52,573,CHOA CHU KANG ST 52,"1.39430985, 103.74563681025063"
646 JURONG WEST STREET 61,646,JURONG WEST ST 61,"1.3394970000000002, 103.69687011532451"
181 YUNG SHENG ROAD,181,YUNG SHENG RD,"1.3337768, 103.72177293549652"
526C PASIR RIS STREET 51,526C,PASIR RIS ST 51,"1.36837695, 103.94705934504562"
749 PASIR RIS STREET 71,749,PASIR RIS ST 71,"1.37867475, 103.93443146245565"
672A EDGEFIELD PLAINS,672A,EDGEFIELD PLAINS,"1.40645615, 103.9126800875"
440C FERNVALE LINK,440C,FERNVALE LINK,"1.39259085, 103.8784299070545"
267B COMPASSVALE LINK,267B,COMPASSVALE LINK,"Error: Road retrieved. Returned address Compassvale Link, Seng Kang, Northeast, 541275, Singapore"
782E WOODLANDS CRESCENT,782E,WOODLANDS CRES,"1.44799425, 103.80263664980635"
634 YISHUN STREET 61,634,YISHUN ST 61,"1.4189012, 103.83911375"
59 CHAI CHEE ROAD,59,CHAI CHEE RD,"1.3246347, 103.9203424"
1C CANTONMENT ROAD,1C,CANTONMENT RD,"1.27743925, 103.84166719999999"
633 HOUGANG AVENUE 8,633,HOUGANG AVE 8,"Error: Road retrieved. Returned address Hougang Avenue 8, Hougang, Northeast, 530631, Singapore"
56 STRATHMORE AVENUE,56,STRATHMORE AVE,"Error: Not Singapore. Returned address 56, Strathmore Avenue, Buffalo, Erie County, New York, 14220, United States"
178A RIVERVALE CRESCENT,178A,RIVERVALE CRES,"1.3893456, 103.9092102"
26 TOA PAYOH EAST,26,TOA PAYOH EAST,"1.33307155, 103.85716366964792"
715 WOODLANDS DRIVE 70,715,WOODLANDS DR 70,"Error: Road retrieved. Returned address Woodlands Drive 70, Woodlands, Northwest, 730676, Singapore"
177 WOODLANDS STREET 13,177,WOODLANDS ST 13,"Error: Road retrieved. Returned address Woodlands Street 13, Woodlands, Northwest, 738623, Singapore"
118 YISHUN RING ROAD,118,YISHUN RING RD,"Error: Road retrieved. Returned address Yishun Ring Road, Yishun, Northwest, 760413, Singapore"
283 BUKIT BATOK EAST AVENUE 3,283,BT BATOK EAST AVE 3,"1.3470719, 103.75729426707981"
649A JURONG WEST STREET 61,649A,JURONG WEST ST 61,"1.3380603, 103.69734146931124"
775 WOODLANDS CRESCENT,775,WOODLANDS CRES,"Error: Road retrieved. Returned address Woodlands Crescent, Woodlands, Northwest, 731775, Singapore"
718 TAMPINES STREET 72,718,TAMPINES ST 72,"1.3591123999999999, 103.93560120407479"
51 LORONG 6 TOA PAYOH,51,LOR 6 TOA PAYOH,"Error: Road retrieved. Returned address Lorong 6 Toa Payoh, Toa Payoh, Singapore, Central, 310193, Singapore"
85B LORONG 4 TOA PAYOH,85B,LOR 4 TOA PAYOH,"1.33629905, 103.84845260012034"
55 TELOK BLANGAH DRIVE,55,TELOK BLANGAH DR,"1.27397095, 103.8122757391163"
210 JURONG EAST STREET 21,210,JURONG EAST ST 21,"1.3388442999999999, 103.7386223206374"
321A ANCHORVALE DRIVE,321A,ANCHORVALE DR,"1.39011725, 103.89219737983996"
620 YISHUN RING ROAD,620,YISHUN RING RD,"Error: Road retrieved. Returned address Yishun Ring Road, Yishun, Northwest, 760413, Singapore"
478 SEGAR ROAD,478,SEGAR RD,"Error: Road retrieved. Returned address Segar Road, Bukit Panjang, Northwest, 677738, Singapore"
435 JURONG WEST STREET 42,435,JURONG WEST ST 42,"Error: Road retrieved. Returned address Jurong West Street 42, Jurong West, Southwest, 649520, Singapore"
55 STRATHMORE AVENUE,55,STRATHMORE AVE,"Error: Not Singapore. Returned address 55, Strathmore Avenue, Lower Stoke, Coventry, West Midlands Combined Authority, West Midlands, England, CV1 2AJ, United Kingdom"
353C ADMIRALTY DRIVE,353C,ADMIRALTY DR,"Error: Not Singapore. Returned address Admiralty Drive, Sunset Beach, Huntington Beach, Orange County, California, 92649, United States"
227C COMPASSVALE DRIVE,227C,COMPASSVALE DR,"1.38703215, 103.9009867587487"
314 BUKIT BATOK STREET 32,314,BT BATOK ST 32,"1.36031125, 103.74699226470536"
861 JURONG WEST STREET 81,861,JURONG WEST ST 81,"1.3495286499999999, 103.69672913809598"
94 LORONG 4 TOA PAYOH,94,LOR 4 TOA PAYOH,"1.3388982, 103.8500843"
110 BUKIT BATOK WEST AVENUE 6,110,BT BATOK WEST AVE 6,"1.3475458, 103.74582360220307"
44 BENDEMEER ROAD,44,BENDEMEER RD,"1.32257, 103.8667563"
227B COMPASSVALE DRIVE,227B,COMPASSVALE DR,"1.38729425, 103.90064175184492"
146 SERANGOON NORTH AVENUE 1,146,SERANGOON NTH AVE 1,"1.36817785, 103.87293491044642"
266 TAMPINES STREET 21,266,TAMPINES ST 21,"1.3520414, 103.95058511778703"
682C WOODLANDS DRIVE 73,682C,WOODLANDS DR 73,"Error: Road retrieved. Returned address Woodlands Drive 73, Woodlands, Northwest, 737942, Singapore"
250 BUKIT BATOK EAST AVENUE 5,250,BT BATOK EAST AVE 5,"1.3510330000000002, 103.75720348749999"
617 HOUGANG AVENUE 8,617,HOUGANG AVE 8,"Error: Road retrieved. Returned address Hougang Avenue 8, Hougang, Northeast, 530631, Singapore"
869B TAMPINES AVENUE 8,869B,TAMPINES AVE 8,"1.3548959, 103.93260859528438"
208 TOA PAYOH NORTH,208,TOA PAYOH NTH,"1.3418898499999998, 103.8451726883599"
614 WOODLANDS AVENUE 4,614,WOODLANDS AVE 4,"1.4345048999999999, 103.79624016953271"
474 ANG MO KIO AVENUE 10,474,ANG MO KIO AVE 10,"Error: Road retrieved. Returned address Ang Mo Kio Avenue 10, Ang Mo Kio, Singapore, Central, 560449, Singapore"
201 ANG MO KIO AVENUE 3,201,ANG MO KIO AVE 3,"Error: Road retrieved. Returned address Ang Mo Kio Avenue 3, Ang Mo Kio, Singapore, Central, 560564, Singapore"
221 BISHAN STREET 23,221,BISHAN ST 23,"1.35789135, 103.84891080280806"
269 BUKIT BATOK EAST AVENUE 4,269,BT BATOK EAST AVE 4,"1.3487483, 103.75955653430626"
618 SENJA ROAD,618,SENJA RD,"Error: Road retrieved. Returned address Senja Road, Bukit Panjang, Northwest, 677741, Singapore"
700 PASIR RIS DRIVE 10,700,PASIR RIS DR 10,"1.3803062000000001, 103.93809532066346"
461 HOUGANG AVENUE 10,461,HOUGANG AVE 10,"1.3727613, 103.89462604853301"
825 JURONG WEST STREET 81,825,JURONG WEST ST 81,"1.3463607, 103.69311538467004"
863 TAMPINES STREET 83,863,TAMPINES ST 83,"1.3554465, 103.93590134232517"
27 NEW UPPER CHANGI ROAD,27,NEW UPP CHANGI RD,"1.3240878, 103.93479470309933"
135 BEDOK NORTH STREET 2,135,BEDOK NTH ST 2,"1.32871375, 103.93650958797274"
114 DEPOT ROAD,114,DEPOT RD,"Error: Not Singapore. Returned address 114, Depot Road, Oakhill, New Town, Horsham, West Sussex, South East, England, RH13 5HP, United Kingdom"
658B JURONG WEST STREET 65,658B,JURONG WEST ST 65,"1.3364909, 103.70079717596775"
664A PUNGGOL DRIVE,664A,PUNGGOL DR,"1.3996235499999998, 103.91737090775143"
571 ANG MO KIO AVENUE 3,571,ANG MO KIO AVE 3,"Error: Road retrieved. Returned address Ang Mo Kio Avenue 3, Ang Mo Kio, Singapore, Central, 560564, Singapore"
63 NEW UPPER CHANGI ROAD,63,NEW UPP CHANGI RD,"1.3237923999999999, 103.93994565424289"
508 JELAPANG ROAD,508,JELAPANG RD,"Error: Road retrieved. Returned address Jelapang Road, Bukit Panjang, Northwest, 671524, Singapore"
633B SENJA ROAD,633B,SENJA RD,"1.385178, 103.75853474044274"
753 PASIR RIS STREET 71,753,PASIR RIS ST 71,"1.37718295, 103.93451390618708"
482 TAMPINES STREET 43,482,TAMPINES ST 43,"1.36152675, 103.95300755"
277 YISHUN STREET 22,277,YISHUN ST 22,"1.43790205, 103.83695990417766"
337 ANG MO KIO AVENUE 1,337,ANG MO KIO AVE 1,"1.3632064, 103.85165114922737"
297 BUKIT BATOK STREET 22,297,BT BATOK ST 22,"1.34510765, 103.7472127043336"
186 PUNGGOL CENTRAL,186,PUNGGOL CTRL,"Error: Road retrieved. Returned address Punggol Central, Punggol, Northeast, 821256, Singapore"
601 ELIAS ROAD,601,ELIAS RD,"1.37770445, 103.94339306911866"
485 SEGAR ROAD,485,SEGAR RD,"1.388666, 103.77157218834733"
205 PETIR ROAD,205,PETIR RD,"1.373593, 103.7737256"
592A MONTREAL LINK,592A,MONTREAL LINK,"1.45090595, 103.82724259271592"
208 SERANGOON CENTRAL,208,SERANGOON CTRL,"Error: Road retrieved. Returned address Serangoon Central, Serangoon, Southeast, 550409, Singapore"
522A TAMPINES CENTRAL 7,522A,TAMPINES CTRL 7,"1.3577960500000001, 103.93838230876793"
451 TAMPINES STREET 42,451,TAMPINES ST 42,"1.3565835499999999, 103.95401251666667"
180B MARSILING ROAD,180B,MARSILING RD,"1.43908195, 103.77838605702323"
750 WOODLANDS AVENUE 4,750,WOODLANDS AVE 4,"1.4444752, 103.79387961912568"
626 WOODLANDS AVENUE 6,626,WOODLANDS AVE 6,"Error: Road retrieved. Returned address Woodlands Avenue 6, Woodlands, Northwest, 737858, Singapore"
39 TELOK BLANGAH RISE,39,TELOK BLANGAH RISE,"1.2717686499999998, 103.82259192435632"
226 CHOA CHU KANG CENTRAL,226,CHOA CHU KANG CTRL,"1.3813361, 103.74544369497085"
682C JURONG WEST CENTRAL 1,682C,JURONG WEST CTRL 1,"1.3433228499999998, 103.70555710951373"
659C JURONG WEST STREET 65,659C,JURONG WEST ST 65,"1.33645605, 103.70174347154426"
505 PASIR RIS STREET 52,505,PASIR RIS ST 52,"1.3765863999999999, 103.94521392757112"
825 WOODLANDS STREET 81,825,WOODLANDS ST 81,"Error: Road retrieved. Returned address Woodlands St 81, Woodlands, Northwest, 738525, Singapore"
636 WOODLANDS RING ROAD,636,WOODLANDS RING RD,"Error: Road retrieved. Returned address Woodlands Ring Road, Woodlands, Northwest, 737890, Singapore"
449 ANG MO KIO AVENUE 10,449,ANG MO KIO AVE 10,"1.3680573, 103.8559596"
406 SIN MING AVENUE,406,SIN MING AVE,"1.3630843000000001, 103.83377082488701"
268B BOON LAY DRIVE,268B,BOON LAY DR,"1.3475461499999999, 103.70805763990242"
626 PASIR RIS DRIVE 3,626,PASIR RIS DR 3,"1.3797535, 103.94104198505389"
280A SENGKANG EAST AVENUE,280A,SENGKANG EAST AVE,"1.38614545, 103.89249426976366"
161 LORONG 1 TOA PAYOH,161,LOR 1 TOA PAYOH,"1.3304833, 103.84502432715232"
412 BEDOK NORTH AVENUE 2,412,BEDOK NTH AVE 2,"1.328853, 103.9311895"
645 JALAN TENAGA,645,JLN TENAGA,"1.33152865, 103.9067104713264"
447 BRIGHT HILL DRIVE,447,BRIGHT HILL DR,"1.3582225, 103.8318362"
487A CHOA CHU KANG AVENUE 5,487A,CHOA CHU KANG AVE 5,"1.37599605, 103.73923440810361"
310B ANCHORVALE ROAD,310B,ANCHORVALE RD,"Error: Road retrieved. Returned address Anchorvale Road, Seng Kang, Northeast, 544336, Singapore"
660 CHOA CHU KANG CRESCENT,660,CHOA CHU KANG CRES,"Error: Road retrieved. Returned address Choa Chu Kang Crescent, Northwest, 689097, Singapore"
106 ALJUNIED CRESCENT,106,ALJUNIED CRES,"1.3190605, 103.88292918292046"
459 TAMPINES STREET 42,459,TAMPINES ST 42,"1.3581762, 103.95363821959839"
148 TAMPINES AVENUE 5,148,TAMPINES AVE 5,"1.35037805, 103.94191202716223"
396 YISHUN AVENUE 6,396,YISHUN AVE 6,"Error: Road retrieved. Returned address Yishun Avenue 6, Yishun, Northwest, 760406, Singapore"
533 BEDOK NORTH STREET 3,533,BEDOK NTH ST 3,"1.33360825, 103.92413104542794"
140 BEDOK NORTH STREET 2,140,BEDOK NTH ST 2,"1.3297639, 103.9353038462232"
131 BEDOK RESERVOIR ROAD,131,BEDOK RESERVOIR RD,"1.33314205, 103.91170403795712"
514 BUKIT BATOK STREET 52,514,BT BATOK ST 52,"1.35445145, 103.75248998855022"
118C JALAN MEMBINA,118C,JLN MEMBINA,"1.2822733, 103.8262036185258"
698 HOUGANG STREET 61,698,HOUGANG ST 61,"1.3748828, 103.8869975"
62B STRATHMORE AVENUE,62B,STRATHMORE AVE,"Error: Not Singapore. Returned address 62, Strathmore Avenue, Buffalo, Erie County, New York, 14220, United States"
324A SENGKANG EAST WAY,324A,SENGKANG EAST WAY,"1.3934272, 103.89226819532072"
58 LORONG 4 TOA PAYOH,58,LOR 4 TOA PAYOH,"1.33675385, 103.85054067488295"
103C EDGEFIELD PLAINS,103C,EDGEFIELD PLAINS,"Error: Road retrieved. Returned address Edgefield Plains, Punggol, Northeast, 828850, Singapore"
441 CHOA CHU KANG AVENUE 4,441,CHOA CHU KANG AVE 4,"1.383183, 103.73969726612833"
686C JURONG WEST CENTRAL 1,686C,JURONG WEST CTRL 1,"1.3422621000000001, 103.70432106786973"
256B SUMANG WALK,256B,SUMANG WALK,"1.4059769000000002, 103.89599381679733"
103 PASIR RIS STREET 12,103,PASIR RIS ST 12,"1.36781235, 103.95821899168908"
107 BISHAN STREET 12,107,BISHAN ST 12,"Error: Road retrieved. Returned address Bishan Street 12, Bishan, Singapore, Central, 570139, Singapore"
412 COMMONWEALTH AVENUE WEST,412,C'WEALTH AVE WEST,"1.3109176, 103.77079331102215"
262 BOON LAY DRIVE,262,BOON LAY DR,"1.34505265, 103.70745712069822"
