address,block,street_name,lat_long
195A PUNGGOL ROAD,195A,PUNGGOL RD,"1.40154095, 103.90614028633216"
173 ANG MO KIO AVENUE 4,173,ANG MO KIO AVE 4,"Error: Road retrieved. Returned address Ang Mo Kio Avenue 4, Ang Mo Kio, Singapore, Central, 568987, Singapore"
214 BISHAN STREET 23,214,BISHAN ST 23,"1.3573729, 103.84847804536601"
180 BUKIT BATOK WEST AVENUE 8,180,BT BATOK WEST AVE 8,"1.3456695, 103.74317765487326"
68 REDHILL CLOSE,68,REDHILL CL,"Error: Road retrieved. Returned address Redhill Close, Redhill Gardens, Bukit Merah, Singapore, Central, 150115, Singapore"
250 JURONG EAST STREET 24,250,JURONG EAST ST 24,"1.34260795, 103.73999429844173"
450C SENGKANG WEST WAY,450C,SENGKANG WEST WAY,"1.3938721, 103.87332111071957"
195 KIM KEAT AVENUE,195,KIM KEAT AVE,"1.33043865, 103.85889032862215"
273C PUNGGOL PLACE,273C,PUNGGOL PL,"1.4022354, 103.901273676367"
333C ANCHORVALE LINK,333C,ANCHORVALE LINK,"1.3944727000000001, 103.89182931708257"
408 TAMPINES STREET 41,408,TAMPINES ST 41,"1.3588163, 103.94524793057613"
133 BEDOK RESERVOIR ROAD,133,BEDOK RESERVOIR RD,"1.3323523499999999, 103.91176920171824"
247 BUKIT BATOK EAST AVENUE 5,247,BT BATOK EAST AVE 5,"1.3499039, 103.7569868515528"
165 BEDOK SOUTH ROAD,165,BEDOK STH RD,"1.3203038, 103.94609228604814"
52 SIMS PLACE,52,SIMS PL,"1.3166468, 103.88041879884284"
934 JURONG WEST STREET 91,934,JURONG WEST ST 91,"1.34229165, 103.68841554291058"
355 KANG CHING ROAD,355,KANG CHING RD,"1.3387893000000002, 103.72064614036603"
173C PUNGGOL FIELD,173C,PUNGGOL FIELD,"1.39628005, 103.91041763224925"
117 LORONG 1 TOA PAYOH,117,LOR 1 TOA PAYOH,"Error: Road retrieved. Returned address Lorong 1 Toa Payoh, Toa Payoh, Singapore, Central, 313130, Singapore"
744 WOODLANDS CIRCLE,744,WOODLANDS CIRCLE,"1.44272805, 103.795765825"
114 BEDOK RESERVOIR ROAD,114,BEDOK RESERVOIR RD,"1.33054955, 103.90996142663552"
651 SENJA LINK,651,SENJA LINK,"1.38659075, 103.76363529369863"
807A CHOA CHU KANG AVENUE 1,807A,CHOA CHU KANG AVE 1,"Error: Road retrieved. Returned address Choa Chu Kang Avenue 1, Choa Chu Kang, Southwest, 682296, Singapore"
620 HOUGANG AVENUE 8,620,HOUGANG AVE 8,"1.3702608, 103.8835057"
678 HOUGANG AVENUE 8,678,HOUGANG AVE 8,"Error: Road retrieved. Returned address Hougang Avenue 8, Hougang, Northeast, 530631, Singapore"
640 JURONG WEST STREET 61,640,JURONG WEST ST 61,"1.340166, 103.69640615898038"
627 JURONG WEST STREET 65,627,JURONG WEST ST 65,"1.3419632, 103.69892943850505"
404A FERNVALE LANE,404A,FERNVALE LANE,"1.3884638, 103.87376786977211"
280 TAMPINES STREET 22,280,TAMPINES ST 22,"1.3476035, 103.95175955706878"
862 YISHUN AVENUE 4,862,YISHUN AVE 4,"1.41708855, 103.8393657"
189 BUKIT BATOK WEST AVENUE 6,189,BT BATOK WEST AVE 6,"1.3458653, 103.74645586781189"
406 FAJAR ROAD,406,FAJAR RD,"Error: Road retrieved. Returned address Fajar Road, Bukit Panjang, Northwest, 673443, Singapore"
323B SENGKANG EAST WAY,323B,SENGKANG EAST WAY,"1.3922393, 103.8925290375046"
586 PASIR RIS STREET 53,586,PASIR RIS ST 53,"1.37521165, 103.94794234815134"
409 PANDAN GARDENS,409,PANDAN GDNS,"1.3184809, 103.74753501370313"
606 CLEMENTI WEST STREET 1,606,CLEMENTI WEST ST 1,"1.3048381, 103.76805648661868"
565 PASIR RIS STREET 51,565,PASIR RIS ST 51,"1.36882855, 103.95028951921432"
52 STRATHMORE AVENUE,52,STRATHMORE AVE,"Error: Not Singapore. Returned address 52, Strathmore Avenue, Buffalo, Erie County, New York, 14220, United States"
484 ADMIRALTY LINK,484,ADMIRALTY LINK,"Error: Road retrieved. Returned address Admiralty Link, Sembawang, Northwest, 757521, Singapore"
221 TAMPINES STREET 24,221,TAMPINES ST 24,"1.35511085, 103.95257387504934"
113 SIMEI STREET 1,113,SIMEI ST 1,"1.34282705, 103.94986714997056"
625A WOODLANDS DRIVE 52,625A,WOODLANDS DR 52,"1.43366105, 103.79965840274203"
264 YISHUN STREET 22,264,YISHUN ST 22,"1.4358576, 103.83842361851745"
311 HOUGANG AVENUE 5,311,HOUGANG AVE 5,"Error: Road retrieved. Returned address Hougang Avenue 5, Hougang, Northeast, 530334, Singapore"
332 SEMBAWANG CLOSE,332,SEMBAWANG CL,"1.4466141000000001, 103.81722011730437"
639 WOODLANDS RING ROAD,639,WOODLANDS RING RD,"Error: Road retrieved. Returned address Woodlands Ring Road, Woodlands, Northwest, 737890, Singapore"
127 BEDOK RESERVOIR ROAD,127,BEDOK RESERVOIR RD,"1.33285495, 103.91117835882905"
207B COMPASSVALE LANE,207B,COMPASSVALE LANE,"1.3849776999999999, 103.89824912974683"
499B TAMPINES AVENUE 9,499B,TAMPINES AVE 9,"Error: Road retrieved. Returned address Tampines Avenue 9, Tampines, Northeast, 522523, Singapore"
746 WOODLANDS CIRCLE,746,WOODLANDS CIRCLE,"Error: Not Singapore. Returned address 746, Woodlands Circle, Woodlands, Cumberland County, Tennessee, 38571, United States"
156 BISHAN STREET 13,156,BISHAN ST 13,"1.3454356, 103.85678031533533"
653 SENJA LINK,653,SENJA LINK,"Error: Road retrieved. Returned address Senja Link, Bukit Panjang, Northwest, 670631, Singapore"
653C JURONG WEST STREET 61,653C,JURONG WEST ST 61,"1.3354173999999999, 103.6969636895646"
671B EDGEFIELD PLAINS,671B,EDGEFIELD PLAINS,"1.4062336, 103.9117585881489"
206 PETIR ROAD,206,PETIR RD,"1.3737091000000001, 103.77413936839352"
274A JURONG WEST AVENUE 3,274A,JURONG WEST AVE 3,"1.35229845, 103.70361084492589"
702 JURONG WEST STREET 71,702,JURONG WEST ST 71,"1.3420225000000001, 103.69530888743526"
633 PASIR RIS DRIVE 3,633,PASIR RIS DR 3,"1.37807085, 103.94067543669638"
403 TAMPINES STREET 41,403,TAMPINES ST 41,"1.3575377, 103.94491124999999"
201 YISHUN STREET 21,201,YISHUN ST 21,"Error: Road retrieved. Returned address Yishun Street 21, Yishun, Northwest, 768610, Singapore"
835 JURONG WEST STREET 81,835,JURONG WEST ST 81,"1.3434533, 103.69387411952056"
143 SERANGOON NORTH AVENUE 1,143,SERANGOON NTH AVE 1,"1.3673772, 103.87292130467318"
661 JALAN DAMAI,661,JLN DAMAI,"1.3345347, 103.90790931213105"
674 CHOA CHU KANG CRESCENT,674,CHOA CHU KANG CRES,"Error: Road retrieved. Returned address Choa Chu Kang Crescent, Northwest, 689097, Singapore"
109 PASIR RIS STREET 11,109,PASIR RIS ST 11,"1.3685416, 103.95606619553348"
304A ANCHORVALE LINK,304A,ANCHORVALE LINK,"1.3881343, 103.88872080159402"
279 TAMPINES STREET 22,279,TAMPINES ST 22,"1.3464866500000001, 103.95193142791837"
280 YISHUN STREET 22,280,YISHUN ST 22,"1.43857715, 103.83696765"
485 JURONG WEST AVENUE 1,485,JURONG WEST AVE 1,"1.3483260499999998, 103.72727175579587"
265 TAMPINES STREET 21,265,TAMPINES ST 21,"1.3522606000000001, 103.94985521800552"
872 YISHUN STREET 81,872,YISHUN ST 81,"Error: Road retrieved. Returned address Yishun Street 81, Yishun, Northwest, 760873, Singapore"
46 JALAN BUKIT HO SWEE,46,JLN BT HO SWEE,"1.2882937, 103.82615711433978"
674 HOUGANG AVENUE 8,674,HOUGANG AVE 8,"Error: Road retrieved. Returned address Hougang Avenue 8, Hougang, Northeast, 530631, Singapore"
7 UPPER ALJUNIED LANE,7,UPP ALJUNIED LANE,"Error: Road retrieved. Returned address Upper Aljunied Lane, Joo Seng Green, Joo Seng, Southeast, 367870, Singapore"
419 BEDOK NORTH STREET 1,419,BEDOK NTH ST 1,"Error: Road retrieved. Returned address Bedok North Street 1, Bedok, Southeast, 460419, Singapore"
177 BUKIT BATOK WEST AVENUE 8,177,BT BATOK WEST AVE 8,"1.3463664, 103.7415893"
358 BUKIT BATOK STREET 31,358,BT BATOK ST 31,"1.3613952, 103.7507986201035"
294 PUNGGOL CENTRAL,294,PUNGGOL CTRL,"Error: Road retrieved. Returned address Punggol Central, Punggol, Northeast, 821256, Singapore"
257C COMPASSVALE ROAD,257C,COMPASSVALE RD,"1.3929205, 103.8962227588473"
331 TAMPINES STREET 32,331,TAMPINES ST 32,"1.35337545, 103.95982938092996"
258 ANG MO KIO AVENUE 4,258,ANG MO KIO AVE 4,"Error: Road retrieved. Returned address Ang Mo Kio Avenue 4, Ang Mo Kio, Singapore, Central, 568987, Singapore"
686D CHOA CHU KANG CRESCENT,686D,CHOA CHU KANG CRES,"1.40414335, 103.74835746546026"
325 HOUGANG AVENUE 7,325,HOUGANG AVE 7,"1.3677399000000001, 103.89891108956752"
976 HOUGANG STREET 91,976,HOUGANG ST 91,"1.3773423, 103.88039117797143"
967 HOUGANG AVENUE 9,967,HOUGANG AVE 9,"Error: Road retrieved. Returned address Hougang Avenue 9, Hougang, Northeast, 538692, Singapore"
107 TOWNER ROAD,107,TOWNER RD,"1.3195887, 103.85988300933047"
572 PASIR RIS STREET 53,572,PASIR RIS ST 53,"1.3734709, 103.94553328857182"
520C TAMPINES CENTRAL 8,520C,TAMPINES CTRL 8,"1.3567049, 103.93958752792207"
335A SMITH STREET,335A,SMITH ST,"Error: Not Singapore. Returned address 335, Smith Street, Wilmer, Area G (Forster Creek/Mount Assiniboine), Regional District of East Kootenay, British Columbia, V0A 1K7, Canada"
507B WELLINGTON CIRCLE,507B,WELLINGTON CIRCLE,"1.45272335, 103.82303540348822"
567 PASIR RIS STREET 51,567,PASIR RIS ST 51,"1.3691404, 103.9493497815499"
36 EUNOS CRESCENT,36,EUNOS CRES,"1.32110585, 103.90189022344258"
453 JURONG WEST STREET 42,453,JURONG WEST ST 42,"1.35130025, 103.71743663314382"
77 LORONG LIMAU,77,LOR LIMAU,"Error: Road retrieved. Returned address Lorong Limau, Novena, Singapore, Central, 328836, Singapore"
164 SIMEI ROAD,164,SIMEI RD,"1.3459663499999999, 103.95864474166666"
2A GEYLANG SERAI,2A,GEYLANG SERAI,"1.3170229, 103.89774757743615"
722 BEDOK RESERVOIR ROAD,722,BEDOK RESERVOIR RD,"1.3366844, 103.92835185451924"
25 EUNOS CRESCENT,25,EUNOS CRES,"1.3233968, 103.90243501892064"
183D BOON LAY AVENUE,183D,BOON LAY AVE,"1.3490899500000002, 103.7090720996214"
202 BOON LAY DRIVE,202,BOON LAY DR,"1.34377645, 103.71514463607609"
636 BEDOK RESERVOIR ROAD,636,BEDOK RESERVOIR RD,"1.33104865, 103.90437258648484"
105 TECK WHYE LANE,105,TECK WHYE LANE,"1.3776095000000002, 103.75299804473684"
463 HOUGANG AVENUE 10,463,HOUGANG AVE 10,"1.3723141499999998, 103.89497479247439"
326A ANCHORVALE ROAD,326A,ANCHORVALE RD,"1.3948565, 103.888208"
892A WOODLANDS DRIVE 50,892A,WOODLANDS DR 50,"1.4373819, 103.79045248626184"
68 TELOK BLANGAH HEIGHTS,68,TELOK BLANGAH HTS,"Error: Road retrieved. Returned address Telok Blangah Heights, Bukit Merah, Singapore, Central, 100059, Singapore"
754 CHOA CHU KANG NORTH 5,754,CHOA CHU KANG NTH 5,"Error: Road retrieved. Returned address Choa Chu Kang North 5, Northwest, 680533, Singapore"
82 BEDOK NORTH ROAD,82,BEDOK NTH RD,"1.3295124, 103.94042606198161"
440A CLEMENTI AVENUE 3,440A,CLEMENTI AVE 3,"Error: Road retrieved. Returned address Clementi Avenue 3, Clementi, Southwest, 120443, Singapore"
197 PASIR RIS STREET 12,197,PASIR RIS ST 12,"1.36646145, 103.960795570654"
94 COMMONWEALTH DRIVE,94,C'WEALTH DR,"1.3055439999999998, 103.80071125181263"
213 BUKIT BATOK STREET 21,213,BT BATOK ST 21,"1.3467876, 103.75256232033163"
859 TAMPINES AVENUE 5,859,TAMPINES AVE 5,"1.3546685, 103.93807390735746"
367 WOODLANDS AVENUE 5,367,WOODLANDS AVE 5,"Error: Road retrieved. Returned address Woodlands Avenue 5, Woodlands, Northwest, 730900, Singapore"
217 BEDOK NORTH STREET 1,217,BEDOK NTH ST 1,"1.3267956, 103.93403040252494"
419 ANG MO KIO AVENUE 10,419,ANG MO KIO AVE 10,"1.36529435, 103.85415376916289"
536 BEDOK NORTH STREET 3,536,BEDOK NTH ST 3,"1.333298, 103.92297812233502"
542 BEDOK NORTH STREET 3,542,BEDOK NTH ST 3,"1.33059935, 103.92263093651664"
547 BEDOK NORTH STREET 3,547,BEDOK NTH ST 3,"1.33002325, 103.92500222837182"
441 FAJAR ROAD,441,FAJAR RD,"Error: Road retrieved. Returned address Fajar Road, Bukit Panjang, Northwest, 673443, Singapore"
635B SENJA ROAD,635B,SENJA RD,"1.3866706, 103.75786093357353"
706 CLEMENTI WEST STREET 2,706,CLEMENTI WEST ST 2,"1.3067003000000001, 103.7625254774558"
506 HOUGANG AVENUE 8,506,HOUGANG AVE 8,"1.37276675, 103.8876214995947"
680A JURONG WEST CENTRAL 1,680A,JURONG WEST CTRL 1,"1.3446006000000001, 103.70552972997895"
81 COMMONWEALTH CLOSE,81,C'WEALTH CL,"1.30377905, 103.80040152240437"
231 LORONG 8 TOA PAYOH,231,LOR 8 TOA PAYOH,"1.3369604, 103.8594894"
119 POTONG PASIR AVENUE 1,119,POTONG PASIR AVE 1,"1.33478895, 103.86311918431036"
146 BUKIT BATOK WEST AVENUE 6,146,BT BATOK WEST AVE 6,"1.3496792, 103.74411845615847"
139 JALAN BUKIT MERAH,139,JLN BT MERAH,"Error: Road retrieved. Returned address Jalan Bukit Merah, Radin Mas, Bukit Merah, Singapore, Central, 169545, Singapore"
76 MARINE DRIVE,76,MARINE DR,"Error: Not Singapore. Returned address 76, Marine Drive, Doughboy, Astoria, Clatsop County, Oregon, 97103, United States"
305 CANBERRA ROAD,305,CANBERRA RD,"1.4454579, 103.8218316050505"
738 WOODLANDS CIRCLE,738,WOODLANDS CIRCLE,"1.4441703000000001, 103.79761241902543"
113 BEDOK NORTH STREET 2,113,BEDOK NTH ST 2,"1.3303414, 103.93503972020366"
141 PETIR ROAD,141,PETIR RD,"Error: Road retrieved. Returned address Petir Road, Bukit Panjang, Northwest, 678272, Singapore"
618D PUNGGOL DRIVE,618D,PUNGGOL DR,"1.4019194000000001, 103.91149935361494"
183C RIVERVALE CRESCENT,183C,RIVERVALE CRES,"1.3910368499999999, 103.90855130945835"
730 WOODLANDS CIRCLE,730,WOODLANDS CIRCLE,"1.44254515, 103.7978811183647"
204 SERANGOON CENTRAL,204,SERANGOON CTRL,"1.3524681, 103.8732755"
537 BUKIT BATOK STREET 52,537,BT BATOK ST 52,"1.355115, 103.75086144385241"
4 EVERTON PARK,4,EVERTON PK,"Error: Block retrieved. Returned address 4, Cantonment Road, Everton Park, Bukit Merah, Singapore, Central, 080004, Singapore"
635 PASIR RIS DRIVE 1,635,PASIR RIS DR 1,"1.3774157, 103.9403810196535"
757 WOODLANDS AVENUE 4,757,WOODLANDS AVE 4,"Error: Road retrieved. Returned address Woodlands Avenue 4, Woodlands, Northwest, 757432, Singapore"
243 YISHUN RING ROAD,243,YISHUN RING RD,"1.4337808, 103.84037875480374"
304 YISHUN CENTRAL,304,YISHUN CTRL,"1.4305256499999999, 103.84037735"
631 SENJA ROAD,631,SENJA RD,"1.38664435, 103.7602860456852"
19 BALAM ROAD,19,BALAM RD,"1.3314357, 103.88741163701457"
679B PUNGGOL DRIVE,679B,PUNGGOL DR,"1.4062931, 103.90841491393884"
208A COMPASSVALE LANE,208A,COMPASSVALE LANE,"1.38446915, 103.8984812557137"
133 RIVERVALE STREET,133,RIVERVALE ST,"1.3887979000000001, 103.9034429560785"
111 BUKIT PURMEI ROAD,111,BT PURMEI RD,"Error: Road retrieved. Returned address Bukit Purmei Road, Bukit Purmei Ville, Bukit Merah, Singapore, Central, 90112, Singapore"
2D GEYLANG SERAI,2D,GEYLANG SERAI,"1.3175466999999998, 103.89851880043382"
238 HOUGANG AVENUE 1,238,HOUGANG AVE 1,"1.3572457999999998, 103.88938904040602"
101 SIMEI STREET 1,101,SIMEI ST 1,"1.3409819500000002, 103.95157734841143"
612 SENJA ROAD,612,SENJA RD,"Error: Road retrieved. Returned address Senja Road, Bukit Panjang, Northwest, 677741, Singapore"
532 UPPER CROSS STREET,532,UPP CROSS ST,"1.2841812, 103.84597368561754"
42 CIRCUIT ROAD,42,CIRCUIT RD,"1.32702425, 103.88647865781249"
8A UPPER BOON KENG ROAD,8A,UPP BOON KENG RD,"1.313047, 103.86982730523067"
140 PASIR RIS STREET 11,140,PASIR RIS ST 11,"1.363941, 103.9592135199768"
259A COMPASSVALE ROAD,259A,COMPASSVALE RD,"1.3941457, 103.896838"
211 TAMPINES STREET 23,211,TAMPINES ST 23,"1.3541964499999999, 103.95497510000001"
109 POTONG PASIR AVENUE 1,109,POTONG PASIR AVE 1,"1.33484505, 103.86743722899338"
28 TELOK BLANGAH RISE,28,TELOK BLANGAH RISE,"1.27386995, 103.82091361834838"
38 BEDOK SOUTH ROAD,38,BEDOK STH RD,"1.32104825, 103.9386564001949"
156 WOODLANDS STREET 13,156,WOODLANDS ST 13,"Error: Road retrieved. Returned address Woodlands Street 13, Woodlands, Northwest, 738623, Singapore"
651A JURONG WEST STREET 61,651A,JURONG WEST ST 61,"1.3370437000000002, 103.69786305"
3 TECK WHYE AVENUE,3,TECK WHYE AVE,"1.38244355, 103.75260670371414"
655 HOUGANG AVENUE 8,655,HOUGANG AVE 8,"Error: Road retrieved. Returned address Hougang Avenue 8, Hougang, Northeast, 530631, Singapore"
223 PASIR RIS STREET 21,223,PASIR RIS ST 21,"1.3706708, 103.96150212374855"
12 JALAN BUKIT MERAH,12,JLN BT MERAH,"Error: Road retrieved. Returned address Jalan Bukit Merah, Bukit Merah, Singapore, Central, 150120, Singapore"
344 CHOA CHU KANG LOOP,344,CHOA CHU KANG LOOP,"1.3832214, 103.74505473272222"
671 HOUGANG AVENUE 8,671,HOUGANG AVE 8,"Error: Road retrieved. Returned address Hougang Avenue 8, Hougang, Northeast, 530631, Singapore"
41 TEBAN GARDENS ROAD,41,TEBAN GDNS RD,"1.3215812, 103.74096338618753"
138C LORONG 1A TOA PAYOH,138C,LOR 1A TOA PAYOH,"1.33623235, 103.84485779983885"
780D WOODLANDS CRESCENT,780D,WOODLANDS CRES,"1.44826775, 103.80196140822251"
508 HOUGANG AVENUE 10,508,HOUGANG AVE 10,"Error: Road retrieved. Returned address Hougang Avenue 10, Hougang, Northeast, 538766, Singapore"
707 PASIR RIS DRIVE 10,707,PASIR RIS DR 10,"1.3812772, 103.93826614507884"
453 YISHUN STREET 41,453,YISHUN ST 41,"1.4199595, 103.84570573139021"
444 ANG MO KIO AVENUE 10,444,ANG MO KIO AVE 10,"Error: Road retrieved. Returned address Ang Mo Kio Avenue 10, Ang Mo Kio, Singapore, Central, 560449, Singapore"
177 ANG MO KIO AVENUE 4,177,ANG MO KIO AVE 4,"1.37584675, 103.83811901747687"
69 BEDOK SOUTH AVENUE 3,69,BEDOK STH AVE 3,"1.3193665, 103.94372485043158"
363 BUKIT BATOK STREET 31,363,BT BATOK ST 31,"1.3609892499999998, 103.74924421099264"
536 UPPER CROSS STREET,536,UPP CROSS ST,"1.28490785, 103.84566226335296"
692B CHOA CHU KANG CRESCENT,692B,CHOA CHU KANG CRES,"Error: Road retrieved. Returned address Choa Chu Kang Crescent, Northwest, 689097, Singapore"
138C YUAN CHING ROAD,138C,YUAN CHING RD,"Error: Road retrieved. Returned address Yuan Ching Road, Jurong East, Southwest, 649845, Singapore"
4 BOON KENG ROAD,4,BOON KENG RD,"1.3160066000000001, 103.85983462841472"
315B ANCHORVALE ROAD,315B,ANCHORVALE RD,"1.3922664500000002, 103.88864152052815"
386 YISHUN RING ROAD,386,YISHUN RING RD,"1.4289668999999998, 103.84645976447487"
678D JURONG WEST STREET 64,678D,JURONG WEST ST 64,"1.3450954, 103.7034374"
175C PUNGGOL FIELD,175C,PUNGGOL FIELD,"1.3982062, 103.90804723136338"
442 SIN MING AVENUE,442,SIN MING AVE,"Error: Road retrieved. Returned address Sin Ming Avenue, Bishan, Singapore, Central, 576442, Singapore"
245 BUKIT BATOK EAST AVENUE 5,245,BT BATOK EAST AVE 5,"1.3496929500000001, 103.75731824111567"
72 TELOK BLANGAH HEIGHTS,72,TELOK BLANGAH HTS,"1.2761007, 103.80965137784568"
484B CHOA CHU KANG AVENUE 5,484B,CHOA CHU KANG AVE 5,"1.3760924, 103.73648010973304"
909 HOUGANG STREET 91,909,HOUGANG ST 91,"Error: Road retrieved. Returned address Hougang Street 91, Hougang, Northeast, 530920, Singapore"
128 LORONG AH SOO,128,LOR AH SOO,"1.35170795, 103.88634842410372"
663B PUNGGOL DRIVE,663B,PUNGGOL DR,"1.40082685, 103.91732519593714"
505 TAMPINES CENTRAL 1,505,TAMPINES CTRL 1,"1.35552565, 103.94555821232818"
108 GANGSA ROAD,108,GANGSA RD,"Error: Road retrieved. Returned address Gangsa Road, Bukit Panjang, Northwest, 679002, Singapore"
891A TAMPINES AVENUE 8,891A,TAMPINES AVE 8,"1.3487368499999999, 103.93086993194889"
341 WOODLANDS AVENUE 1,341,WOODLANDS AVE 1,"Error: Road retrieved. Returned address Woodlands Avenue 1, Woodlands, Northwest, 739069, Singapore"
246 BUKIT BATOK EAST AVENUE 5,246,BT BATOK EAST AVE 5,"1.3495389, 103.75758560871694"
182 EDGEFIELD PLAINS,182,EDGEFIELD PLAINS,"Error: Road retrieved. Returned address Edgefield Plains, Punggol, Northeast, 828850, Singapore"
214 YISHUN STREET 21,214,YISHUN ST 21,"Error: Road retrieved. Returned address Yishun Street 21, Yishun, Northwest, 768610, Singapore"
12 KAMPONG ARANG ROAD,12,KG ARANG RD,"1.3008408500000002, 103.88372185"
352 WOODLANDS AVENUE 1,352,WOODLANDS AVE 1,"1.4317256999999999, 103.78467031132104"
537 HOUGANG STREET 52,537,HOUGANG ST 52,"Error: Road retrieved. Returned address Hougang Street 52, Hougang, Northeast, 530699, Singapore"
353 CHOA CHU KANG CENTRAL,353,CHOA CHU KANG CTRL,"1.38214855, 103.74379552040064"
624A WOODLANDS DRIVE 52,624A,WOODLANDS DR 52,"1.434314, 103.79972022487206"
307C ANG MO KIO AVENUE 1,307C,ANG MO KIO AVE 1,"Error: Road retrieved. Returned address Ang Mo Kio Avenue 1, Ang Mo Kio, Singapore, Central, 560218, Singapore"
405 BEDOK NORTH AVENUE 3,405,BEDOK NTH AVE 3,"1.3287081500000002, 103.93412070718016"
50 TELOK BLANGAH DRIVE,50,TELOK BLANGAH DR,"1.273108, 103.81020433510271"
549A SEGAR ROAD,549A,SEGAR RD,"1.3897431500000001, 103.76818599811713"
280B SENGKANG EAST AVENUE,280B,SENGKANG EAST AVE,"1.3861512, 103.89192827583332"
362 CLEMENTI AVENUE 2,362,CLEMENTI AVE 2,"1.3126578, 103.7699524625"
159 HOUGANG STREET 11,159,HOUGANG ST 11,"Error: Road retrieved. Returned address Hougang Street 11, Hougang, Northeast, 534075, Singapore"
331 JURONG EAST AVENUE 1,331,JURONG EAST AVE 1,"1.3509359, 103.7301409522549"
146 MEI LING STREET,146,MEI LING ST,"1.2939101000000002, 103.8045221037272"
238 LORONG 1 TOA PAYOH,238,LOR 1 TOA PAYOH,"1.3402052000000002, 103.8516074535072"
852 YISHUN STREET 81,852,YISHUN ST 81,"1.4159992, 103.83682275000001"
553 BEDOK NORTH AVENUE 1,553,BEDOK NTH AVE 1,"1.3314525499999998, 103.92773571499973"
329 BUKIT BATOK STREET 33,329,BT BATOK ST 33,"1.3631647, 103.7474769440729"
633C SENJA ROAD,633C,SENJA RD,"1.3847056000000002, 103.75925175"
231 JURONG EAST STREET 21,231,JURONG EAST ST 21,"1.34116175, 103.73804172600836"
642 PASIR RIS DRIVE 10,642,PASIR RIS DR 10,"1.3775051999999999, 103.9383279557407"
219 TAMPINES STREET 24,219,TAMPINES ST 24,"1.3547524499999999, 103.95262616987768"
232 ANG MO KIO AVENUE 3,232,ANG MO KIO AVE 3,"Error: Road retrieved. Returned address Ang Mo Kio Avenue 3, Ang Mo Kio, Singapore, Central, 560564, Singapore"
714 ANG MO KIO AVENUE 6,714,ANG MO KIO AVE 6,"Error: Road retrieved. Returned address Ang Mo Kio Avenue 6, Ang Mo Kio, Singapore, Central, 569845, Singapore"
134 GEYLANG EAST AVENUE 1,134,GEYLANG EAST AVE 1,"1.3159915, 103.8862216"
615B EDGEFIELD PLAINS,615B,EDGEFIELD PLAINS,"Error: Road retrieved. Returned address Edgefield Plains, Punggol, Northeast, 828850, Singapore"
747 PASIR RIS STREET 71,747,PASIR RIS ST 71,"1.3792124499999998, 103.93466356142494"
104 BEDOK RESERVOIR ROAD,104,BEDOK RESERVOIR RD,"1.3292405, 103.90988635265701"
201 SERANGOON CENTRAL,201,SERANGOON CTRL,"1.35115945, 103.8737480055881"
426 TAMPINES STREET 41,426,TAMPINES ST 41,"1.3595607, 103.94789351180518"
248 BUKIT BATOK EAST AVENUE 5,248,BT BATOK EAST AVE 5,"1.35025705, 103.75665734562726"
547 WOODLANDS DRIVE 16,547,WOODLANDS DR 16,"Error: Road retrieved. Returned address Woodlands Drive 16, Woodlands, Northwest, 730548, Singapore"
83 WHAMPOA DRIVE,83,WHAMPOA DR,"1.3235881, 103.85706220468357"
575 ANG MO KIO AVENUE 10,575,ANG MO KIO AVE 10,"Error: Road retrieved. Returned address Ang Mo Kio Avenue 10, Ang Mo Kio, Singapore, Central, 560449, Singapore"
539 BUKIT BATOK STREET 52,539,BT BATOK ST 52,"1.3547877499999998, 103.75089940908131"
487 SEGAR ROAD,487,SEGAR RD,"1.38917325, 103.77133360932481"
20 TEBAN GARDENS ROAD,20,TEBAN GDNS RD,"1.3238598000000001, 103.73877223955415"
176 BOON LAY DRIVE,176,BOON LAY DR,"1.3473552, 103.70999563428578"
264B COMPASSVALE BOW,264B,COMPASSVALE BOW,"1.3813843000000001, 103.89652037862119"
434A FERNVALE ROAD,434A,FERNVALE RD,"1.39439525, 103.87640327165045"
512 BUKIT BATOK STREET 52,512,BT BATOK ST 52,"1.3539963, 103.75283980208427"
251 BANGKIT ROAD,251,BANGKIT RD,"1.3802419000000001, 103.77394510051141"
204C PUNGGOL FIELD,204C,PUNGGOL FIELD,"Error: Road retrieved. Returned address Punggol Field, Punggol Cove, Punggol, Northeast, 820198, Singapore"
180 ANG MO KIO AVENUE 5,180,ANG MO KIO AVE 5,"Error: Road retrieved. Returned address Ang Mo Kio Avenue 5, Ang Mo Kio, Singapore, Central, 560180, Singapore"
402 SIN MING AVENUE,402,SIN MING AVE,"1.3627589, 103.83276225"
125 SERANGOON NORTH AVENUE 1,125,SERANGOON NTH AVE 1,"1.36652715, 103.87240135"
362 TAMPINES STREET 34,362,TAMPINES ST 34,"1.3562085000000002, 103.96161536527232"
726 TAMPINES STREET 71,726,TAMPINES ST 71,"1.3570288499999998, 103.9359115488072"
84B LORONG 2 TOA PAYOH,84B,LOR 2 TOA PAYOH,"1.3357177, 103.84682095674121"
585 WOODLANDS DRIVE 16,585,WOODLANDS DR 16,"1.4292975499999998, 103.79547419240842"
626 SENJA ROAD,626,SENJA RD,"Error: Road retrieved. Returned address Senja Road, Bukit Panjang, Northwest, 677741, Singapore"
121 BEDOK RESERVOIR ROAD,121,BEDOK RESERVOIR RD,"1.331313, 103.909971"
610 CHOA CHU KANG STREET 62,610,CHOA CHU KANG ST 62,"Error: Road retrieved. Returned address Choa Chu Kang Street 62, Northwest, 680627, Singapore"
137 LORONG AH SOO,137,LOR AH SOO,"Error: Road retrieved. Returned address Lorong Ah Soo, Hougang, Northeast, 530129, Singapore"
326 ANG MO KIO AVENUE 3,326,ANG MO KIO AVE 3,"Error: Road retrieved. Returned address Ang Mo Kio Avenue 3, Ang Mo Kio, Singapore, Central, 560564, Singapore"
149 BISHAN STREET 11,149,BISHAN ST 11,"1.34408795, 103.85589326309932"
19 LIM LIAK STREET,19,LIM LIAK ST,"1.2855036, 103.83259705"
50 SIMS DRIVE,50,SIMS DR,"1.3164892, 103.87841254111001"
137 TECK WHYE LANE,137,TECK WHYE LANE,"1.3799177999999999, 103.75275188455873"
632 BEDOK RESERVOIR ROAD,632,BEDOK RESERVOIR RD,"1.3325325, 103.9141909"
9 PINE CLOSE,9,PINE CL,"Error: Not Singapore. Returned address 9, Pine Close, Eaton, Norwich, Norfolk, East of England, England, NR4 7PU, United Kingdom"
316C PUNGGOL WAY,316C,PUNGGOL WAY,"1.40894515, 103.89728150806451"
36 BEO CRESCENT,36,BEO CRES,"1.2883027, 103.8271796"
90 BEDOK NORTH STREET 4,90,BEDOK NTH ST 4,"Error: Road retrieved. Returned address Bedok North Street 4, Bedok, Southeast, 460097, Singapore"
340 JURONG EAST AVENUE 1,340,JURONG EAST AVE 1,"1.3502402999999998, 103.73065741279243"
40 CHAI CHEE AVENUE,40,CHAI CHEE AVE,"Error: Road retrieved. Returned address Chai Chee Avenue, Ansar Garden, Bedok, Southeast, 461029, Singapore"
333 BUKIT BATOK STREET 32,333,BT BATOK ST 32,"1.36416545, 103.74781485332602"
524C PASIR RIS STREET 51,524C,PASIR RIS ST 51,"1.3706288, 103.94756587724135"
615C EDGEFIELD PLAINS,615C,EDGEFIELD PLAINS,"Error: Road retrieved. Returned address Edgefield Plains, Punggol, Northeast, 828850, Singapore"
108 RIVERVALE WALK,108,RIVERVALE WALK,"1.3828958, 103.89975063364588"
433A SENGKANG WEST WAY,433A,SENGKANG WEST WAY,"1.3948505, 103.8775896766819"
601 WOODLANDS DRIVE 42,601,WOODLANDS DR 42,"Error: Road retrieved. Returned address Woodlands Drive 42, Woodlands, Northwest, 730888, Singapore"
137 YISHUN RING ROAD,137,YISHUN RING RD,"1.4316505, 103.8298906600704"
708 CHOA CHU KANG STREET 53,708,CHOA CHU KANG ST 53,"Error: Road retrieved. Returned address Choa Chu Kang Street 53, Northwest, 689189, Singapore"
413 HOUGANG AVENUE 10,413,HOUGANG AVE 10,"1.3745694, 103.89562040836302"
898A TAMPINES STREET 81,898A,TAMPINES ST 81,"1.34660265, 103.93459479311052"
689A WOODLANDS DRIVE 75,689A,WOODLANDS DR 75,NONE
308B ANG MO KIO AVENUE 1,308B,ANG MO KIO AVE 1,"Error: Road retrieved. Returned address Ang Mo Kio Avenue 1, Ang Mo Kio, Singapore, Central, 560218, Singapore"
402 ANG MO KIO AVENUE 10,402,ANG MO KIO AVE 10,"1.36145895, 103.8553229500541"
348 BUKIT BATOK STREET 34,348,BT BATOK ST 34,"1.3621126000000001, 103.75063794532883"
106 BUKIT PURMEI ROAD,106,BT PURMEI RD,"1.2729243499999998, 103.82562375500262"
24 TELOK BLANGAH CRESCENT,24,TELOK BLANGAH CRES,"1.27538745, 103.82064366028374"
530 CHOA CHU KANG STREET 51,530,CHOA CHU KANG ST 51,"Error: Road retrieved. Returned address Choa Chu Kang Street 51, Northwest, 689333, Singapore"
421 HOUGANG AVENUE 10,421,HOUGANG AVE 10,"1.37539645, 103.89469190748073"
936 HOUGANG STREET 92,936,HOUGANG ST 92,"Error: Road retrieved. Returned address Hougang Street 92, Hougang, Northeast, 530943, Singapore"
533 HOUGANG AVENUE 6,533,HOUGANG AVE 6,"Error: Road retrieved. Returned address Hougang Avenue 6, Hougang, Northeast, 538787, Singapore"
808 WOODLANDS STREET 81,808,WOODLANDS ST 81,"Error: Road retrieved. Returned address Woodlands St 81, Woodlands, Northwest, 738525, Singapore"
534 BUKIT BATOK STREET 51,534,BT BATOK ST 51,"1.3559017, 103.75067194673503"
471C FERNVALE STREET,471C,FERNVALE ST,"Error: Not Singapore. Returned address Fernvale Street, Sydenham, County Down, Northern Ireland, BT4 1QE, United Kingdom"
220 PASIR RIS STREET 21,220,PASIR RIS ST 21,"1.3698717500000002, 103.96166969180207"
30 HOLLAND CLOSE,30,HOLLAND CL,"1.3077410500000002, 103.79671778125902"
422 BEDOK NORTH ROAD,422,BEDOK NTH RD,"Error: Road retrieved. Returned address Bedok North Road, Bedok, Southeast, 460401, Singapore"
642 HOUGANG AVENUE 8,642,HOUGANG AVE 8,"Error: Road retrieved. Returned address Hougang Avenue 8, Hougang, Northeast, 530631, Singapore"
670A JURONG WEST STREET 65,670A,JURONG WEST ST 65,"1.3441852, 103.7026995327962"
103 ANG MO KIO AVENUE 3,103,ANG MO KIO AVE 3,"Error: Road retrieved. Returned address Ang Mo Kio Avenue 3, Ang Mo Kio, Singapore, Central, 560564, Singapore"
505 ANG MO KIO AVENUE 8,505,ANG MO KIO AVE 8,"Error: Road retrieved. Returned address Ang Mo Kio Avenue 8, Ang Mo Kio, Singapore, Central, 569843, Singapore"
338 UBI AVENUE 1,338,UBI AVE 1,"1.32616425, 103.90216178147097"
205 JURONG EAST STREET 21,205,JURONG EAST ST 21,"1.33753185, 103.74303517434365"
206 TAMPINES STREET 21,206,TAMPINES ST 21,"1.3509807, 103.95263882271774"
486A TAMPINES AVENUE 9,486A,TAMPINES AVE 9,"1.3596732999999999, 103.95736783859293"
51 CIRCUIT ROAD,51,CIRCUIT RD,"1.32451795, 103.885526"
560 HOUGANG STREET 51,560,HOUGANG ST 51,"Error: Road retrieved. Returned address Hougang Street 51, Hougang, Northeast, 530699, Singapore"
683B JURONG WEST CENTRAL 1,683B,JURONG WEST CTRL 1,"Error: Road retrieved. Returned address Jurong West Central 1, Jurong West, Southwest, 640686, Singapore"
185 PASIR RIS STREET 11,185,PASIR RIS ST 11,"1.3656073, 103.96012521597456"
852 TAMPINES STREET 82,852,TAMPINES ST 82,"1.3526820000000002, 103.93647877867932"
681D WOODLANDS DRIVE 62,681D,WOODLANDS DR 62,"1.4399781, 103.803576527469"
666 HOUGANG AVENUE 4,666,HOUGANG AVE 4,"1.3738003, 103.88490638088149"
195C PUNGGOL ROAD,195C,PUNGGOL RD,"Error: Road retrieved. Returned address Punggol Road, Punggol, Northeast, 820198, Singapore"
427 ANG MO KIO AVENUE 3,427,ANG MO KIO AVE 3,"1.3692957, 103.85457673982793"
115 BEDOK RESERVOIR ROAD,115,BEDOK RESERVOIR RD,"1.33068155, 103.90881655030253"
471 SEGAR ROAD,471,SEGAR RD,"Error: Road retrieved. Returned address Segar Road, Bukit Panjang, Northwest, 677738, Singapore"
636 JURONG WEST STREET 65,636,JURONG WEST ST 65,"1.3422124, 103.69789079160586"
228 LORONG 8 TOA PAYOH,228,LOR 8 TOA PAYOH,"1.33916035, 103.85882207468254"
316B YISHUN AVENUE 9,316B,YISHUN AVE 9,"Error: Road retrieved. Returned address Yishun Avenue 9, Yishun, Northwest, 760246, Singapore"
638 YISHUN STREET 61,638,YISHUN ST 61,"1.42024175, 103.83856339178041"
19 MARINE TERRACE,19,MARINE TER,"1.3045459, 103.91505038152879"
761 PASIR RIS STREET 71,761,PASIR RIS ST 71,"1.37629795, 103.93380842912191"
528 SERANGOON NORTH AVENUE 4,528,SERANGOON NTH AVE 4,"Error: Road retrieved. Returned address Serangoon North Avenue 4, Ang Mo Kio Industrial Park 2, Serangoon North, Singapore, Central, 555859, Singapore"
251 KIM KEAT LINK,251,KIM KEAT LINK,"1.3317991, 103.85696188168878"
777 WOODLANDS CRESCENT,777,WOODLANDS CRES,"Error: Road retrieved. Returned address Woodlands Crescent, Woodlands, Northwest, 733783, Singapore"
628B WOODLANDS RING ROAD,628B,WOODLANDS RING RD,"1.4345086500000002, 103.80044599071454"
619 CHOA CHU KANG NORTH 7,619,CHOA CHU KANG NTH 7,"Error: Road retrieved. Returned address Choa Chu Kang North 7, Northwest, 681672, Singapore"
350A CANBERRA ROAD,350A,CANBERRA RD,"1.4505682000000002, 103.82063415"
242 KIM KEAT LINK,242,KIM KEAT LINK,"1.33014155, 103.85560940803256"
548 HOUGANG STREET 51,548,HOUGANG ST 51,"Error: Road retrieved. Returned address Hougang Street 51, Hougang, Northeast, 530699, Singapore"
142 BEDOK RESERVOIR ROAD,142,BEDOK RESERVOIR RD,"1.335625, 103.9132024948585"
323 BUKIT BATOK STREET 33,323,BT BATOK ST 33,"1.3616, 103.7482272"
549B SEGAR ROAD,549B,SEGAR RD,"1.38981365, 103.7677248595521"
278 CHOA CHU KANG AVENUE 3,278,CHOA CHU KANG AVE 3,"1.3800915, 103.74350320646478"
528 HOUGANG AVENUE 6,528,HOUGANG AVE 6,"Error: Road retrieved. Returned address Hougang Avenue 6, Hougang, Northeast, 538787, Singapore"
159 WOODLANDS STREET 13,159,WOODLANDS ST 13,"Error: Road retrieved. Returned address Woodlands Street 13, Woodlands, Northwest, 738623, Singapore"
155 WOODLANDS STREET 13,155,WOODLANDS ST 13,"Error: Road retrieved. Returned address Woodlands Street 13, Woodlands, Northwest, 738623, Singapore"
353 BUKIT BATOK STREET 34,353,BT BATOK ST 34,"1.36172065, 103.74984800955355"
842 WOODLANDS STREET 82,842,WOODLANDS ST 82,"1.44347175, 103.7925191124161"
54 NEW UPPER CHANGI ROAD,54,NEW UPP CHANGI RD,"1.3248408500000002, 103.94257963774743"
544 CHOA CHU KANG STREET 52,544,CHOA CHU KANG ST 52,"Error: Road retrieved. Returned address Choa Chu Kang Street 52, Northwest, 689286, Singapore"
470 JURONG WEST STREET 41,470,JURONG WEST ST 41,"1.3480558, 103.72123974445041"
55 GEYLANG BAHRU,55,GEYLANG BAHRU,"1.32406885, 103.868639562058"
298B COMPASSVALE STREET,298B,COMPASSVALE ST,"Error: Road retrieved. Returned address Compassvale Street, Seng Kang, Northeast, 540294, Singapore"
291A COMPASSVALE STREET,291A,COMPASSVALE ST,"1.39571895, 103.8977907080234"
321 TAMPINES STREET 33,321,TAMPINES ST 33,"1.3508474499999998, 103.95769711716355"
145 WOODLANDS STREET 13,145,WOODLANDS ST 13,"1.43610095, 103.77324105"
95 HAVELOCK ROAD,95,HAVELOCK RD,"Error: Not Singapore. Returned address 95, Havelock Road, Havelock, Richmond County, Virginia, 22572, United States"
376C HOUGANG STREET 32,376C,HOUGANG ST 32,"1.364147, 103.89374123331366"
466 PASIR RIS STREET 41,466,PASIR RIS ST 41,"1.3731294, 103.9581603669446"
192 BISHAN STREET 13,192,BISHAN ST 13,"1.3489737499999999, 103.85131185"
664 CHOA CHU KANG CRESCENT,664,CHOA CHU KANG CRES,"Error: Road retrieved. Returned address Choa Chu Kang Crescent, Northwest, 689097, Singapore"
407 PASIR RIS DRIVE 6,407,PASIR RIS DR 6,"1.3736403, 103.95453454686545"
415 SEMBAWANG DRIVE,415,SEMBAWANG DR,"Error: Road retrieved. Returned address Sembawang Drive, Sembawang, Northwest, 757632, Singapore"
628 PASIR RIS DRIVE 3,628,PASIR RIS DR 3,"1.37915695, 103.94128326254096"
293C COMPASSVALE CRESCENT,293C,COMPASSVALE CRES,"1.39714485, 103.89542195317567"
203 YISHUN STREET 21,203,YISHUN ST 21,"Error: Road retrieved. Returned address Yishun Street 21, Yishun, Northwest, 768610, Singapore"
96B HENDERSON ROAD,96B,HENDERSON RD,"Error: Not Singapore. Returned address 96, Henderson Road, Henderson, Webster County, Missouri, 65742, United States"
523 WOODLANDS DRIVE 14,523,WOODLANDS DR 14,"Error: Road retrieved. Returned address Woodlands Drive 14, Fragrant Woods, Woodlands, Northwest, 738079, Singapore"
742 BEDOK RESERVOIR ROAD,742,BEDOK RESERVOIR RD,"1.3378811, 103.9220469"
101 ANG MO KIO AVENUE 3,101,ANG MO KIO AVE 3,"Error: Road retrieved. Returned address Ang Mo Kio Avenue 3, Ang Mo Kio, Singapore, Central, 560564, Singapore"
77 BEDOK NORTH ROAD,77,BEDOK NTH RD,"1.328667, 103.94196030658946"
119 BEDOK NORTH ROAD,119,BEDOK NTH RD,"1.3301924, 103.93868668771022"
702 HOUGANG AVENUE 2,702,HOUGANG AVE 2,"1.3658150500000001, 103.88968873008474"
482 PASIR RIS DRIVE 4,482,PASIR RIS DR 4,"1.37379355, 103.95972645"
296 PUNGGOL CENTRAL,296,PUNGGOL CTRL,"Error: Road retrieved. Returned address Punggol Central, Punggol, Northeast, 821256, Singapore"
309D ANCHORVALE ROAD,309D,ANCHORVALE RD,"1.39076085, 103.8855710327449"
34 BEDOK SOUTH AVENUE 2,34,BEDOK STH AVE 2,"1.32203725, 103.93833085095972"
408 SIN MING AVENUE,408,SIN MING AVE,"1.3633312499999999, 103.83479825"
448 CHOA CHU KANG AVENUE 4,448,CHOA CHU KANG AVE 4,"1.38021145, 103.7373900388055"
247 COMPASSVALE ROAD,247,COMPASSVALE RD,"1.39201935, 103.8994037040664"
612 YISHUN STREET 61,612,YISHUN ST 61,"Error: Road retrieved. Returned address Yishun Street 61, Nee Soon Central Meadows, Yishun, Northwest, 768548, Singapore"
548 BEDOK NORTH AVENUE 1,548,BEDOK NTH AVE 1,"1.33129105, 103.92688264364844"
609 CHOA CHU KANG STREET 62,609,CHOA CHU KANG ST 62,"Error: Road retrieved. Returned address Choa Chu Kang Street 62, Northwest, 680627, Singapore"
546C SEGAR ROAD,546C,SEGAR RD,"1.38897975, 103.76938391305555"
237 COMPASSVALE WALK,237,COMPASSVALE WALK,"1.38988355, 103.8986011225847"
636 ANG MO KIO AVENUE 6,636,ANG MO KIO AVE 6,"Error: Road retrieved. Returned address Ang Mo Kio Avenue 6, Ang Mo Kio, Singapore, Central, 569845, Singapore"
485D CHOA CHU KANG AVENUE 5,485D,CHOA CHU KANG AVE 5,"1.37527385, 103.7388052214743"
430 HOUGANG AVENUE 6,430,HOUGANG AVE 6,"1.37548725, 103.89342297520798"
3B UPPER BOON KENG ROAD,3B,UPP BOON KENG RD,"1.3141841, 103.87266914096517"
243 SIMEI STREET 5,243,SIMEI ST 5,"Error: Road retrieved. Returned address Simei Street 5, Simei, Southeast, 520120, Singapore"
48 BENDEMEER ROAD,48,BENDEMEER RD,"1.3232788, 103.86633637287491"
682 HOUGANG AVENUE 4,682,HOUGANG AVE 4,"1.3744432, 103.8856498"
268D COMPASSVALE LINK,268D,COMPASSVALE LINK,"1.3850022000000002, 103.89586143526071"
219 PETIR ROAD,219,PETIR RD,"1.3742382, 103.77263578140779"
235 LORONG 8 TOA PAYOH,235,LOR 8 TOA PAYOH,"Error: Road retrieved. Returned address Lorong 8 Toa Payoh, Toa Payoh, Singapore, Central, 310229, Singapore"
163C RIVERVALE CRESCENT,163C,RIVERVALE CRES,"1.38963875, 103.90814951532002"
433 BUKIT PANJANG RING ROAD,433,BT PANJANG RING RD,"Error: Road retrieved. Returned address Bukit Panjang Ring Road, Bukit Panjang, Northwest, 679910, Singapore"
808A CHOA CHU KANG AVENUE 1,808A,CHOA CHU KANG AVE 1,"Error: Road retrieved. Returned address Choa Chu Kang Avenue 1, Choa Chu Kang, Southwest, 682296, Singapore"
155 ANG MO KIO AVENUE 4,155,ANG MO KIO AVE 4,"1.37586315, 103.84009975237961"
155 BISHAN STREET 13,155,BISHAN ST 13,"1.34618195, 103.85604697260504"
4 SAGO LANE,4,SAGO LANE,"1.28177045, 103.84289443441727"
415 CHOA CHU KANG AVENUE 4,415,CHOA CHU KANG AVE 4,"1.38274665, 103.74248645619367"
724 CLEMENTI WEST STREET 2,724,CLEMENTI WEST ST 2,"1.30359005, 103.76339495099872"
588B MONTREAL DRIVE,588B,MONTREAL DR,"1.4503960999999999, 103.82516789835104"
306 TAMPINES STREET 32,306,TAMPINES ST 32,"1.35307945, 103.95594471052101"
943 TAMPINES AVENUE 5,943,TAMPINES AVE 5,"1.3502778, 103.94119688340358"
570A WOODLANDS AVENUE 1,570A,WOODLANDS AVE 1,"1.43061935, 103.79088304999999"
618 WOODLANDS AVENUE 4,618,WOODLANDS AVE 4,"Error: Road retrieved. Returned address Woodlands Avenue 4, Woodlands, Northwest, 738908, Singapore"
861 YISHUN AVENUE 4,861,YISHUN AVE 4,"1.4173973000000002, 103.8395806"
718 YISHUN STREET 71,718,YISHUN ST 71,"1.4266274, 103.82834547888623"
123 SERANGOON NORTH AVENUE 1,123,SERANGOON NTH AVE 1,"1.3668957000000002, 103.87230045"
518D TAMPINES CENTRAL 7,518D,TAMPINES CTRL 7,"1.3563672, 103.93928669819587"
792 YISHUN RING ROAD,792,YISHUN RING RD,"1.42057595, 103.83240578746648"
127 PASIR RIS STREET 11,127,PASIR RIS ST 11,"1.3658483, 103.95537736269596"
213A PUNGGOL WALK,213A,PUNGGOL WALK,"1.40028945, 103.8983544869873"
707 TAMPINES STREET 71,707,TAMPINES ST 71,"1.3575388, 103.9365769168504"
333D YISHUN STREET 31,333D,YISHUN ST 31,"1.4320899, 103.84613076082046"
21 JALAN MEMBINA,21,JLN MEMBINA,"1.2850719000000002, 103.8258053040349"
11 FARRER PARK ROAD,11,FARRER PK RD,"1.3123539499999999, 103.85205164813605"
172 ANG MO KIO AVENUE 4,172,ANG MO KIO AVE 4,"Error: Road retrieved. Returned address Ang Mo Kio Avenue 4, Ang Mo Kio, Singapore, Central, 568987, Singapore"
660 JALAN TENAGA,660,JLN TENAGA,"1.3343047499999998, 103.9068947703856"
254 BISHAN STREET 22,254,BISHAN ST 22,"1.3619189999999999, 103.84285501047592"
864 TAMPINES STREET 83,864,TAMPINES ST 83,"1.35505195, 103.93572027058308"
871 TAMPINES STREET 84,871,TAMPINES ST 84,"1.3544146, 103.932649473943"
539 WOODLANDS DRIVE 16,539,WOODLANDS DR 16,"Error: Road retrieved. Returned address Woodlands Drive 16, Woodlands, Northwest, 730548, Singapore"
168A SIMEI LANE,168A,SIMEI LANE,"1.342757, 103.95889733979325"
330 UBI AVENUE 1,330,UBI AVE 1,"1.3264445, 103.90393040378898"
336 HOUGANG AVENUE 7,336,HOUGANG AVE 7,"Error: Road retrieved. Returned address Hougang Avenue 7, Hougang, Northeast, 530336, Singapore"
113 LORONG 1 TOA PAYOH,113,LOR 1 TOA PAYOH,"Error: Road retrieved. Returned address Lorong 1 Toa Payoh, Toa Payoh, Singapore, Central, 311139, Singapore"
251 BISHAN STREET 22,251,BISHAN ST 22,"1.3618263499999999, 103.8442928237037"
54 LENGKOK BAHRU,54,LENGKOK BAHRU,"1.2890892, 103.81372377706106"
107 WOODLANDS STREET 13,107,WOODLANDS ST 13,"Error: Road retrieved. Returned address Woodlands Street 13, Woodlands, Northwest, 738623, Singapore"
205 YISHUN STREET 21,205,YISHUN ST 21,"Error: Road retrieved. Returned address Yishun Street 21, Yishun, Northwest, 768610, Singapore"
501B WELLINGTON CIRCLE,501B,WELLINGTON CIRCLE,"1.45216775, 103.82125447601146"
191A RIVERVALE DRIVE,191A,RIVERVALE DR,"1.393735, 103.90352427012083"
495A TAMPINES STREET 43,495A,TAMPINES ST 43,"1.36259315, 103.95091755589988"
226 ANG MO KIO AVENUE 1,226,ANG MO KIO AVE 1,"Error: Road retrieved. Returned address Ang Mo Kio Avenue 1, Ang Mo Kio, Singapore, Central, 563226, Singapore"
6 EVERTON PARK,6,EVERTON PK,"Error: Block retrieved. Returned address 6, Everton Road, Everton Park, Bukit Merah, Singapore, Central, 080006, Singapore"
40 CIRCUIT ROAD,40,CIRCUIT RD,"1.3276782, 103.88629999941753"
774 WOODLANDS CRESCENT,774,WOODLANDS CRES,"Error: Road retrieved. Returned address Woodlands Crescent, Woodlands, Northwest, 733783, Singapore"
515 HOUGANG AVENUE 10,515,HOUGANG AVE 10,"1.3724033, 103.88904685028234"
475C UPPER SERANGOON CRESCENT,475C,UPP SERANGOON CRES,"1.3753185499999998, 103.89999311467625"
45 MARINE CRESCENT,45,MARINE CRES,"1.3045562, 103.91246776295546"
526B PASIR RIS STREET 51,526B,PASIR RIS ST 51,"1.3679042, 103.94721915576855"
336D ANCHORVALE CRESCENT,336D,ANCHORVALE CRES,"1.3977898, 103.88824375692695"
272D SENGKANG CENTRAL,272D,SENGKANG CTRL,"1.3838765, 103.8935921096603"
149 MEI LING STREET,149,MEI LING ST,"1.29486925, 103.8049261955866"
271C SENGKANG CENTRAL,271C,SENGKANG CTRL,"1.3850562, 103.89449643063017"
683A WOODLANDS DRIVE 62,683A,WOODLANDS DR 62,"Error: Road retrieved. Returned address Woodlands Drive 62, Woodlands, Northwest, 737942, Singapore"
754 PASIR RIS STREET 71,754,PASIR RIS ST 71,"1.3773436000000001, 103.93421763233499"
637A PUNGGOL DRIVE,637A,PUNGGOL DR,"1.3997296000000001, 103.9146054673839"
927 YISHUN CENTRAL 1,927,YISHUN CTRL 1,"1.4277672, 103.83763976454703"
238 YISHUN RING ROAD,238,YISHUN RING RD,"1.43328335, 103.83931682946954"
712 CLEMENTI WEST STREET 2,712,CLEMENTI WEST ST 2,"1.30496565, 103.76188236059525"
741 PASIR RIS STREET 71,741,PASIR RIS ST 71,"1.37764995, 103.93651090925701"
286 TAMPINES STREET 22,286,TAMPINES ST 22,"1.34955185, 103.95294107440935"
384 TAMPINES STREET 32,384,TAMPINES ST 32,"1.3542307, 103.95793085975316"
458 HOUGANG AVENUE 10,458,HOUGANG AVE 10,"1.3777984, 103.8963021"
513 HOUGANG AVENUE 10,513,HOUGANG AVE 10,"Error: Road retrieved. Returned address Hougang Avenue 10, Hougang, Northeast, 538766, Singapore"
287C JURONG EAST STREET 21,287C,JURONG EAST ST 21,"1.337998, 103.74499410415032"
766 PASIR RIS STREET 71,766,PASIR RIS ST 71,"1.3759729, 103.9360558520654"
690E WOODLANDS DRIVE 75,690E,WOODLANDS DR 75,NONE
725 PASIR RIS STREET 72,725,PASIR RIS ST 72,"1.3813191, 103.93567913581788"
105 TAMPINES STREET 11,105,TAMPINES ST 11,"1.3479955000000001, 103.94717757200927"
708 WOODLANDS DRIVE 70,708,WOODLANDS DR 70,"Error: Road retrieved. Returned address Woodlands Drive 70, Woodlands, Northwest, 730676, Singapore"
418 SERANGOON CENTRAL,418,SERANGOON CTRL,"1.3496877, 103.8752430009876"
464 JURONG WEST STREET 41,464,JURONG WEST ST 41,"Error: Road retrieved. Returned address Jurong West Street 41, Jurong West, Southwest, 640478, Singapore"
436 HOUGANG AVENUE 8,436,HOUGANG AVE 8,"1.3772086, 103.89382112173085"
442 ANG MO KIO AVENUE 10,442,ANG MO KIO AVE 10,"Error: Road retrieved. Returned address Ang Mo Kio Avenue 10, Ang Mo Kio, Singapore, Central, 560449, Singapore"
407 BEDOK NORTH AVENUE 3,407,BEDOK NTH AVE 3,"1.32844535, 103.93371655718016"
336 BUKIT BATOK STREET 32,336,BT BATOK ST 32,"1.3645094000000002, 103.74855972428519"
11 EUNOS CRESCENT,11,EUNOS CRES,"1.32181425, 103.90445540754678"
477B UPPER SERANGOON VIEW,477B,UPP SERANGOON VIEW,"Error: Road retrieved. Returned address Upper Serangoon View, Hougang, Northeast, 530476, Singapore"
937 HOUGANG STREET 92,937,HOUGANG ST 92,"Error: Road retrieved. Returned address Hougang Street 92, Hougang, Northeast, 530943, Singapore"
903 JURONG WEST STREET 91,903,JURONG WEST ST 91,"1.3397215999999998, 103.68608176274365"
326C ANCHORVALE ROAD,326C,ANCHORVALE RD,"1.3957604, 103.8882269"
887A WOODLANDS DRIVE 50,887A,WOODLANDS DR 50,"1.4373033, 103.79397080064176"
223 BISHAN STREET 23,223,BISHAN ST 23,"1.3584372, 103.84830756862081"
16 HOUGANG AVENUE 3,16,HOUGANG AVE 3,"Error: Road retrieved. Returned address Hougang Avenue 3, Hougang, Northeast, 534412, Singapore"
990A JURONG WEST STREET 93,990A,JURONG WEST ST 93,"1.3352632, 103.69511410909092"
551 WOODLANDS DRIVE 44,551,WOODLANDS DR 44,"Error: Road retrieved. Returned address Woodlands Drive 44, Vista Point, Woodlands, Northwest, 730548, Singapore"
879 YISHUN STREET 81,879,YISHUN ST 81,"1.41444155, 103.83611210000001"
639 ANG MO KIO AVENUE 6,639,ANG MO KIO AVE 6,"Error: Road retrieved. Returned address Ang Mo Kio Avenue 6, Ang Mo Kio, Singapore, Central, 569845, Singapore"
19 JALAN MEMBINA,19,JLN MEMBINA,"1.285634, 103.8260893"
1 TECK WHYE AVENUE,1,TECK WHYE AVE,"1.3825069, 103.7517128945515"
152 JALAN TECK WHYE,152,JLN TECK WHYE,"1.3789943500000001, 103.7582134623992"
319 SERANGOON AVENUE 2,319,SERANGOON AVE 2,"1.3525743000000001, 103.86811868277891"
456 TAMPINES STREET 42,456,TAMPINES ST 42,"1.35761135, 103.95456465000001"
453 CHOA CHU KANG AVENUE 4,453,CHOA CHU KANG AVE 4,"1.3799865, 103.73513104536396"
219 ANG MO KIO AVENUE 1,219,ANG MO KIO AVE 1,"1.3659481, 103.84064493727124"
223 ANG MO KIO AVENUE 1,223,ANG MO KIO AVE 1,"Error: Road retrieved. Returned address Ang Mo Kio Avenue 1, Ang Mo Kio, Singapore, Central, 560218, Singapore"
46 LORONG 5 TOA PAYOH,46,LOR 5 TOA PAYOH,"1.3363941, 103.8535184"
213 BISHAN STREET 23,213,BISHAN ST 23,"1.3572416, 103.84801521237873"
507 JURONG WEST STREET 52,507,JURONG WEST ST 52,"1.3489854, 103.7184351"
862 JURONG WEST STREET 81,862,JURONG WEST ST 81,"1.3500274, 103.69692830188964"
150 BISHAN STREET 11,150,BISHAN ST 11,"1.3446847499999999, 103.85538185304591"
120A KIM TIAN PLACE,120A,KIM TIAN PL,"Error: Not Singapore. Returned address KIM, Łagiewnicka, Tarnogaj, Osiedle Tarnogaj, Wrocław, województwo dolnośląskie, 50-511, Polska"
443 CHOA CHU KANG AVENUE 4,443,CHOA CHU KANG AVE 4,"1.3812934000000001, 103.73757290562173"
207 BOON LAY PLACE,207,BOON LAY PL,"1.3465840500000001, 103.71359194237051"
406A FERNVALE ROAD,406A,FERNVALE RD,"1.38808855, 103.87425818091575"
522B TAMPINES CENTRAL 7,522B,TAMPINES CTRL 7,"1.35785365, 103.93884363212945"
778 WOODLANDS DRIVE 60,778,WOODLANDS DR 60,"1.4473932999999999, 103.79979241942377"
640 WOODLANDS RING ROAD,640,WOODLANDS RING RD,"Error: Road retrieved. Returned address Woodlands Ring Road, Woodlands, Northwest, 737890, Singapore"
664 WOODLANDS RING ROAD,664,WOODLANDS RING RD,"1.4360802, 103.79782083465705"
348D YISHUN AVENUE 11,348D,YISHUN AVE 11,"1.42708575, 103.84278783203125"
335A YISHUN STREET 31,335A,YISHUN ST 31,"1.4332885499999999, 103.84450398116765"
709 HOUGANG AVENUE 2,709,HOUGANG AVE 2,"1.36695005, 103.88841819000467"
956 HOUGANG STREET 91,956,HOUGANG ST 91,"1.3766014, 103.87885942867709"
539 JURONG WEST AVENUE 1,539,JURONG WEST AVE 1,"1.3508928, 103.71642701612802"
660D JURONG WEST STREET 64,660D,JURONG WEST ST 64,"1.33647555, 103.7034723"
180 PASIR RIS STREET 11,180,PASIR RIS ST 11,"1.36416855, 103.960474247167"
517 PASIR RIS STREET 52,517,PASIR RIS ST 52,"1.3745443, 103.94407120179696"
586 ANG MO KIO AVENUE 3,586,ANG MO KIO AVE 3,"Error: Road retrieved. Returned address Ang Mo Kio Avenue 3, Ang Mo Kio, Singapore, Central, 560564, Singapore"
605 ANG MO KIO AVENUE 5,605,ANG MO KIO AVE 5,"Error: Block retrieved. Returned address 605, Ang Mo Kio Ave 5, Ang Mo Kio Avenue 5, Ang Mo Kio, Singapore, Central, 569948, Singapore"
513 BEDOK NORTH AVENUE 2,513,BEDOK NTH AVE 2,"1.3329184500000002, 103.92918156774462"
127 BUKIT BATOK WEST AVENUE 6,127,BT BATOK WEST AVE 6,"Error: Road retrieved. Returned address Bukit Batok West Avenue 6, Bukit Batok, Southwest, 650133, Singapore"
9 JALAN BATU,9,JLN BATU,"Error: Not Singapore. Returned address Jalan Batu, RW 09, Srengseng Sawah, Jagakarsa, Jakarta Selatan, Daerah Khusus Ibukota Jakarta, 12640, Indonesia"
128D PUNGGOL FIELD WALK,128D,PUNGGOL FIELD WALK,"Error: Road retrieved. Returned address Punggol Field Walk, Punggol, Northeast, 828750, Singapore"
430D FERNVALE LINK,430D,FERNVALE LINK,"Error: Road retrieved. Returned address Fernvale Link, Fernvale, Central, 790470, Singapore"
246 SERANGOON AVENUE 3,246,SERANGOON AVE 3,"1.3520851, 103.86982725885738"
738 TAMPINES STREET 72,738,TAMPINES ST 72,"1.35906595, 103.93359979902928"
572B WOODLANDS AVENUE 1,572B,WOODLANDS AVE 1,"1.43147925, 103.78955721534854"
686B WOODLANDS DRIVE 73,686B,WOODLANDS DR 73,"Error: Road retrieved. Returned address Woodlands Drive 73, Woodlands, Northwest, 737942, Singapore"
756 CHOA CHU KANG NORTH 5,756,CHOA CHU KANG NTH 5,"Error: Road retrieved. Returned address Choa Chu Kang North 5, Northwest, 680533, Singapore"
544 ANG MO KIO AVENUE 10,544,ANG MO KIO AVE 10,"Error: Road retrieved. Returned address Ang Mo Kio Avenue 10, Ang Mo Kio, Singapore, Central, 560449, Singapore"
768 BEDOK RESERVOIR VIEW,768,BEDOK RESERVOIR VIEW,"1.3356675500000001, 103.937330142789"
562 PASIR RIS STREET 51,562,PASIR RIS ST 51,"1.367504, 103.95010799646583"
50 LORONG 5 TOA PAYOH,50,LOR 5 TOA PAYOH,"1.33713415, 103.85259226670964"
171 BEDOK SOUTH ROAD,171,BEDOK STH RD,"1.3208493, 103.94537260963045"
104 LENGKONG TIGA,104,LENGKONG TIGA,"1.3257831, 103.90975001517054"
104 ALJUNIED CRESCENT,104,ALJUNIED CRES,"1.3200682, 103.88282889999999"
26 GHIM MOH LINK,26,GHIM MOH LINK,"1.3083094499999999, 103.78573955548268"
314 SEMBAWANG DRIVE,314,SEMBAWANG DR,"1.44370015, 103.821378743651"
219 LORONG 8 TOA PAYOH,219,LOR 8 TOA PAYOH,"Error: Road retrieved. Returned address Lorong 8 Toa Payoh, Toa Payoh, Singapore, Central, 310229, Singapore"
312 YISHUN RING ROAD,312,YISHUN RING RD,"1.43162795, 103.84130065"
425 CHOA CHU KANG AVENUE 4,425,CHOA CHU KANG AVE 4,"1.38105755, 103.7393752602161"
229 COMPASSVALE WALK,229,COMPASSVALE WALK,"1.3887232, 103.900736680875"
139 SIMEI STREET 1,139,SIMEI ST 1,"1.34687075, 103.95645906230854"
802 WOODLANDS STREET 81,802,WOODLANDS ST 81,"Error: Road retrieved. Returned address Woodlands St 81, Woodlands, Northwest, 738525, Singapore"
915 TAMPINES STREET 91,915,TAMPINES ST 91,"1.34859895, 103.93956141915106"
681B JURONG WEST CENTRAL 1,681B,JURONG WEST CTRL 1,"1.3448048, 103.70495818196028"
618C PUNGGOL DRIVE,618C,PUNGGOL DR,"1.4016578499999999, 103.91184046246978"
697A JURONG WEST CENTRAL 3,697A,JURONG WEST CTRL 3,"1.34112455, 103.7084721891355"
427 SERANGOON CENTRAL,427,SERANGOON CTRL,"1.3479443999999998, 103.87503934985878"
654 HOUGANG AVENUE 8,654,HOUGANG AVE 8,"Error: Road retrieved. Returned address Hougang Avenue 8, Hougang, Northeast, 530631, Singapore"
262 BUKIT BATOK EAST AVENUE 4,262,BT BATOK EAST AVE 4,"1.3505854, 103.75893240148369"
97 JALAN DUA,97,JLN DUA,"1.30894975, 103.88839554071109"
509 BEDOK NORTH STREET 3,509,BEDOK NTH ST 3,"1.3337835, 103.9308648"
50 CIRCUIT ROAD,50,CIRCUIT RD,"1.3248897, 103.88550863385416"
55 HAVELOCK ROAD,55,HAVELOCK RD,"Error: Not Singapore. Returned address 55, Havelock Road, Havelock, Richmond County, Virginia, 22572, United States"
451 CHOA CHU KANG AVENUE 4,451,CHOA CHU KANG AVE 4,"1.38006135, 103.73565884048257"
126 ALJUNIED ROAD,126,ALJUNIED RD,"1.3236048999999999, 103.88220048517502"
174A HOUGANG AVENUE 1,174A,HOUGANG AVE 1,"Error: Block retrieved. Returned address 174A, Hougang Ave 1, Hougang, Southeast, 530129, Singapore"
665A PUNGGOL DRIVE,665A,PUNGGOL DR,"1.40212915, 103.9138642149625"
324C SENGKANG EAST WAY,324C,SENGKANG EAST WAY,"1.3925344499999999, 103.89175944323748"
813 TAMPINES STREET 81,813,TAMPINES ST 81,"1.3469342499999999, 103.93647051345187"
228 TAMPINES STREET 23,228,TAMPINES ST 23,"1.3556161000000002, 103.95462156295982"
582 WOODLANDS DRIVE 16,582,WOODLANDS DR 16,"1.4303114, 103.79576952818107"
426D YISHUN AVENUE 11,426D,YISHUN AVE 11,"1.42312115, 103.84727492813002"
617 ANG MO KIO AVENUE 4,617,ANG MO KIO AVE 4,"Error: Road retrieved. Returned address Ang Mo Kio Avenue 4, Ang Mo Kio, Singapore, Central, 568987, Singapore"
31 EUNOS CRESCENT,31,EUNOS CRES,"1.32056745, 103.90183239378375"
712 HOUGANG AVENUE 2,712,HOUGANG AVE 2,"Error: Road retrieved. Returned address Hougang Avenue 2, Hougang, Northeast, 530631, Singapore"
208B PUNGGOL PLACE,208B,PUNGGOL PL,"1.4014628, 103.90111699295167"
13 MARSILING LANE,13,MARSILING LANE,"1.4411059, 103.77928035"
415 WOODLANDS STREET 41,415,WOODLANDS ST 41,"1.4279007, 103.77401221108758"
716 YISHUN STREET 71,716,YISHUN ST 71,"1.4263979, 103.82774144707196"
519D TAMPINES CENTRAL 8,519D,TAMPINES CTRL 8,"1.3561960499999999, 103.93959447493279"
164 GANGSA ROAD,164,GANGSA RD,"Error: Road retrieved. Returned address Gangsa Road, Bukit Panjang, Northwest, 679002, Singapore"
14 TOH YI DRIVE,14,TOH YI DR,"Error: Road retrieved. Returned address Toh Yi Drive, Southwest, 596569, Singapore"
273 TAMPINES STREET 22,273,TAMPINES ST 22,"1.3486395, 103.95043575"
285 TAMPINES STREET 22,285,TAMPINES ST 22,"1.34960715, 103.95234874184308"
58 CHAI CHEE DRIVE,58,CHAI CHEE DR,"Error: Road retrieved. Returned address Chai Chee Drive, Bedok, Southeast, 460058, Singapore"
480 SEGAR ROAD,480,SEGAR RD,"Error: Road retrieved. Returned address Segar Road, Bukit Panjang, Northwest, 677738, Singapore"
660A JURONG WEST STREET 64,660A,JURONG WEST ST 64,"1.3357835, 103.70426359074568"
406 PASIR RIS DRIVE 6,406,PASIR RIS DR 6,"1.37379075, 103.95542185"
664B PUNGGOL DRIVE,664B,PUNGGOL DR,"Error: Road retrieved. Returned address Punggol Drive, Punggol, Northeast, 821665, Singapore"
48 LORONG 5 TOA PAYOH,48,LOR 5 TOA PAYOH,"1.33719045, 103.85367472039763"
894B WOODLANDS DRIVE 50,894B,WOODLANDS DR 50,"Error: Road retrieved. Returned address Woodlands Drive 50, Woodlands, Northwest, 738853, Singapore"
449 SIN MING AVENUE,449,SIN MING AVE,"Error: Road retrieved. Returned address Sin Ming Avenue, Bishan, Singapore, Central, 579646, Singapore"
426 CHOA CHU KANG AVENUE 4,426,CHOA CHU KANG AVE 4,"1.3806656, 103.73904397647921"
249 HOUGANG AVENUE 3,249,HOUGANG AVE 3,"Error: Road retrieved. Returned address Hougang Avenue 3, Hougang, Northeast, 534412, Singapore"
38D BENDEMEER ROAD,38D,BENDEMEER RD,"1.3217345, 103.86689187642276"
538 PASIR RIS STREET 51,538,PASIR RIS ST 51,"1.36952835, 103.9502732925944"
618A PUNGGOL DRIVE,618A,PUNGGOL DR,"1.4012003499999999, 103.91249924886961"
347B YISHUN AVENUE 11,347B,YISHUN AVE 11,"1.427695, 103.84219012492917"
850 JURONG WEST STREET 81,850,JURONG WEST ST 81,"1.346324, 103.69188671959526"
23 SAINT GEORGE'S ROAD,23,ST. GEORGE'S RD,"1.3249502, 103.86315590847647"
275D COMPASSVALE LINK,275D,COMPASSVALE LINK,"1.3827943999999999, 103.89394600670937"
311 YISHUN RING ROAD,311,YISHUN RING RD,"1.4313847499999999, 103.84107044999999"
288C JURONG EAST STREET 21,288C,JURONG EAST ST 21,"1.33952525, 103.7434924244763"
360 TAMPINES STREET 34,360,TAMPINES ST 34,"1.3555777, 103.96225917017185"
137 POTONG PASIR AVENUE 3,137,POTONG PASIR AVE 3,"1.33377475, 103.86622356389049"
287D JURONG EAST STREET 21,287D,JURONG EAST ST 21,"1.3378564499999999, 103.7441196416888"
428 BUKIT PANJANG RING ROAD,428,BT PANJANG RING RD,"Error: Road retrieved. Returned address Bukit Panjang Ring Road, Bukit Panjang, Northwest, 679910, Singapore"
911 JURONG WEST STREET 91,911,JURONG WEST ST 91,"1.3417329, 103.68684009337275"
578 ANG MO KIO AVENUE 10,578,ANG MO KIO AVE 10,"Error: Road retrieved. Returned address Ang Mo Kio Avenue 10, Ang Mo Kio, Singapore, Central, 560449, Singapore"
525 BEDOK NORTH STREET 3,525,BEDOK NTH ST 3,"1.33472795, 103.92892431436249"
236 JURONG EAST STREET 21,236,JURONG EAST ST 21,"1.34047495, 103.74206188303789"
268B COMPASSVALE LINK,268B,COMPASSVALE LINK,"Error: Road retrieved. Returned address Compassvale Link, Seng Kang, Northeast, 541275, Singapore"
446B JALAN KAYU,446B,JLN KAYU,"1.39176705, 103.8733387599992"
325C SENGKANG EAST WAY,325C,SENGKANG EAST WAY,"1.3931795999999999, 103.89153984810187"
811 TAMPINES AVENUE 4,811,TAMPINES AVE 4,"1.3465668, 103.93731769780074"
886C WOODLANDS DRIVE 50,886C,WOODLANDS DR 50,"1.43786025, 103.7941753931864"
28 HOY FATT ROAD,28,HOY FATT RD,"1.2869466, 103.8102072"
6 TECK WHYE AVENUE,6,TECK WHYE AVE,"1.3816576500000002, 103.75356092345962"
432 CLEMENTI AVENUE 3,432,CLEMENTI AVE 3,"1.3140344, 103.7625606"
943 JURONG WEST STREET 91,943,JURONG WEST ST 91,"1.3438455, 103.68969487510094"
344 ANG MO KIO AVENUE 3,344,ANG MO KIO AVE 3,"Error: Road retrieved. Returned address Ang Mo Kio Avenue 3, Ang Mo Kio, Singapore, Central, 560564, Singapore"
107 ALJUNIED CRESCENT,107,ALJUNIED CRES,"1.31895345, 103.8843304879936"
830 JURONG WEST STREET 81,830,JURONG WEST ST 81,"1.34535975, 103.69344801407956"
265B PUNGGOL WAY,265B,PUNGGOL WAY,"Error: Road retrieved. Returned address Punggol Way, Punggol, Northeast, 820221, Singapore"
279B SENGKANG EAST AVENUE,279B,SENGKANG EAST AVE,"1.3854370500000002, 103.8928149"
289B PUNGGOL PLACE,289B,PUNGGOL PL,"Error: Road retrieved. Returned address Punggol Place, Punggol, Northeast, 828845, Singapore"
20 CHAI CHEE ROAD,20,CHAI CHEE RD,"1.3260784, 103.92309944569587"
251 JURONG EAST STREET 24,251,JURONG EAST ST 24,"1.3430193, 103.7393770196602"
316A ANG MO KIO STREET 31,316A,ANG MO KIO ST 31,"1.36462145, 103.84708026701608"
557 CHOA CHU KANG NORTH 6,557,CHOA CHU KANG NTH 6,"Error: Road retrieved. Returned address Choa Chu Kang North 6, Northwest, 689579, Singapore"
431 HOUGANG AVENUE 6,431,HOUGANG AVE 6,"1.3756528000000001, 103.89308295000001"
273 PASIR RIS STREET 21,273,PASIR RIS ST 21,"Error: Road retrieved. Returned address Pasir Ris Street 21, Pasir Ris, Northeast, 510234, Singapore"
230 TAMPINES STREET 24,230,TAMPINES ST 24,"1.35590515, 103.95309638338213"
6 MARSILING DRIVE,6,MARSILING DR,"1.4420229, 103.7763005413652"
788E WOODLANDS CRESCENT,788E,WOODLANDS CRES,"1.44441875, 103.80226843148341"
184 BISHAN STREET 13,184,BISHAN ST 13,"1.3500771999999999, 103.85254557960533"
130 KIM TIAN ROAD,130,KIM TIAN RD,"1.2803229, 103.82927305"
518A TAMPINES CENTRAL 7,518A,TAMPINES CTRL 7,"1.3563691, 103.93838392508866"
173 BISHAN STREET 13,173,BISHAN ST 13,"1.3477416999999998, 103.85427330407771"
744 PASIR RIS STREET 71,744,PASIR RIS ST 71,"1.37757035, 103.93510282222185"
113 COMMONWEALTH CRESCENT,113,C'WEALTH CRES,"1.30670155, 103.79802275"
13 TECK WHYE LANE,13,TECK WHYE LANE,"1.3789308999999998, 103.75583101876923"
250 KIM KEAT LINK,250,KIM KEAT LINK,"1.33185625, 103.85654828026983"
609 HOUGANG AVENUE 8,609,HOUGANG AVE 8,"Error: Road retrieved. Returned address Hougang Avenue 8, Hougang, Northeast, 530631, Singapore"
560 ANG MO KIO AVENUE 10,560,ANG MO KIO AVE 10,"Error: Road retrieved. Returned address Ang Mo Kio Avenue 10, Ang Mo Kio, Singapore, Central, 560449, Singapore"
625 BUKIT BATOK CENTRAL,625,BT BATOK CTRL,"1.35149965, 103.74876166335753"
538 UPPER CROSS STREET,538,UPP CROSS ST,"1.2852438, 103.84569983962999"
111 TECK WHYE LANE,111,TECK WHYE LANE,"1.37784285, 103.75209259636424"
205 CHOA CHU KANG CENTRAL,205,CHOA CHU KANG CTRL,"1.3809075499999999, 103.74854510968461"
64 MARINE DRIVE,64,MARINE DR,"1.30202595, 103.90930822814599"
50 STRATHMORE AVENUE,50,STRATHMORE AVE,"Error: Not Singapore. Returned address 50, Strathmore Avenue, Buffalo, Erie County, New York, 14220, United States"
167A SIMEI LANE,167A,SIMEI LANE,"1.34354365, 103.95930910893674"
318C YISHUN AVENUE 9,318C,YISHUN AVE 9,"Error: Road retrieved. Returned address Yishun Avenue 9, Yishun, Northwest, 760246, Singapore"
607 CLEMENTI WEST STREET 1,607,CLEMENTI WEST ST 1,"1.30421425, 103.76791367626868"
34 CHAI CHEE AVENUE,34,CHAI CHEE AVE,"Error: Road retrieved. Returned address Chai Chee Avenue, Ansar Garden, Bedok, Southeast, 461029, Singapore"
502 JELAPANG ROAD,502,JELAPANG RD,"Error: Road retrieved. Returned address Jelapang Road, Bukit Panjang, Northwest, 671524, Singapore"
535 JURONG WEST STREET 52,535,JURONG WEST ST 52,"1.34947165, 103.71715913151544"
248 COMPASSVALE ROAD,248,COMPASSVALE RD,"1.3921219, 103.89845553644068"
299C COMPASSVALE STREET,299C,COMPASSVALE ST,"Error: Road retrieved. Returned address Compassvale Street, Seng Kang, Northeast, 540294, Singapore"
37 CHAI CHEE AVENUE,37,CHAI CHEE AVE,"Error: Road retrieved. Returned address Chai Chee Avenue, Ansar Garden, Bedok, Southeast, 461029, Singapore"
142 BUKIT BATOK STREET 11,142,BT BATOK ST 11,"1.34992715, 103.7430371961141"
623 SENJA ROAD,623,SENJA RD,"Error: Road retrieved. Returned address Senja Road, Bukit Panjang, Northwest, 677741, Singapore"
180B BOON LAY DRIVE,180B,BOON LAY DR,"1.3479392, 103.70918325895548"
225C COMPASSVALE WALK,225C,COMPASSVALE WALK,"1.3884988, 103.89887952012779"
862 TAMPINES STREET 83,862,TAMPINES ST 83,"1.3546646, 103.93650205748557"
47 LORONG 6 TOA PAYOH,47,LOR 6 TOA PAYOH,"1.3368609, 103.8538613"
12C MARSILING LANE,12C,MARSILING LANE,"1.4410896000000002, 103.77780775"
109 BUKIT BATOK WEST AVENUE 6,109,BT BATOK WEST AVE 6,"1.346952, 103.74624201742373"
688A CHOA CHU KANG DRIVE,688A,CHOA CHU KANG DR,"1.4039974000000002, 103.75061442706107"
246 SIMEI STREET 5,246,SIMEI ST 5,"Error: Road retrieved. Returned address Simei Street 5, Simei, Southeast, 520120, Singapore"
104A ANG MO KIO STREET 11,104A,ANG MO KIO ST 11,"1.3715978999999998, 103.83918212563815"
72 BEDOK SOUTH AVENUE 3,72,BEDOK STH AVE 3,"1.32035945, 103.94366090677238"
926 HOUGANG STREET 91,926,HOUGANG ST 91,"1.3761769, 103.88096238670641"
147 MEI LING STREET,147,MEI LING ST,"1.2944536, 103.8050562081109"
681C WOODLANDS DRIVE 62,681C,WOODLANDS DR 62,"Error: Road retrieved. Returned address Woodlands Drive 62, Woodlands, Northwest, 737942, Singapore"
616 ANG MO KIO AVENUE 4,616,ANG MO KIO AVE 4,"Error: Block retrieved. Returned address 616 / 615, Ang Mo Kio Avenue 4, Ang Mo Kio, Singapore, Central, 560616, Singapore"
335B SMITH STREET,335B,SMITH ST,"Error: Not Singapore. Returned address 335, Smith Street, Plainview, Hale County, Texas, 79072, United States"
