address,block,street_name,lat_long
667C JURONG WEST STREET 65,667C,JURONG WEST ST 65,"1.34128815, 103.7024705726702"
294A COMPASSVALE CRESCENT,294A,COMPASSVALE CRES,"1.3960702, 103.89576448685301"
13 LORONG 7 TOA PAYOH,13,LOR 7 TOA PAYOH,"1.3364868, 103.8588206072868"
334 KANG CHING ROAD,334,KANG CHING RD,"1.3392138, 103.72270979148783"
86 BEDOK NORTH STREET 4,86,BEDOK NTH ST 4,"Error: Road retrieved. Returned address Bedok North Street 4, Bedok, Southeast, 460097, Singapore"
132 GEYLANG EAST AVENUE 1,132,GEYLANG EAST AVE 1,"1.31637345, 103.88594620170632"
128A PUNGGOL FIELD WALK,128A,PUNGGOL FIELD WALK,"Error: Road retrieved. Returned address Punggol Field Walk, Punggol, Northeast, 828750, Singapore"
356B ADMIRALTY DRIVE,356B,ADMIRALTY DR,"Error: Not Singapore. Returned address Admiralty Drive, Sunset Beach, Huntington Beach, Orange County, California, 92649, United States"
450B SENGKANG WEST WAY,450B,SENGKANG WEST WAY,"1.3940498, 103.87333817017384"
309C ANCHORVALE ROAD,309C,ANCHORVALE RD,"1.3910368, 103.88573006151556"
260A SENGKANG EAST WAY,260A,SENGKANG EAST WAY,"1.3932863, 103.89540210353046"
34 LORONG 5 TOA PAYOH,34,LOR 5 TOA PAYOH,"1.3347853, 103.85420815"
207 TOA PAYOH NORTH,207,TOA PAYOH NTH,"1.3424023, 103.8452262"
772 YISHUN AVENUE 3,772,YISHUN AVE 3,"1.4237175, 103.83258645078408"
664A YISHUN AVENUE 4,664A,YISHUN AVE 4,"1.4205950999999999, 103.84123547947996"
666 JALAN DAMAI,666,JLN DAMAI,"1.33370025, 103.9080372078869"
102 LENGKONG TIGA,102,LENGKONG TIGA,"1.3255179, 103.91082173898053"
117 BUKIT BATOK WEST AVENUE 6,117,BT BATOK WEST AVE 6,"1.34994835, 103.74718316265306"
126C EDGEDALE PLAINS,126C,EDGEDALE PLAINS,"1.3940735, 103.9106508979419"
148 YISHUN STREET 11,148,YISHUN ST 11,"1.4316586, 103.83219588765107"
6 HOLLAND CLOSE,6,HOLLAND CL,"1.307321, 103.7956057"
17 LORONG 7 TOA PAYOH,17,LOR 7 TOA PAYOH,"1.3363470999999998, 103.85629440055638"
25B JALAN MEMBINA,25B,JLN MEMBINA,"1.2836169000000002, 103.82526766016466"
190 BUKIT BATOK WEST AVENUE 6,190,BT BATOK WEST AVE 6,"1.3454698500000002, 103.7462299915639"
183B BOON LAY AVENUE,183B,BOON LAY AVE,"1.3482172000000001, 103.7097055024143"
688A WOODLANDS DRIVE 75,688A,WOODLANDS DR 75,NONE
281 YISHUN STREET 22,281,YISHUN ST 22,"Error: Road retrieved. Returned address Yishun Street 22, Yishun, Northwest, 760264, Singapore"
709 ANG MO KIO AVENUE 8,709,ANG MO KIO AVE 8,"Error: Road retrieved. Returned address Ang Mo Kio Avenue 8, Ang Mo Kio, Singapore, Central, 569843, Singapore"
689A CHOA CHU KANG DRIVE,689A,CHOA CHU KANG DR,"Error: Road retrieved. Returned address Choa Chu Kang Drive, Choa Chu Kang, Southwest, 689717, Singapore"
256C SUMANG WALK,256C,SUMANG WALK,"1.40547765, 103.89609481478433"
403 SERANGOON AVENUE 1,403,SERANGOON AVE 1,"1.34640515, 103.87254092240723"
418 TAMPINES STREET 41,418,TAMPINES ST 41,"1.3583236, 103.9473135"
335 KANG CHING ROAD,335,KANG CHING RD,"1.3390198500000001, 103.72320002502232"
179 WOODLANDS STREET 13,179,WOODLANDS ST 13,"Error: Road retrieved. Returned address Woodlands Street 13, Woodlands, Northwest, 738623, Singapore"
125 BEDOK RESERVOIR ROAD,125,BEDOK RESERVOIR RD,"1.3329117, 103.90982741480475"
143 BUKIT BATOK STREET 11,143,BT BATOK ST 11,"1.35036645, 103.74396139903226"
154 YISHUN STREET 11,154,YISHUN ST 11,"Error: Road retrieved. Returned address Yishun Street 11, Yishun, Northwest, 768643, Singapore"
622 ANG MO KIO AVENUE 9,622,ANG MO KIO AVE 9,"Error: Road retrieved. Returned address Ang Mo Kio Avenue 9, Ang Mo Kio, Singapore, Central, 560622, Singapore"
635A SENJA ROAD,635A,SENJA RD,"Error: Road retrieved. Returned address Senja Road, Bukit Panjang, Northwest, 677741, Singapore"
455 CHOA CHU KANG AVENUE 4,455,CHOA CHU KANG AVE 4,"1.37943405, 103.73520864139343"
109 ALJUNIED CRESCENT,109,ALJUNIED CRES,"1.3193917499999999, 103.88446331660396"
837 HOUGANG CENTRAL,837,HOUGANG CTRL,"Error: Road retrieved. Returned address Hougang Central, Hougang, Northeast, 530853, Singapore"
43 BENDEMEER ROAD,43,BENDEMEER RD,"1.3210779000000001, 103.8658235350143"
32 MARINE CRESCENT,32,MARINE CRES,"1.30320595, 103.91179633186559"
525C PASIR RIS STREET 51,525C,PASIR RIS ST 51,"1.3700931, 103.94757547001231"
222 SERANGOON AVENUE 4,222,SERANGOON AVE 4,"1.3586475, 103.87147476513556"
295 TAMPINES STREET 22,295,TAMPINES ST 22,"1.35075405, 103.95497827377214"
146 SIMEI STREET 2,146,SIMEI ST 2,"1.34471965, 103.95606231918015"
643 ANG MO KIO AVENUE 5,643,ANG MO KIO AVE 5,"Error: Road retrieved. Returned address Ang Mo Kio Avenue 5, Ang Mo Kio, Singapore, Central, 569948, Singapore"
62 MARINE DRIVE,62,MARINE DR,"1.3026743, 103.90903625958119"
357 ADMIRALTY DRIVE,357,ADMIRALTY DR,"Error: Not Singapore. Returned address Admiralty Drive, Sunset Beach, Huntington Beach, Orange County, California, 92649, United States"
192C RIVERVALE DRIVE,192C,RIVERVALE DR,"Error: Not Singapore. Returned address Rivervale Drive, Santa Cruz County, California, 95073, United States"
446 TAMPINES STREET 42,446,TAMPINES ST 42,"1.35791955, 103.95102285"
79A TOA PAYOH CENTRAL,79A,TOA PAYOH CTRL,"1.3346534, 103.8474571936961"
17 MARSILING LANE,17,MARSILING LANE,"1.4427200500000001, 103.77811795795925"
326 UBI AVENUE 1,326,UBI AVE 1,"1.327212, 103.90385838129563"
15 JOO SENG ROAD,15,JOO SENG RD,"1.33566025, 103.88043155687382"
614 ELIAS ROAD,614,ELIAS RD,"1.3757510499999999, 103.94144200783823"
136 YISHUN RING ROAD,136,YISHUN RING RD,"Error: Road retrieved. Returned address Yishun Ring Road, Yishun, Northwest, 760413, Singapore"
554 JURONG WEST STREET 42,554,JURONG WEST ST 42,"1.3532364499999998, 103.71795843558367"
232 TAMPINES STREET 21,232,TAMPINES ST 21,"1.35637565, 103.94868524940279"
780C WOODLANDS CRESCENT,780C,WOODLANDS CRES,"1.44914605, 103.80138802957507"
235 YISHUN STREET 21,235,YISHUN ST 21,"Error: Road retrieved. Returned address Yishun Street 21, Yishun, Northwest, 768610, Singapore"
902 TAMPINES AVENUE 4,902,TAMPINES AVE 4,"1.3512058, 103.93906028064994"
739 YISHUN AVENUE 5,739,YISHUN AVE 5,"1.4297274999999998, 103.8321105"
212 YISHUN STREET 21,212,YISHUN ST 21,"1.43168, 103.8371239947991"
608 CLEMENTI WEST STREET 1,608,CLEMENTI WEST ST 1,"1.30433125, 103.76660598622286"
206 TOA PAYOH NORTH,206,TOA PAYOH NTH,"1.3423270999999999, 103.84650107946786"
690D WOODLANDS DRIVE 75,690D,WOODLANDS DR 75,NONE
169 WOODLANDS STREET 11,169,WOODLANDS ST 11,"1.4332892, 103.77649495"
493A TAMPINES AVENUE 9,493A,TAMPINES AVE 9,"1.3626117500000001, 103.95250380079975"
803 YISHUN RING ROAD,803,YISHUN RING RD,"1.41825625, 103.83164013554453"
330 YISHUN RING ROAD,330,YISHUN RING RD,"1.430712, 103.84279223988378"
266 BISHAN STREET 24,266,BISHAN ST 24,"1.3580925, 103.84217316461124"
2 EVERTON PARK,2,EVERTON PK,"Error: Road retrieved. Returned address Everton Park, 6A, Everton Road, Bukit Merah, Singapore, Central, 081008, Singapore"
7 GHIM MOH ROAD,7,GHIM MOH RD,"1.3112671, 103.78727861779575"
552 CHOA CHU KANG STREET 52,552,CHOA CHU KANG ST 52,"Error: Road retrieved. Returned address Choa Chu Kang Street 52, Northwest, 689286, Singapore"
804B KEAT HONG CLOSE,804B,KEAT HONG CL,"1.3731121000000002, 103.74180814842524"
61 CHAI CHEE ROAD,61,CHAI CHEE RD,"1.3251396, 103.920696930352"
288G BUKIT BATOK STREET 25,288G,BT BATOK ST 25,"1.34512645, 103.75967714839203"
35 CIRCUIT ROAD,35,CIRCUIT RD,"Error: Not Singapore. Returned address 35, Circuit Road, Bellport, Suffolk County, New York, 11713, United States"
47 BENDEMEER ROAD,47,BENDEMEER RD,"1.3231957, 103.8667991"
170B PUNGGOL FIELD,170B,PUNGGOL FIELD,"Error: Road retrieved. Returned address Punggol Field, Punggol Cove, Punggol, Northeast, 820198, Singapore"
13 HOLLAND DRIVE,13,HOLLAND DR,"Error: Not Singapore. Returned address 13, Holland Drive, Tithebarn Green, Broadclyst, West Clyst, Exeter, Devon, South West England, England, EX1 3BL, United Kingdom"
326D ANCHORVALE ROAD,326D,ANCHORVALE RD,"1.39612695, 103.88814597805325"
204 TAMPINES STREET 21,204,TAMPINES ST 21,"1.35216195, 103.95170789233066"
571A WOODLANDS AVENUE 1,571A,WOODLANDS AVE 1,"1.43021245, 103.7910025031592"
107 GANGSA ROAD,107,GANGSA RD,"Error: Road retrieved. Returned address Gangsa Road, Bukit Panjang, Northwest, 679002, Singapore"
412 EUNOS ROAD 5,412,EUNOS RD 5,"1.3183215499999998, 103.89904976671286"
975 JURONG WEST STREET 93,975,JURONG WEST ST 93,"1.3402300999999999, 103.69348054013332"
142 PASIR RIS STREET 11,142,PASIR RIS ST 11,"1.36343435, 103.95892227074492"
211D COMPASSVALE LANE,211D,COMPASSVALE LANE,"1.38561945, 103.89969830297898"
146 LORONG 2 TOA PAYOH,146,LOR 2 TOA PAYOH,"1.3346314000000001, 103.84647149934594"
331 YISHUN RING ROAD,331,YISHUN RING RD,"Error: Road retrieved. Returned address Yishun Ring Road, Yishun, Northwest, 760413, Singapore"
416 SAUJANA ROAD,416,SAUJANA RD,"1.383179, 103.76847496925942"
110 TECK WHYE LANE,110,TECK WHYE LANE,"1.37819275, 103.75192732959769"
66 CIRCUIT ROAD,66,CIRCUIT RD,"1.3266601, 103.8877053317863"
822 JURONG WEST STREET 81,822,JURONG WEST ST 81,"1.34688885, 103.69354485613208"
633B PUNGGOL DRIVE,633B,PUNGGOL DR,"1.40121115, 103.91339759754804"
148 MEI LING STREET,148,MEI LING ST,"1.2943763, 103.80448307932465"
275A COMPASSVALE LINK,275A,COMPASSVALE LINK,"1.3828713000000001, 103.89462582840099"
138A LORONG 1A TOA PAYOH,138A,LOR 1A TOA PAYOH,"Error: Road retrieved. Returned address Lorong 1A Toa Payoh, Toa Payoh, Singapore, Central, 313130, Singapore"
713 YISHUN STREET 71,713,YISHUN ST 71,"1.4272527, 103.82705678752086"
414 BEDOK NORTH AVENUE 2,414,BEDOK NTH AVE 2,"1.3300231500000002, 103.92991755"
97 BEDOK NORTH AVENUE 4,97,BEDOK NTH AVE 4,"1.3329450999999999, 103.93989812849486"
620 BUKIT BATOK CENTRAL,620,BT BATOK CTRL,"1.3496717999999999, 103.74840008779702"
707 CHOA CHU KANG STREET 53,707,CHOA CHU KANG ST 53,"Error: Road retrieved. Returned address Choa Chu Kang Street 53, Northwest, 689189, Singapore"
321 HOUGANG AVENUE 5,321,HOUGANG AVE 5,"Error: Road retrieved. Returned address Hougang Avenue 5, Hougang, Northeast, 530334, Singapore"
459 PASIR RIS DRIVE 4,459,PASIR RIS DR 4,"1.3710062, 103.95985575"
60 STRATHMORE AVENUE,60,STRATHMORE AVE,"Error: Not Singapore. Returned address 60, Strathmore Avenue, Buffalo, Erie County, New York, 14220, United States"
297B CHOA CHU KANG AVENUE 2,297B,CHOA CHU KANG AVE 2,"1.37732415, 103.74303890147576"
235 HOUGANG STREET 21,235,HOUGANG ST 21,"Error: Road retrieved. Returned address Hougang Street 21, Hougang, Northeast, 530211, Singapore"
100 BEDOK NORTH AVENUE 4,100,BEDOK NTH AVE 4,"1.3342912500000002, 103.93884993831013"
648 PASIR RIS DRIVE 10,648,PASIR RIS DR 10,"1.3787956000000001, 103.93868006253462"
18C HOLLAND DRIVE,18C,HOLLAND DR,"1.31040465, 103.79185364147031"
320C ANCHORVALE DRIVE,320C,ANCHORVALE DR,"1.3911575, 103.89137773357555"
403 WOODLANDS STREET 41,403,WOODLANDS ST 41,"Error: Road retrieved. Returned address Woodlands Street 41, Woodlands, Northwest, 31, Singapore"
60 CHAI CHEE ROAD,60,CHAI CHEE RD,"1.3245618000000001, 103.9212242485743"
797 WOODLANDS DRIVE 72,797,WOODLANDS DR 72,"Error: Road retrieved. Returned address Woodlands Drive 72, Woodlands, Northwest, 730789, Singapore"
119 PENDING ROAD,119,PENDING RD,"Error: Road retrieved. Returned address Pending Road, Bukit Panjang, Northwest, 670129, Singapore"
401 HOUGANG AVENUE 10,401,HOUGANG AVE 10,"Error: Road retrieved. Returned address Hougang Avenue 10, Hougang, Northeast, 538766, Singapore"
55 TEBAN GARDENS ROAD,55,TEBAN GDNS RD,"1.32185935, 103.73749632600637"
467B FERNVALE LINK,467B,FERNVALE LINK,"Error: Road retrieved. Returned address Fernvale Link, Fernvale, Central, 790470, Singapore"
159 TAMPINES STREET 12,159,TAMPINES ST 12,"1.351004, 103.94605588621013"
163 BEDOK SOUTH ROAD,163,BEDOK STH RD,"Error: Road retrieved. Returned address Bedok South Road, Bedok, Southeast, 460017, Singapore"
521 PASIR RIS STREET 52,521,PASIR RIS ST 52,"1.3737139, 103.9444802591621"
874A TAMPINES STREET 84,874A,TAMPINES ST 84,"1.35314615, 103.93210386185248"
889C WOODLANDS DRIVE 50,889C,WOODLANDS DR 50,"1.4378121, 103.79236713789078"
669 CHOA CHU KANG CRESCENT,669,CHOA CHU KANG CRES,"Error: Road retrieved. Returned address Choa Chu Kang Crescent, Northwest, 689097, Singapore"
235 JURONG EAST STREET 21,235,JURONG EAST ST 21,"1.3400479, 103.7422568"
681 CHOA CHU KANG CRESCENT,681,CHOA CHU KANG CRES,"Error: Road retrieved. Returned address Choa Chu Kang Crescent, Northwest, 681672, Singapore"
687 HOUGANG STREET 61,687,HOUGANG ST 61,"Error: Road retrieved. Returned address Hougang Street 61, Hougang, Northeast, 538793, Singapore"
337 JURONG EAST AVENUE 1,337,JURONG EAST AVE 1,"1.34990615, 103.73173510003079"
178 YUNG SHENG ROAD,178,YUNG SHENG RD,"Error: Road retrieved. Returned address Yung Sheng Road, Jurong West, Southwest, 610182, Singapore"
749 JURONG WEST STREET 73,749,JURONG WEST ST 73,"Error: Road retrieved. Returned address Jurong West Street 73, Jurong West, Southwest, 640744, Singapore"
57 MARINE TERRACE,57,MARINE TER,"Error: Not Singapore. Returned address Marine Terrace, Foord, Folkestone, Folkestone and Hythe, Kent, South East, England, CT20 1PZ, United Kingdom"
71 LORONG 4 TOA PAYOH,71,LOR 4 TOA PAYOH,"1.33402105, 103.85244354651236"
709 YISHUN AVENUE 5,709,YISHUN AVE 5,"1.42859275, 103.82777373221793"
505D YISHUN STREET 51,505D,YISHUN ST 51,"Error: Road retrieved. Returned address Yishun Street 51, Yishun, Northwest, 762511, Singapore"
2 SAINT GEORGE'S ROAD,2,ST. GEORGE'S RD,"Error: Not Singapore. Returned address 2, St Georges Road, Saint Georges, Town of Three Rivers, Kings County, Prince Edward Island, Canada"
468B ADMIRALTY DRIVE,468B,ADMIRALTY DR,"1.4500965, 103.81423175"
305C ANCHORVALE LINK,305C,ANCHORVALE LINK,"1.3890089, 103.88810954424441"
313C ANCHORVALE ROAD,313C,ANCHORVALE RD,"1.39183495, 103.88798828899083"
8 JOO SENG ROAD,8,JOO SENG RD,"1.3352096, 103.87875240963402"
151 BEDOK RESERVOIR ROAD,151,BEDOK RESERVOIR RD,"1.33558895, 103.91155614712994"
65 CIRCUIT ROAD,65,CIRCUIT RD,"1.3273898499999999, 103.8873021756651"
44 SIMS DRIVE,44,SIMS DR,"1.3163506, 103.87734192340542"
106 HOUGANG AVENUE 1,106,HOUGANG AVE 1,"1.3537151, 103.8906841"
668C JURONG WEST STREET 64,668C,JURONG WEST ST 64,"1.34148435, 103.70351737235876"
631 JURONG WEST STREET 65,631,JURONG WEST ST 65,"1.3432823, 103.70025927531421"
204 MARSILING DRIVE,204,MARSILING DR,"1.4440636, 103.77375537146"
407 HOUGANG AVENUE 10,407,HOUGANG AVE 10,"1.3731602500000002, 103.89596086941245"
361 BUKIT BATOK STREET 31,361,BT BATOK ST 31,"1.3607087999999998, 103.75097892926215"
526 CHOA CHU KANG STREET 51,526,CHOA CHU KANG ST 51,"Error: Road retrieved. Returned address Choa Chu Kang Street 51, Northwest, 689333, Singapore"
310B PUNGGOL WALK,310B,PUNGGOL WALK,"1.40947825, 103.90057566673144"
509B WELLINGTON CIRCLE,509B,WELLINGTON CIRCLE,"1.4532794500000001, 103.82122847289278"
317C ANCHORVALE ROAD,317C,ANCHORVALE RD,"1.3935016999999998, 103.88849767391736"
259C COMPASSVALE ROAD,259C,COMPASSVALE RD,"1.39351695, 103.89822376902126"
22 TIONG BAHRU ROAD,22,TIONG BAHRU RD,"1.2857011, 103.83171242771428"
554 CHOA CHU KANG NORTH 6,554,CHOA CHU KANG NTH 6,"Error: Road retrieved. Returned address Choa Chu Kang North 6, Northwest, 689579, Singapore"
585 PASIR RIS STREET 53,585,PASIR RIS ST 53,"1.3752227000000001, 103.94737109222088"
17 TECK WHYE LANE,17,TECK WHYE LANE,"1.3792908000000002, 103.75406825340596"
897 TAMPINES STREET 81,897,TAMPINES ST 81,"1.34758365, 103.93419956743571"
657 JALAN TENAGA,657,JLN TENAGA,"1.33393775, 103.9072579526455"
511 WEST COAST DRIVE,511,WEST COAST DR,"1.3102934, 103.76050128140096"
608 HOUGANG AVENUE 4,608,HOUGANG AVE 4,"Error: Road retrieved. Returned address Hougang Avenue 4, Hougang, Northeast, 530682, Singapore"
109 JALAN BUKIT MERAH,109,JLN BT MERAH,"Error: Road retrieved. Returned address Jalan Bukit Merah, Radin Mas, Bukit Merah, Singapore, Central, 169545, Singapore"
417 HOUGANG AVENUE 8,417,HOUGANG AVE 8,"1.37642585, 103.89505320408922"
226B COMPASSVALE WALK,226B,COMPASSVALE WALK,"1.3877269, 103.89946241768791"
913 JURONG WEST STREET 91,913,JURONG WEST ST 91,"1.3418413, 103.68766827155125"
348 WOODLANDS AVENUE 3,348,WOODLANDS AVE 3,"1.432943, 103.78190672919456"
507 ANG MO KIO AVENUE 8,507,ANG MO KIO AVE 8,"Error: Road retrieved. Returned address Ang Mo Kio Avenue 8, Ang Mo Kio, Singapore, Central, 569843, Singapore"
74 BEDOK NORTH ROAD,74,BEDOK NTH RD,"1.3275114000000001, 103.9422840670866"
219 BUKIT BATOK STREET 21,219,BT BATOK ST 21,"1.34704205, 103.75475996994047"
683A CHOA CHU KANG CRESCENT,683A,CHOA CHU KANG CRES,"Error: Road retrieved. Returned address Choa Chu Kang Crescent, Northwest, 689097, Singapore"
181 PASIR RIS STREET 11,181,PASIR RIS ST 11,"1.3644300999999999, 103.96061117339278"
264A PUNGGOL WAY,264A,PUNGGOL WAY,"Error: Road retrieved. Returned address Punggol Way, Punggol, Northeast, 820221, Singapore"
453A FERNVALE ROAD,453A,FERNVALE RD,"1.3944322, 103.87536294442191"
315C ANCHORVALE ROAD,315C,ANCHORVALE RD,"1.3925638, 103.88811000697577"
898B WOODLANDS DRIVE 50,898B,WOODLANDS DR 50,"Error: Road retrieved. Returned address Woodlands Drive 50, Woodlands, Northwest, 738853, Singapore"
112 YISHUN RING ROAD,112,YISHUN RING RD,"1.43427455, 103.82920397639339"
840 JURONG WEST STREET 81,840,JURONG WEST ST 81,"1.3442558, 103.69204219033635"
17A TELOK BLANGAH CRESCENT,17A,TELOK BLANGAH CRES,"1.2772488499999999, 103.82133302174486"
634B SENJA ROAD,634B,SENJA RD,"1.38606105, 103.7582465654171"
69 MOULMEIN ROAD,69,MOULMEIN RD,"1.3189343999999998, 103.8505209211196"
759 PASIR RIS STREET 71,759,PASIR RIS ST 71,"1.37642695, 103.93282115926286"
728 TAMPINES STREET 71,728,TAMPINES ST 71,"1.3562178, 103.9348395702115"
686C CHOA CHU KANG CRESCENT,686C,CHOA CHU KANG CRES,"Error: Road retrieved. Returned address Choa Chu Kang Crescent, Northwest, 689097, Singapore"
434 HOUGANG AVENUE 8,434,HOUGANG AVE 8,"1.3765729, 103.89374295205708"
360C ADMIRALTY DRIVE,360C,ADMIRALTY DR,"Error: Not Singapore. Returned address Admiralty Drive, Sunset Beach, Huntington Beach, Orange County, California, 92649, United States"
498H TAMPINES STREET 45,498H,TAMPINES ST 45,"1.3629384, 103.95751775620454"
49 TELOK BLANGAH DRIVE,49,TELOK BLANGAH DR,"1.2722038, 103.81114237502905"
172B EDGEDALE PLAINS,172B,EDGEDALE PLAINS,"1.39586815, 103.91206222585326"
264D COMPASSVALE BOW,264D,COMPASSVALE BOW,"1.3816443, 103.89594139483353"
690B WOODLANDS DRIVE 75,690B,WOODLANDS DR 75,NONE
212 PETIR ROAD,212,PETIR RD,"Error: Road retrieved. Returned address Petir Road, Bukit Panjang, Northwest, 678272, Singapore"
43 TEBAN GARDENS ROAD,43,TEBAN GDNS RD,"1.3210826, 103.7417307793499"
425 JURONG WEST AVENUE 1,425,JURONG WEST AVE 1,"1.3510366999999999, 103.72419434831552"
23A QUEEN'S CLOSE,23A,QUEEN'S CL,"Error: Not Singapore. Returned address Queen's Close, Wallington, London Borough of Sutton, London, Greater London, England, SM6 0AQ, United Kingdom"
213 SERANGOON AVENUE 4,213,SERANGOON AVE 4,"Error: Road retrieved. Returned address Serangoon Avenue 4, Serangoon Green, Serangoon, Southeast, 551223, Singapore"
221A BEDOK CENTRAL,221A,BEDOK CTRL,"1.3251367, 103.93497620800596"
662D JURONG WEST STREET 64,662D,JURONG WEST ST 64,"1.33695905, 103.70419077272024"
503 TAMPINES CENTRAL 1,503,TAMPINES CTRL 1,"1.35592875, 103.94520047932045"
449 JURONG WEST STREET 42,449,JURONG WEST ST 42,"1.35225275, 103.71814527901662"
629 PASIR RIS DRIVE 3,629,PASIR RIS DR 3,"1.37885485, 103.94073617914532"
325A SENGKANG EAST WAY,325A,SENGKANG EAST WAY,"1.3936011000000001, 103.89080136762777"
837 TAMPINES STREET 83,837,TAMPINES ST 83,"1.3508583, 103.93443934712408"
501 WOODLANDS DRIVE 14,501,WOODLANDS DR 14,"1.4328609, 103.79202798056974"
615 BEDOK RESERVOIR ROAD,615,BEDOK RESERVOIR RD,"1.3323588499999999, 103.91599244405376"
655 JALAN TENAGA,655,JLN TENAGA,"1.3333292, 103.9067607549411"
151 BISHAN STREET 11,151,BISHAN ST 11,"1.3452161, 103.8558022198873"
535 CHOA CHU KANG STREET 51,535,CHOA CHU KANG ST 51,"Error: Road retrieved. Returned address Choa Chu Kang Street 51, Northwest, 689333, Singapore"
230 CHOA CHU KANG CENTRAL,230,CHOA CHU KANG CTRL,"1.38024395, 103.74639650326769"
181B BOON LAY DRIVE,181B,BOON LAY DR,"1.348806, 103.70850324497817"
176B EDGEFIELD PLAINS,176B,EDGEFIELD PLAINS,"1.39866725, 103.9085652337302"
666B PUNGGOL DRIVE,666B,PUNGGOL DR,"Error: Road retrieved. Returned address Punggol Drive, Punggol, Northeast, 821665, Singapore"
103 SERANGOON NORTH AVENUE 1,103,SERANGOON NTH AVE 1,"1.3706697, 103.87029741886923"
450E TAMPINES STREET 42,450E,TAMPINES ST 42,"1.3575099000000002, 103.95302174359337"
848 WOODLANDS STREET 82,848,WOODLANDS ST 82,"1.4418136000000001, 103.79198174999999"
31 TELOK BLANGAH RISE,31,TELOK BLANGAH RISE,"1.27228895, 103.82079974999999"
435B FERNVALE ROAD,435B,FERNVALE RD,"Error: Not Singapore. Returned address Fernvale Road, Fernvale, Williamson County, Tennessee, United States"
539 SERANGOON NORTH AVENUE 4,539,SERANGOON NTH AVE 4,"Error: Road retrieved. Returned address Serangoon North Avenue 4, Ang Mo Kio Industrial Park 2, Serangoon North, Singapore, Central, 555859, Singapore"
711 TAMPINES STREET 71,711,TAMPINES ST 71,"1.3584957, 103.93711501637239"
782D WOODLANDS CRESCENT,782D,WOODLANDS CRES,"1.44824355, 103.80283579326922"
403 YISHUN AVENUE 6,403,YISHUN AVE 6,"1.42693205, 103.84855318735396"
391 BUKIT BATOK WEST AVENUE 5,391,BT BATOK WEST AVE 5,"1.3658065499999998, 103.75279169268899"
44 TELOK BLANGAH DRIVE,44,TELOK BLANGAH DR,"1.2717429500000001, 103.81118661871173"
94 WHAMPOA DRIVE,94,WHAMPOA DR,"1.3219991, 103.85578883603603"
511 PASIR RIS STREET 52,511,PASIR RIS ST 52,"1.37507535, 103.94417362268284"
665C PUNGGOL DRIVE,665C,PUNGGOL DR,"1.4015189499999998, 103.91449684115963"
200A SENGKANG EAST ROAD,200A,SENGKANG EAST RD,"1.3871502, 103.89198257097298"
162 WOODLANDS STREET 13,162,WOODLANDS ST 13,"Error: Road retrieved. Returned address Woodlands Street 13, Woodlands, Northwest, 738623, Singapore"
952 JURONG WEST STREET 91,952,JURONG WEST ST 91,"1.34277115, 103.69153913478291"
153A LORONG 1 TOA PAYOH,153A,LOR 1 TOA PAYOH,"1.333624, 103.84530650430179"
82B LORONG 4 TOA PAYOH,82B,LOR 4 TOA PAYOH,"Error: Road retrieved. Returned address Lorong 4 Toa Payoh, Toa Payoh, Singapore, Central, 319194, Singapore"
115A YISHUN RING ROAD,115A,YISHUN RING RD,"Error: Road retrieved. Returned address Yishun Ring Road, Yishun, Northwest, 760413, Singapore"
114 CLEMENTI STREET 13,114,CLEMENTI ST 13,"1.32384305, 103.77056803625041"
271A JURONG WEST STREET 24,271A,JURONG WEST ST 24,"1.35087815, 103.70417640538912"
422 TAMPINES STREET 41,422,TAMPINES ST 41,"1.35730485, 103.94701135"
22 BEDOK SOUTH AVENUE 1,22,BEDOK STH AVE 1,"1.32282485, 103.93280059318386"
415 COMMONWEALTH AVENUE WEST,415,C'WEALTH AVE WEST,"1.3110129, 103.77174305487843"
511 HOUGANG AVENUE 10,511,HOUGANG AVE 10,"Error: Road retrieved. Returned address Hougang Avenue 10, Hougang, Northeast, 545119, Singapore"
304 BUKIT BATOK STREET 31,304,BT BATOK ST 31,"1.35748635, 103.7479860904021"
350 BUKIT BATOK STREET 34,350,BT BATOK ST 34,"1.36170005, 103.74912931875272"
549 JURONG WEST STREET 42,549,JURONG WEST ST 42,"1.35308205, 103.71637489716188"
301 SHUNFU ROAD,301,SHUNFU RD,"1.34941275, 103.83871095727154"
407 SEMBAWANG DRIVE,407,SEMBAWANG DR,"1.45338165, 103.81680000235525"
112 RIVERVALE WALK,112,RIVERVALE WALK,"1.38356485, 103.90154302201864"
212 SERANGOON AVENUE 4,212,SERANGOON AVE 4,"Error: Road retrieved. Returned address Serangoon Avenue 4, Serangoon Green, Serangoon, Southeast, 551223, Singapore"
504 ANG MO KIO AVENUE 8,504,ANG MO KIO AVE 8,"Error: Road retrieved. Returned address Ang Mo Kio Avenue 8, Ang Mo Kio, Singapore, Central, 569843, Singapore"
49 KIM PONG ROAD,49,KIM PONG RD,"Error: Road retrieved. Returned address Kim Pong Road, Bukit Merah, Singapore, Central, 163028, Singapore"
183 YUNG SHENG ROAD,183,YUNG SHENG RD,"Error: Road retrieved. Returned address Yung Sheng Road, Jurong West, Southwest, 610182, Singapore"
813 JELLICOE ROAD,813,JELLICOE RD,"1.30723995, 103.86213026277933"
102 BUKIT PURMEI ROAD,102,BT PURMEI RD,"1.2719933, 103.82667427175707"
324B SENGKANG EAST WAY,324B,SENGKANG EAST WAY,"1.39247535, 103.8924097864654"
3 QUEEN'S ROAD,3,QUEEN'S RD,"Error: Not Singapore. Returned address 3, Queens Road, Lynch Green, Hethersett, Norwich, Norfolk, East of England, England, NR9 3DB, United Kingdom"
294 CHOA CHU KANG AVENUE 2,294,CHOA CHU KANG AVE 2,"1.3786342, 103.74100626251632"
49 WHAMPOA SOUTH,49,WHAMPOA STH,"1.32438975, 103.8664715890601"
21 DOVER CRESCENT,21,DOVER CRES,"Error: Not Singapore. Returned address 21, Dover Crescent, Skyline Acres, Fredericton, York County, New Brunswick / Nouveau-Brunswick, E3B 4J7, Canada"
142 SIMEI STREET 2,142,SIMEI ST 2,"1.3454267500000001, 103.9552410604746"
545 ANG MO KIO AVENUE 10,545,ANG MO KIO AVE 10,"1.373177, 103.85629250664167"
51 STRATHMORE AVENUE,51,STRATHMORE AVE,"Error: Not Singapore. Returned address 51, Strathmore Avenue, Lower Stoke, Coventry, West Midlands Combined Authority, West Midlands, England, CV1 2AJ, United Kingdom"
684D WOODLANDS DRIVE 73,684D,WOODLANDS DR 73,"1.44131775, 103.80441378381751"
637 WOODLANDS RING ROAD,637,WOODLANDS RING RD,"1.43738195, 103.80247533666645"
334B YISHUN STREET 31,334B,YISHUN ST 31,"1.4326226, 103.84567339821228"
123 BEDOK NORTH STREET 2,123,BEDOK NTH ST 2,"1.3291889499999998, 103.93735578564602"
23 TEBAN GARDENS ROAD,23,TEBAN GDNS RD,"1.3229101, 103.7391379106306"
861A TAMPINES AVENUE 5,861A,TAMPINES AVE 5,"1.35467805, 103.9372889990398"
327 ANG MO KIO AVENUE 3,327,ANG MO KIO AVE 3,"Error: Road retrieved. Returned address Ang Mo Kio Avenue 3, Ang Mo Kio, Singapore, Central, 560564, Singapore"
8 EMPRESS ROAD,8,EMPRESS RD,"1.3165401, 103.8055357"
140 BISHAN STREET 12,140,BISHAN ST 12,"1.3448766, 103.85284640222346"
69 CIRCUIT ROAD,69,CIRCUIT RD,"1.32502685, 103.88746970623393"
415 PANDAN GARDENS,415,PANDAN GDNS,"1.3207601, 103.74824499464057"
603 JURONG WEST STREET 62,603,JURONG WEST ST 62,"1.33884895, 103.7003160712793"
216 TAMPINES STREET 23,216,TAMPINES ST 23,"1.3540236, 103.95271393092574"
263 WATERLOO STREET,263,WATERLOO ST,"Error: Not Singapore. Returned address Waterloo Street, Downtown, Kitchener, Region of Waterloo, Southwestern Ontario, Ontario, N2J 1X5, Canada"
549 CHOA CHU KANG STREET 52,549,CHOA CHU KANG ST 52,"Error: Road retrieved. Returned address Choa Chu Kang Street 52, Northwest, 689286, Singapore"
420 JURONG WEST STREET 42,420,JURONG WEST ST 42,"1.35057025, 103.72718780630612"
616 WOODLANDS AVENUE 4,616,WOODLANDS AVE 4,"1.4342502499999998, 103.79602080159034"
302 ANG MO KIO AVENUE 3,302,ANG MO KIO AVE 3,"Error: Road retrieved. Returned address Ang Mo Kio Avenue 3, Ang Mo Kio, Singapore, Central, 560564, Singapore"
146 JALAN BUKIT MERAH,146,JLN BT MERAH,"1.2777764, 103.8310198"
158A RIVERVALE CRESCENT,158A,RIVERVALE CRES,"1.3887586, 103.90687463983151"
199 TOA PAYOH NORTH,199,TOA PAYOH NTH,"1.34197345, 103.8506845235735"
113 JURONG EAST STREET 13,113,JURONG EAST ST 13,"1.3388458, 103.73506663576136"
220 TAMPINES STREET 24,220,TAMPINES ST 24,"1.3556420999999999, 103.95201927420405"
122 POTONG PASIR AVENUE 1,122,POTONG PASIR AVE 1,"1.3350178000000001, 103.86630187735933"
626 YISHUN STREET 61,626,YISHUN ST 61,"Error: Road retrieved. Returned address Yishun Street 61, Nee Soon Central Meadows, Yishun, Northwest, 768548, Singapore"
401 CHOA CHU KANG AVENUE 3,401,CHOA CHU KANG AVE 3,"1.37956375, 103.73995479785037"
675 HOUGANG AVENUE 8,675,HOUGANG AVE 8,"Error: Road retrieved. Returned address Hougang Avenue 8, Hougang, Northeast, 530631, Singapore"
245 PASIR RIS STREET 21,245,PASIR RIS ST 21,"1.3710459, 103.96280108780056"
242 SERANGOON AVENUE 3,242,SERANGOON AVE 3,"1.3527087999999998, 103.86969435"
180 BISHAN STREET 13,180,BISHAN ST 13,"1.34849065, 103.85237495926232"
712 PASIR RIS STREET 72,712,PASIR RIS ST 72,"1.38200105, 103.93835359550725"
14 BEDOK SOUTH AVENUE 2,14,BEDOK STH AVE 2,"1.3211398, 103.93625286222647"
288C BUKIT BATOK STREET 25,288C,BT BATOK ST 25,"1.3461037, 103.75965149417591"
403C FERNVALE LANE,403C,FERNVALE LANE,"1.3883869500000001, 103.87298624045982"
66 BEDOK SOUTH AVENUE 3,66,BEDOK STH AVE 3,"1.31849105, 103.94384629895677"
130 BUKIT BATOK WEST AVENUE 6,130,BT BATOK WEST AVE 6,"1.3510729000000001, 103.74617326960586"
333A ANCHORVALE LINK,333A,ANCHORVALE LINK,"1.3946448, 103.89108434846383"
430A YISHUN AVENUE 11,430A,YISHUN AVE 11,"Error: Road retrieved. Returned address Yishun Avenue 11, Yishun, Northwest, 760413, Singapore"
504B YISHUN STREET 51,504B,YISHUN ST 51,"1.4176134, 103.8440696719844"
290 BISHAN STREET 24,290,BISHAN ST 24,"1.35612865, 103.8448870863424"
133A CASHEW ROAD,133A,CASHEW RD,"Error: Not Singapore. Returned address 133, Cashew Road, Greensboro, Hale County, Alabama, 36744, United States"
120 TECK WHYE LANE,120,TECK WHYE LANE,"1.378834, 103.75032538703516"
19 EUNOS CRESCENT,19,EUNOS CRES,"1.3242949, 103.90335331073535"
39A BENDEMEER ROAD,39A,BENDEMEER RD,"1.32023855, 103.86640625707071"
142 YISHUN RING ROAD,142,YISHUN RING RD,"Error: Road retrieved. Returned address Yishun Ring Road, Yishun, Northwest, 760413, Singapore"
300 CANBERRA ROAD,300,CANBERRA RD,"1.4455884, 103.82303718961336"
258 KIM KEAT AVENUE,258,KIM KEAT AVE,"1.3328511, 103.85787017796162"
401 FAJAR ROAD,401,FAJAR RD,"Error: Road retrieved. Returned address Fajar Road, Bukit Panjang, Northwest, 673443, Singapore"
430 ANG MO KIO AVENUE 3,430,ANG MO KIO AVE 3,"Error: Road retrieved. Returned address Ang Mo Kio Avenue 3, Ang Mo Kio, Singapore, Central, 560564, Singapore"
109 SPOTTISWOODE PARK ROAD,109,SPOTTISWOODE PK RD,"1.2740924, 103.83675847530893"
202 PETIR ROAD,202,PETIR RD,"1.3724072, 103.7751021739292"
641 JURONG WEST STREET 61,641,JURONG WEST ST 61,"1.34089835, 103.69628585884499"
115 PASIR RIS STREET 11,115,PASIR RIS ST 11,"1.3688903, 103.95526255104566"
188D RIVERVALE DRIVE,188D,RIVERVALE DR,"1.3950779, 103.9039551267403"
192B RIVERVALE DRIVE,192B,RIVERVALE DR,"1.3942358, 103.90299197542325"
128 SIMEI STREET 1,128,SIMEI ST 1,"1.34688735, 103.95483866810602"
774 BEDOK RESERVOIR VIEW,774,BEDOK RESERVOIR VIEW,"1.3365429999999998, 103.93677667899999"
125 BISHAN STREET 12,125,BISHAN ST 12,"1.34699655, 103.85164812951805"
752 PASIR RIS STREET 71,752,PASIR RIS ST 71,"1.37777035, 103.93438371996642"
210 SERANGOON CENTRAL,210,SERANGOON CTRL,"1.35472635, 103.87341035376264"
53 TELOK BLANGAH DRIVE,53,TELOK BLANGAH DR,"1.27430575, 103.81150295061803"
113 TECK WHYE LANE,113,TECK WHYE LANE,"1.37802295, 103.7506889837553"
246 JURONG EAST STREET 24,246,JURONG EAST ST 24,"1.3417520500000002, 103.74009783306751"
196C PUNGGOL FIELD,196C,PUNGGOL FIELD,"Error: Road retrieved. Returned address Punggol Field, Punggol Cove, Punggol, Northeast, 820198, Singapore"
480 SEMBAWANG DRIVE,480,SEMBAWANG DR,"1.4522408, 103.81524617132892"
252 PASIR RIS STREET 21,252,PASIR RIS ST 21,"1.3681237, 103.96264340537743"
215 BOON LAY PLACE,215,BOON LAY PL,"1.34868825, 103.71239025308356"
676C PUNGGOL DRIVE,676C,PUNGGOL DR,"1.4053233500000002, 103.91056760266945"
543 CHOA CHU KANG STREET 52,543,CHOA CHU KANG ST 52,"Error: Road retrieved. Returned address Choa Chu Kang Street 52, Northwest, 689286, Singapore"
743 JURONG WEST STREET 73,743,JURONG WEST ST 73,"Error: Road retrieved. Returned address Jurong West Street 73, Jurong West, Southwest, 640743, Singapore"
335 TAMPINES STREET 32,335,TAMPINES ST 32,"1.3527592, 103.96074159853273"
33 TELOK BLANGAH WAY,33,TELOK BLANGAH WAY,"1.2741913500000002, 103.82243971608177"
612 JURONG WEST STREET 65,612,JURONG WEST ST 65,"1.3393443, 103.70088559592142"
591A MONTREAL LINK,591A,MONTREAL LINK,"1.4508228, 103.82625356089954"
621 WOODLANDS DRIVE 52,621,WOODLANDS DR 52,"Error: Road retrieved. Returned address Woodlands Drive 52, Woodlands, Northwest, 739022, Singapore"
443 ANG MO KIO AVENUE 10,443,ANG MO KIO AVE 10,"Error: Road retrieved. Returned address Ang Mo Kio Avenue 10, Ang Mo Kio, Singapore, Central, 560449, Singapore"
201 BEDOK NORTH STREET 1,201,BEDOK NTH ST 1,"1.3260292, 103.92822051717235"
426 BUKIT BATOK WEST AVENUE 2,426,BT BATOK WEST AVE 2,"1.3620961, 103.74446018676639"
348 CLEMENTI AVENUE 5,348,CLEMENTI AVE 5,"1.3167529, 103.77090365860897"
42 CASSIA CRESCENT,42,CASSIA CRES,"1.31046115, 103.88646199226424"
743 WOODLANDS CIRCLE,743,WOODLANDS CIRCLE,"1.4438404999999999, 103.7964110597198"
525 WOODLANDS DRIVE 14,525,WOODLANDS DR 14,"Error: Road retrieved. Returned address Woodlands Drive 14, Fragrant Woods, Woodlands, Northwest, 738079, Singapore"
27 BALAM ROAD,27,BALAM RD,"1.33033725, 103.88630054699901"
109 WHAMPOA ROAD,109,WHAMPOA RD,"1.3270202000000002, 103.85562383529664"
147 SIMEI STREET 2,147,SIMEI ST 2,"1.3454777, 103.95585006951379"
187 BUKIT BATOK WEST AVENUE 6,187,BT BATOK WEST AVE 6,"1.3464321, 103.7445441497805"
4 QUEEN'S ROAD,4,QUEEN'S RD,"Error: Not Singapore. Returned address Cap&Collar, 4, Queen's Road, Shipley, Saltaire, West Yorkshire, Yorkshire and the Humber, England, BD18 4SJ, United Kingdom"
637 VEERASAMY ROAD,637,VEERASAMY RD,"Error: Road retrieved. Returned address Veerasamy Road, Rochor, Singapore, Central, 207309, Singapore"
98 WHAMPOA DRIVE,98,WHAMPOA DR,"1.32153335, 103.85413336456386"
371 TAMPINES STREET 34,371,TAMPINES ST 34,"1.3568929, 103.95839812321469"
715 TAMPINES STREET 71,715,TAMPINES ST 71,"1.3596243000000001, 103.93710798687559"
233 SIMEI STREET 4,233,SIMEI ST 4,"1.3439261500000002, 103.95600353640006"
605 CLEMENTI WEST STREET 1,605,CLEMENTI WEST ST 1,"1.30535695, 103.76811280317888"
405 SERANGOON AVENUE 1,405,SERANGOON AVE 1,"1.34773815, 103.87296173992569"
206C COMPASSVALE LANE,206C,COMPASSVALE LANE,"1.3870464500000002, 103.89775164635438"
547 PASIR RIS STREET 51,547,PASIR RIS ST 51,"1.36891155, 103.95365291693119"
422 SERANGOON CENTRAL,422,SERANGOON CTRL,"1.348884, 103.87598883905325"
428 BEDOK NORTH ROAD,428,BEDOK NTH RD,"1.3295080499999998, 103.92774516287585"
747C BEDOK RESERVOIR CRESCENT,747C,BEDOK RESERVOIR CRES,"1.33676455, 103.92195930890526"
318 BUKIT BATOK STREET 32,318,BT BATOK ST 32,"1.3609537999999999, 103.74707776977469"
672 CHOA CHU KANG CRESCENT,672,CHOA CHU KANG CRES,"Error: Road retrieved. Returned address Choa Chu Kang Crescent, Northwest, 681672, Singapore"
518 CHOA CHU KANG STREET 51,518,CHOA CHU KANG ST 51,"Error: Road retrieved. Returned address Choa Chu Kang Street 51, Northwest, 689333, Singapore"
199B PUNGGOL FIELD,199B,PUNGGOL FIELD,"1.4000849, 103.90578518338684"
121 LORONG 2 TOA PAYOH,121,LOR 2 TOA PAYOH,"1.3392219, 103.84625890627457"
1 MARSILING DRIVE,1,MARSILING DR,"1.44063665, 103.77573715"
619 WOODLANDS DRIVE 52,619,WOODLANDS DR 52,"Error: Road retrieved. Returned address Woodlands Drive 52, Woodlands, Northwest, 739022, Singapore"
714 YISHUN STREET 71,714,YISHUN ST 71,"1.42709375, 103.82783143423282"
1 DELTA AVENUE,1,DELTA AVE,"Error: Not Singapore. Returned address 1, Delta Avenue, Fort Thomas, Campbell County, Kentucky, 41075, United States"
533 BUKIT PANJANG RING ROAD,533,BT PANJANG RING RD,"Error: Road retrieved. Returned address Bukit Panjang Ring Road, Bukit Panjang, Northwest, 679910, Singapore"
704 HOUGANG AVENUE 2,704,HOUGANG AVE 2,"1.365256, 103.88916408232116"
624C PUNGGOL CENTRAL,624C,PUNGGOL CTRL,"1.4004919500000002, 103.91202070486516"
615A EDGEFIELD PLAINS,615A,EDGEFIELD PLAINS,"Error: Road retrieved. Returned address Edgefield Plains, Punggol, Northeast, 828850, Singapore"
632B PUNGGOL DRIVE,632B,PUNGGOL DR,"1.40083605, 103.91318080738117"
174D EDGEDALE PLAINS,174D,EDGEDALE PLAINS,"Error: Road retrieved. Returned address Edgedale Plains, Punggol, Northeast, 828867, Singapore"
469A ADMIRALTY DRIVE,469A,ADMIRALTY DR,"Error: Not Singapore. Returned address Admiralty Drive, Sunset Beach, Huntington Beach, Orange County, California, 92649, United States"
782B WOODLANDS CRESCENT,782B,WOODLANDS CRES,"1.44740635, 103.80305873708822"
152 GANGSA ROAD,152,GANGSA RD,"Error: Road retrieved. Returned address Gangsa Road, Bukit Panjang, Northwest, 679002, Singapore"
233 SERANGOON AVENUE 3,233,SERANGOON AVE 3,"Error: Road retrieved. Returned address Serangoon Avenue 3, The Scala, Serangoon, Southeast, 556112, Singapore"
898 TAMPINES STREET 81,898,TAMPINES ST 81,"1.3472715499999999, 103.93471678536302"
677 WOODLANDS AVENUE 6,677,WOODLANDS AVE 6,"Error: Road retrieved. Returned address Woodlands Avenue 6, Woodlands, Northwest, 737858, Singapore"
197 RIVERVALE DRIVE,197,RIVERVALE DR,"1.3925629499999999, 103.90355643105897"
237 BISHAN STREET 22,237,BISHAN ST 22,"1.35929925, 103.84736728936477"
2 QUEEN'S ROAD,2,QUEEN'S RD,"Error: Not Singapore. Returned address Titanic Quarter Post Office, 2, Queens Road, Titanic Quarter, Belfast, County Down, Northern Ireland, BT3 9FP, United Kingdom"
737 YISHUN STREET 72,737,YISHUN ST 72,"Error: Road retrieved. Returned address Yishun Street 72, Yishun, Northwest, 760731, Singapore"
685B JURONG WEST STREET 64,685B,JURONG WEST ST 64,"1.3429307, 103.70410645031393"
274B JURONG WEST STREET 25,274B,JURONG WEST ST 25,"Error: Road retrieved. Returned address Jurong West Street 25, Jurong West, Southwest, 644276, Singapore"
232 LORONG 8 TOA PAYOH,232,LOR 8 TOA PAYOH,"1.3375803, 103.8588651"
221 YISHUN STREET 21,221,YISHUN ST 21,"1.43378185, 103.83623207339966"
301C ANCHORVALE DRIVE,301C,ANCHORVALE DR,"1.3888440499999999, 103.89094740056692"
98 LORONG 1 TOA PAYOH,98,LOR 1 TOA PAYOH,"Error: Road retrieved. Returned address Lorong 1 Toa Payoh, Toa Payoh, Singapore, Central, 313130, Singapore"
153 PASIR RIS STREET 13,153,PASIR RIS ST 13,"1.36368415, 103.96298474378882"
309 SHUNFU ROAD,309,SHUNFU RD,"1.3509400999999999, 103.83777298914448"
8 TELOK BLANGAH CRESCENT,8,TELOK BLANGAH CRES,"1.2777937499999998, 103.81932487108878"
84A LORONG 2 TOA PAYOH,84A,LOR 2 TOA PAYOH,"1.33538495, 103.84704453434861"
410 BEDOK NORTH AVENUE 2,410,BEDOK NTH AVE 2,"1.32786405, 103.93185179261482"
127 YISHUN STREET 11,127,YISHUN ST 11,"Error: Road retrieved. Returned address Yishun Street 11, Yishun, Northwest, 768643, Singapore"
125 PASIR RIS STREET 11,125,PASIR RIS ST 11,"1.3660727499999998, 103.9547328258117"
169C PUNGGOL FIELD,169C,PUNGGOL FIELD,"1.3936235, 103.91424364165412"
407 TAMPINES STREET 41,407,TAMPINES ST 41,"1.3582131, 103.94499730000001"
108 POTONG PASIR AVENUE 1,108,POTONG PASIR AVE 1,"1.3348782, 103.86800392099744"
442 YISHUN AVENUE 11,442,YISHUN AVE 11,"1.4234108, 103.84541170182766"
135 BEDOK RESERVOIR ROAD,135,BEDOK RESERVOIR RD,"1.33314005, 103.91251711755552"
116 PENDING ROAD,116,PENDING RD,"Error: Road retrieved. Returned address Pending Road, Bukit Panjang, Northwest, 670129, Singapore"
550 CHOA CHU KANG STREET 52,550,CHOA CHU KANG ST 52,"Error: Road retrieved. Returned address Choa Chu Kang Street 52, Northwest, 689286, Singapore"
553 HOUGANG STREET 51,553,HOUGANG ST 51,"1.37908025, 103.8903931"
347 KANG CHING ROAD,347,KANG CHING RD,"1.3404843, 103.72023484276139"
171 STIRLING ROAD,171,STIRLING RD,"Error: Not Singapore. Returned address Stirling Road, Berea, Buffalo City Ward 18, East London, Buffalo City Metropolitan Municipality, Eastern Cape, 5241, South Africa"
273D PUNGGOL PLACE,273D,PUNGGOL PL,"1.4026249499999999, 103.9014794516021"
170 STIRLING ROAD,170,STIRLING RD,"Error: Not Singapore. Returned address Stirling Road, Berea, Buffalo City Ward 18, East London, Buffalo City Metropolitan Municipality, Eastern Cape, 5241, South Africa"
663 YISHUN AVENUE 4,663,YISHUN AVE 4,"1.4199354, 103.84021816427783"
21 HAIG ROAD,21,HAIG RD,"1.3131651500000001, 103.89521154857283"
514 BEDOK NORTH AVENUE 2,514,BEDOK NTH AVE 2,"1.3324045, 103.92886485848692"
540 BUKIT BATOK STREET 52,540,BT BATOK ST 52,"1.35440535, 103.75129193577449"
476C CHOA CHU KANG AVENUE 5,476C,CHOA CHU KANG AVE 5,"1.3773428, 103.73796871494488"
144 TECK WHYE LANE,144,TECK WHYE LANE,"1.3807292, 103.75262948772358"
914 HOUGANG STREET 91,914,HOUGANG ST 91,"1.3775783, 103.88400924004702"
111 MCNAIR ROAD,111,MCNAIR RD,"1.3211802499999998, 103.85847620333735"
124 MARSILING RISE,124,MARSILING RISE,"1.4388049500000002, 103.77943850167784"
721 PASIR RIS STREET 72,721,PASIR RIS ST 72,"1.3813168, 103.93649321260237"
307 CANBERRA ROAD,307,CANBERRA RD,"1.4458921500000002, 103.82166145610978"
23 TELOK BLANGAH CRESCENT,23,TELOK BLANGAH CRES,"1.27604065, 103.82084989204812"
67 MARINE DRIVE,67,MARINE DR,"1.3044574500000001, 103.90962552215919"
432A SENGKANG WEST WAY,432A,SENGKANG WEST WAY,"1.3947743, 103.8771028492273"
202 COMPASSVALE DRIVE,202,COMPASSVALE DR,"1.38858515, 103.89331811634348"
52 NEW UPPER CHANGI ROAD,52,NEW UPP CHANGI RD,"1.3238952, 103.94245397036269"
672A KLANG LANE,672A,KLANG LANE,"Error: Road retrieved. Returned address Klang Lane, Rochor, Singapore, Central, 219924, Singapore"
309 YISHUN RING ROAD,309,YISHUN RING RD,"Error: Road retrieved. Returned address Yishun Ring Road, Yishun, Northwest, 760413, Singapore"
159 BEDOK SOUTH AVENUE 3,159,BEDOK STH AVE 3,"1.3190212, 103.94556927893726"
111 JURONG EAST STREET 13,111,JURONG EAST ST 13,"1.3387726500000001, 103.73564735233461"
676A PUNGGOL DRIVE,676A,PUNGGOL DR,"1.4047347, 103.9098644057952"
358 YUNG AN ROAD,358,YUNG AN RD,"1.33653245, 103.72076178409924"
28 MARINE CRESCENT,28,MARINE CRES,"1.3034572500000001, 103.91335220110804"
676D PUNGGOL DRIVE,676D,PUNGGOL DR,"1.4056160000000002, 103.91076743046412"
243 KIM KEAT LINK,243,KIM KEAT LINK,"1.3302415, 103.85656269602029"
394 YISHUN AVENUE 6,394,YISHUN AVE 6,"1.42887845, 103.84840048222337"
118 BUKIT BATOK WEST AVENUE 6,118,BT BATOK WEST AVE 6,"1.350193, 103.74626296884134"
42 TELOK BLANGAH RISE,42,TELOK BLANGAH RISE,"1.2709196999999999, 103.82277245"
286 CHOA CHU KANG AVENUE 3,286,CHOA CHU KANG AVE 3,"1.379746, 103.74144891237457"
707 JURONG WEST STREET 71,707,JURONG WEST ST 71,"1.3418476, 103.69389869145189"
301D PUNGGOL PLACE,301D,PUNGGOL PL,"Error: Road retrieved. Returned address Punggol Place, Punggol, Northeast, 828845, Singapore"
109A EDGEDALE PLAINS,109A,EDGEDALE PLAINS,"1.39472635, 103.91007451402075"
501C WELLINGTON CIRCLE,501C,WELLINGTON CIRCLE,"Error: Not Singapore. Returned address 501, Wellington Circle, Rochester Hills, Oakland County, Michigan, 48309, United States"
109 TAMPINES STREET 11,109,TAMPINES ST 11,"1.3474081, 103.9488115"
210 ANG MO KIO AVENUE 3,210,ANG MO KIO AVE 3,"Error: Road retrieved. Returned address Ang Mo Kio Avenue 3, Ang Mo Kio, Singapore, Central, 560564, Singapore"
78 INDUS ROAD,78,INDUS RD,"1.29127755, 103.82746172254511"
457 CHOA CHU KANG AVENUE 4,457,CHOA CHU KANG AVE 4,"1.3787542, 103.73621461206771"
623A PUNGGOL CENTRAL,623A,PUNGGOL CTRL,"1.39986885, 103.91194957707894"
221 HOUGANG STREET 21,221,HOUGANG ST 21,"1.35679105, 103.883367602562"
339A KANG CHING ROAD,339A,KANG CHING RD,"1.3378453000000001, 103.72134504064049"
986B JURONG WEST STREET 93,986B,JURONG WEST ST 93,"1.3371502, 103.6955936665027"
302D ANCHORVALE LINK,302D,ANCHORVALE LINK,"1.38834225, 103.88983917512564"
542 SERANGOON NORTH AVENUE 4,542,SERANGOON NTH AVE 4,"1.3741957, 103.87177214855504"
490B CHOA CHU KANG AVENUE 5,490B,CHOA CHU KANG AVE 5,"1.37558615, 103.74134180175793"
277 BANGKIT ROAD,277,BANGKIT RD,"1.37640055, 103.77489833847287"
979 JURONG WEST STREET 93,979,JURONG WEST ST 93,"1.3397509, 103.69452318365026"
350 YISHUN AVENUE 11,350,YISHUN AVE 11,"1.4257203, 103.84397791024873"
408 BEDOK NORTH AVENUE 2,408,BEDOK NTH AVE 2,"1.32850075, 103.9329116559478"
267C PUNGGOL FIELD,267C,PUNGGOL FIELD,"Error: Road retrieved. Returned address Punggol Field, Punggol Cove, Punggol, Northeast, 820198, Singapore"
327B ANCHORVALE ROAD,327B,ANCHORVALE RD,"1.39557545, 103.8885886798607"
409 YISHUN RING ROAD,409,YISHUN RING RD,"1.4261522000000002, 103.8472817"
771 PASIR RIS STREET 71,771,PASIR RIS ST 71,"1.3756590499999999, 103.93644341026162"
859A TAMPINES AVENUE 5,859A,TAMPINES AVE 5,"1.35504845, 103.9380738486492"
651 WOODLANDS RING ROAD,651,WOODLANDS RING RD,"1.4383215, 103.79953049500861"
2 DELTA AVENUE,2,DELTA AVE,"Error: Not Singapore. Returned address 2, Delta Avenue, Kempton Croft, Dartmouth, Bristol County, Massachusetts, 02747, United States"
523 CHOA CHU KANG STREET 51,523,CHOA CHU KANG ST 51,"Error: Road retrieved. Returned address Choa Chu Kang Street 51, Northwest, 689333, Singapore"
331 CLEMENTI AVENUE 2,331,CLEMENTI AVE 2,"1.3141201, 103.7679299486413"
268 PASIR RIS STREET 21,268,PASIR RIS ST 21,"1.36529975, 103.96320508738484"
329 YISHUN RING ROAD,329,YISHUN RING RD,"1.4303219999999999, 103.84263519999999"
308 SHUNFU ROAD,308,SHUNFU RD,"1.35048425, 103.83814895451701"
294 TAMPINES STREET 22,294,TAMPINES ST 22,"1.35093475, 103.95395014214134"
112 BISHAN STREET 12,112,BISHAN ST 12,"1.34693715, 103.84939788625971"
328 CLEMENTI AVENUE 2,328,CLEMENTI AVE 2,"1.3150804, 103.76686399813153"
455 CLEMENTI AVENUE 3,455,CLEMENTI AVE 3,"1.31211715, 103.76673513892564"
918 HOUGANG AVENUE 9,918,HOUGANG AVE 9,"1.37538725, 103.88352234905045"
295B COMPASSVALE CRESCENT,295B,COMPASSVALE CRES,"1.39786715, 103.90024855813319"
241 COMPASSVALE WALK,241,COMPASSVALE WALK,"1.39014535, 103.89775860624832"
178B RIVERVALE CRESCENT,178B,RIVERVALE CRES,"Error: Road retrieved. Returned address Rivervale Crescent, Seng Kang, Northeast, 540151, Singapore"
488B TAMPINES STREET 45,488B,TAMPINES ST 45,"Error: Road retrieved. Returned address Tampines Street 45, Tampines, Northeast, 520487, Singapore"
10 LORONG 7 TOA PAYOH,10,LOR 7 TOA PAYOH,"1.33716415, 103.85727146769786"
709 WOODLANDS DRIVE 70,709,WOODLANDS DR 70,"1.44042175, 103.79804933307025"
689E WOODLANDS DRIVE 75,689E,WOODLANDS DR 75,NONE
351 ANG MO KIO STREET 32,351,ANG MO KIO ST 32,"1.3643093, 103.85030906360723"
354 BUKIT BATOK STREET 31,354,BT BATOK ST 31,"1.3613967, 103.74976415794282"
671A EDGEFIELD PLAINS,671A,EDGEFIELD PLAINS,"1.40607045, 103.91233476853064"
262A COMPASSVALE STREET,262A,COMPASSVALE ST,"1.39539905, 103.89517206130046"
103 RIVERVALE WALK,103,RIVERVALE WALK,"1.3827966, 103.90137108719114"
876 WOODLANDS AVENUE 9,876,WOODLANDS AVE 9,"1.4446716, 103.79041790889045"
173 BUKIT BATOK WEST AVENUE 8,173,BT BATOK WEST AVE 8,"1.3460068, 103.74084080414951"
484 JURONG WEST AVENUE 1,484,JURONG WEST AVE 1,"1.3483616500000002, 103.72603899633337"
409B FERNVALE ROAD,409B,FERNVALE RD,"1.38945465, 103.87711298900876"
158C RIVERVALE CRESCENT,158C,RIVERVALE CRES,"Error: Road retrieved. Returned address Rivervale Crescent, Seng Kang, Northeast, 540151, Singapore"
207 TAMPINES STREET 21,207,TAMPINES ST 21,"1.35116705, 103.9519612690604"
386 TAMPINES STREET 32,386,TAMPINES ST 32,"1.3547918499999998, 103.9591177727528"
871C TAMPINES STREET 86,871C,TAMPINES ST 86,"1.3568517, 103.93121698022168"
855 YISHUN RING ROAD,855,YISHUN RING RD,"1.4169323500000002, 103.83669460001312"
163 WOODLANDS STREET 13,163,WOODLANDS ST 13,"Error: Road retrieved. Returned address Woodlands Street 13, Woodlands, Northwest, 738623, Singapore"
432 JURONG WEST STREET 42,432,JURONG WEST ST 42,"Error: Road retrieved. Returned address Jurong West Street 42, Jurong West, Southwest, 640432, Singapore"
507 CHOA CHU KANG STREET 51,507,CHOA CHU KANG ST 51,"Error: Road retrieved. Returned address Choa Chu Kang Street 51, Northwest, 689333, Singapore"
305A PUNGGOL ROAD,305A,PUNGGOL RD,"Error: Road retrieved. Returned address Punggol Road, Punggol, Northeast, 820198, Singapore"
41 HOLLAND DRIVE,41,HOLLAND DR,"1.3075847999999999, 103.79347600630831"
765 PASIR RIS STREET 71,765,PASIR RIS ST 71,"1.37681245, 103.9346043991579"
355 TAMPINES STREET 33,355,TAMPINES ST 33,"1.35491165, 103.96189038479491"
336 TAMPINES STREET 32,336,TAMPINES ST 32,"1.3527596499999999, 103.96027230046545"
101 HOUGANG AVENUE 1,101,HOUGANG AVE 1,"Error: Road retrieved. Returned address Hougang Avenue 1, Hougang, Northeast, 530110, Singapore"
270 PASIR RIS STREET 21,270,PASIR RIS ST 21,"1.36525385, 103.9640608241769"
622 BEDOK RESERVOIR ROAD,622,BEDOK RESERVOIR RD,"1.33405435, 103.91685595002133"
172A EDGEDALE PLAINS,172A,EDGEDALE PLAINS,"Error: Road retrieved. Returned address Edgedale Plains, Punggol, Northeast, 828867, Singapore"
327 TAMPINES STREET 32,327,TAMPINES ST 32,"1.3526286, 103.95821559894185"
290D BUKIT BATOK EAST AVENUE 3,290D,BT BATOK EAST AVE 3,"1.34440655, 103.7575545274007"
277 TOH GUAN ROAD,277,TOH GUAN RD,"1.34133055, 103.74684777221466"
331A ANCHORVALE STREET,331A,ANCHORVALE ST,"1.3960772499999998, 103.8904634689319"
116 SERANGOON NORTH AVENUE 1,116,SERANGOON NTH AVE 1,"1.36849815, 103.8716153"
108 LORONG 1 TOA PAYOH,108,LOR 1 TOA PAYOH,"1.3415132, 103.84725326028709"
291B BUKIT BATOK STREET 24,291B,BT BATOK ST 24,"1.3430656, 103.75598488043744"
662B JURONG WEST STREET 64,662B,JURONG WEST ST 64,"1.3371437, 103.70325192074023"
468B FERNVALE LINK,468B,FERNVALE LINK,"Error: Road retrieved. Returned address Fernvale Link, Fernvale, Central, 790470, Singapore"
351 TAMPINES STREET 33,351,TAMPINES ST 33,"1.35307565, 103.96303888664633"
90 DAWSON ROAD,90,DAWSON RD,"Error: Not Singapore. Returned address Dawson Road, Gaillard Crossroads, Sumter County, South Carolina, 29040, United States"
857A TAMPINES STREET 83,857A,TAMPINES ST 83,"1.35427115, 103.93515262405202"
180D RIVERVALE CRESCENT,180D,RIVERVALE CRES,"Error: Road retrieved. Returned address Rivervale Crescent, Seng Kang, Northeast, 540151, Singapore"
210 BISHAN STREET 23,210,BISHAN ST 23,"1.3558544499999998, 103.8488049966549"
753 WOODLANDS CIRCLE,753,WOODLANDS CIRCLE,"Error: Not Singapore. Returned address 753, Woodlands Circle, Woodlands, Cumberland County, Tennessee, 38571, United States"
625 YISHUN STREET 61,625,YISHUN ST 61,"Error: Road retrieved. Returned address Yishun Street 61, Nee Soon Central Meadows, Yishun, Northwest, 768548, Singapore"
303 ANG MO KIO AVENUE 1,303,ANG MO KIO AVE 1,"Error: Road retrieved. Returned address Ang Mo Kio Avenue 1, Ang Mo Kio, Singapore, Central, 560218, Singapore"
153 MEI LING STREET,153,MEI LING ST,"1.2937873999999998, 103.80321807513292"
408C FERNVALE ROAD,408C,FERNVALE RD,"1.3892589499999999, 103.87649858994004"
581 WOODLANDS DRIVE 16,581,WOODLANDS DR 16,"Error: Road retrieved. Returned address Woodlands Drive 16, Woodlands, Northwest, 730548, Singapore"
109A DEPOT ROAD,109A,DEPOT RD,"1.2809004499999999, 103.8096075712609"
334 CLEMENTI AVENUE 2,334,CLEMENTI AVE 2,"1.3151301, 103.7684348421302"
667D JURONG WEST STREET 65,667D,JURONG WEST ST 65,"1.3417728, 103.70203518955455"
315A ANCHORVALE ROAD,315A,ANCHORVALE RD,"1.3920599500000002, 103.88916422763728"
182 BISHAN STREET 13,182,BISHAN ST 13,"1.35003245, 103.85317368900223"
681A JURONG WEST CENTRAL 1,681A,JURONG WEST CTRL 1,"1.344388, 103.70519439315864"
470C FERNVALE LINK,470C,FERNVALE LINK,"1.39620575, 103.88010257645513"
459 CLEMENTI AVENUE 3,459,CLEMENTI AVE 3,"1.31138395, 103.76718230321151"
153 BISHAN STREET 13,153,BISHAN ST 13,"1.3461525, 103.85484295882767"
483 PASIR RIS DRIVE 4,483,PASIR RIS DR 4,"1.3740450499999999, 103.9600543"
677B PUNGGOL DRIVE,677B,PUNGGOL DR,"1.4051852, 103.90969779330936"
497F TAMPINES STREET 45,497F,TAMPINES ST 45,"1.35974715, 103.95900554486293"
651 HOUGANG AVENUE 8,651,HOUGANG AVE 8,"Error: Road retrieved. Returned address Hougang Avenue 8, Hougang, Northeast, 530631, Singapore"
774 PASIR RIS STREET 71,774,PASIR RIS ST 71,"1.3742298000000002, 103.93669867682132"
28 JALAN KLINIK,28,JLN KLINIK,"Error: Not Singapore. Returned address Jalan Klinik, Pasir Puteh,   / Pasir Puteh, Kelantan, 16800, Malaysia"
530 JELAPANG ROAD,530,JELAPANG RD,"Error: Road retrieved. Returned address Jelapang Road, Bukit Panjang, Northwest, 671524, Singapore"
440 CHOA CHU KANG AVENUE 4,440,CHOA CHU KANG AVE 4,"1.38363125, 103.73922624522311"
614 CHOA CHU KANG STREET 62,614,CHOA CHU KANG ST 62,"Error: Road retrieved. Returned address Choa Chu Kang Street 62, Northwest, 680627, Singapore"
324 UBI AVENUE 1,324,UBI AVE 1,"1.3282246, 103.90410920306167"
929 JURONG WEST STREET 92,929,JURONG WEST ST 92,"1.34124535, 103.68924877711126"
196B BOON LAY DRIVE,196B,BOON LAY DR,"1.342859, 103.71407544092204"
410 SEMBAWANG DRIVE,410,SEMBAWANG DR,"1.45278705, 103.81805394565022"
572A WOODLANDS AVENUE 1,572A,WOODLANDS AVE 1,"1.43086995, 103.78958284839356"
301 WOODLANDS STREET 31,301,WOODLANDS ST 31,"1.4315023, 103.7737451"
247 YISHUN AVENUE 9,247,YISHUN AVE 9,"1.4350657999999998, 103.84205262225638"
116 ANG MO KIO AVENUE 4,116,ANG MO KIO AVE 4,"Error: Road retrieved. Returned address Ang Mo Kio Avenue 4, Ang Mo Kio, Singapore, Central, 568987, Singapore"
308A ANG MO KIO AVENUE 1,308A,ANG MO KIO AVE 1,"1.3654853500000002, 103.84402498337782"
226C COMPASSVALE WALK,226C,COMPASSVALE WALK,"1.3882039000000002, 103.90002253246334"
259 TAMPINES STREET 21,259,TAMPINES ST 21,"1.3549456, 103.95043529505412"
518B TAMPINES CENTRAL 7,518B,TAMPINES CTRL 7,"1.35635915, 103.9386619"
641 YISHUN STREET 61,641,YISHUN ST 61,"1.42075795, 103.83803485137335"
407 FAJAR ROAD,407,FAJAR RD,"Error: Road retrieved. Returned address Fajar Road, Bukit Panjang, Northwest, 673443, Singapore"
546B SEGAR ROAD,546B,SEGAR RD,"1.3887842, 103.76991386933653"
211 JURONG EAST STREET 21,211,JURONG EAST ST 21,"1.33845395, 103.74042299342818"
609 JURONG WEST STREET 65,609,JURONG WEST ST 65,"1.3380286, 103.7005153962901"
226 PASIR RIS STREET 21,226,PASIR RIS ST 21,"1.3712909, 103.96163684575282"
9 LORONG 7 TOA PAYOH,9,LOR 7 TOA PAYOH,"1.3377625499999999, 103.8576233873456"
551 ANG MO KIO AVENUE 10,551,ANG MO KIO AVE 10,"Error: Road retrieved. Returned address Ang Mo Kio Avenue 10, Ang Mo Kio, Singapore, Central, 560449, Singapore"
207 JURONG EAST STREET 21,207,JURONG EAST ST 21,"1.33804465, 103.74226093601044"
641 PASIR RIS DRIVE 1,641,PASIR RIS DR 1,"1.37643525, 103.9396616072794"
150 MEI LING STREET,150,MEI LING ST,"1.2949669, 103.80349801615912"
351A CANBERRA ROAD,351A,CANBERRA RD,"1.4504107, 103.8202211"
414 SERANGOON CENTRAL,414,SERANGOON CTRL,"1.3489917, 103.87432955242888"
457 YISHUN STREET 41,457,YISHUN ST 41,"1.42038545, 103.8455053007365"
68 CIRCUIT ROAD,68,CIRCUIT RD,"1.3254492500000001, 103.88810360012246"
772 BEDOK RESERVOIR VIEW,772,BEDOK RESERVOIR VIEW,"1.3365215, 103.93798236744894"
452 HOUGANG AVENUE 10,452,HOUGANG AVE 10,"Error: Road retrieved. Returned address Hougang Avenue 10, Hougang, Northeast, 538766, Singapore"
103 POTONG PASIR AVENUE 1,103,POTONG PASIR AVE 1,"1.33413935, 103.86956749999999"
684C CHOA CHU KANG CRESCENT,684C,CHOA CHU KANG CRES,"Error: Road retrieved. Returned address Choa Chu Kang Crescent, Northwest, 689097, Singapore"
105A EDGEFIELD PLAINS,105A,EDGEFIELD PLAINS,"1.3969873, 103.90586281419024"
182 ANG MO KIO AVENUE 5,182,ANG MO KIO AVE 5,"Error: Road retrieved. Returned address Ang Mo Kio Avenue 5, Ang Mo Kio, Singapore, Central, 569948, Singapore"
476 SEGAR ROAD,476,SEGAR RD,"Error: Road retrieved. Returned address Segar Road, Bukit Panjang, Northwest, 677738, Singapore"
94B BEDOK NORTH AVENUE 4,94B,BEDOK NTH AVE 4,"1.33399125, 103.94271505910177"
696 JURONG WEST CENTRAL 1,696,JURONG WEST CTRL 1,"1.34219175, 103.70773875730978"
722 PASIR RIS STREET 72,722,PASIR RIS ST 72,"1.380906, 103.93687200583832"
183 BISHAN STREET 13,183,BISHAN ST 13,"1.3504504499999999, 103.85249339998262"
612 ELIAS ROAD,612,ELIAS RD,"1.3745984999999998, 103.94197504158748"
858 WOODLANDS STREET 83,858,WOODLANDS ST 83,"1.4404835999999999, 103.79451957972609"
138 PASIR RIS STREET 11,138,PASIR RIS ST 11,"1.36342085, 103.95989117678212"
166A PUNGGOL CENTRAL,166A,PUNGGOL CTRL,"Error: Road retrieved. Returned address Punggol Central, Punggol, Northeast, 821256, Singapore"
162A RIVERVALE CRESCENT,162A,RIVERVALE CRES,"1.39044005, 103.90777418125"
130 SIMEI STREET 1,130,SIMEI ST 1,"1.3463311, 103.95499306957124"
513 CHOA CHU KANG STREET 51,513,CHOA CHU KANG ST 51,"Error: Road retrieved. Returned address Choa Chu Kang Street 51, Northwest, 689333, Singapore"
371 CLEMENTI AVENUE 4,371,CLEMENTI AVE 4,"1.3202552, 103.7683942044597"
509 WEST COAST DRIVE,509,WEST COAST DR,"1.31115075, 103.76098698263525"
138 TAMPINES STREET 11,138,TAMPINES ST 11,"1.34547255, 103.94557256928536"
774 YISHUN AVENUE 3,774,YISHUN AVE 3,"1.42377375, 103.8317870689168"
269 YISHUN STREET 22,269,YISHUN ST 22,"1.43733785, 103.84058321654068"
522 ANG MO KIO AVENUE 5,522,ANG MO KIO AVE 5,"Error: Road retrieved. Returned address Ang Mo Kio Avenue 5, Ang Mo Kio, Singapore, Central, 569948, Singapore"
24 TEBAN GARDENS ROAD,24,TEBAN GDNS RD,"1.3234712000000002, 103.7379560121427"
478 SEMBAWANG DRIVE,478,SEMBAWANG DR,"1.45261025, 103.81628799608465"
317A ANCHORVALE ROAD,317A,ANCHORVALE RD,"1.39401135, 103.88797725434733"
108 SERANGOON NORTH AVENUE 1,108,SERANGOON NTH AVE 1,"1.3699017, 103.8712065"
586 WOODLANDS DRIVE 16,586,WOODLANDS DR 16,"1.4286989499999998, 103.79479080375364"
418 CLEMENTI AVENUE 1,418,CLEMENTI AVE 1,"1.31015975, 103.7701752713724"
764A WOODLANDS CIRCLE,764A,WOODLANDS CIRCLE,"1.4455881000000002, 103.79680780621013"
192 BUKIT BATOK WEST AVENUE 6,192,BT BATOK WEST AVE 6,"1.3456294, 103.74485888520209"
512 BEDOK NORTH AVENUE 2,512,BEDOK NTH AVE 2,"1.3333456, 103.92924568397713"
345 CLEMENTI AVENUE 5,345,CLEMENTI AVE 5,"1.31761625, 103.76942037700348"
120 GEYLANG EAST CENTRAL,120,GEYLANG EAST CTRL,"Error: Road retrieved. Returned address Geylang East Central, Geylang East Garden, Geylang, Southeast, 380120, Singapore"
162 TAMPINES STREET 12,162,TAMPINES ST 12,"1.34987275, 103.94716405"
886A TAMPINES STREET 83,886A,TAMPINES ST 83,"1.351751, 103.93221704758497"
723 BEDOK RESERVOIR ROAD,723,BEDOK RESERVOIR RD,"1.336865, 103.92931427809168"
24 SIN MING ROAD,24,SIN MING RD,"Error: Road retrieved. Returned address Sin Ming Road, Bishan, Singapore, Central, 575624, Singapore"
684 HOUGANG AVENUE 8,684,HOUGANG AVE 8,"1.3744808, 103.8866167"
44 OWEN ROAD,44,OWEN RD,"Error: Not Singapore. Returned address 44, Owen Road, Victory Park, New Rochelle, Westchester County, New York, 10804, United States"
842 SIMS AVENUE,842,SIMS AVE,"1.3180851, 103.90182607168265"
213 TAMPINES STREET 23,213,TAMPINES ST 23,"1.3547567, 103.95416122"
133 YISHUN STREET 11,133,YISHUN ST 11,"Error: Road retrieved. Returned address Yishun Street 11, Yishun, Northwest, 768643, Singapore"
550 SERANGOON NORTH AVENUE 3,550,SERANGOON NTH AVE 3,"1.37264595, 103.87045332249251"
3 TOH YI DRIVE,3,TOH YI DR,"1.3387323, 103.77519333033752"
214 BEDOK NORTH STREET 1,214,BEDOK NTH ST 1,"1.325672, 103.931926"
505 BUKIT BATOK STREET 52,505,BT BATOK ST 52,"1.35192365, 103.75368371309739"
433 JURONG WEST STREET 42,433,JURONG WEST ST 42,"Error: Road retrieved. Returned address Jurong West Street 42, Jurong West, Southwest, 640433, Singapore"
5 DELTA AVENUE,5,DELTA AVE,"Error: Not Singapore. Returned address 5, Delta Avenue, Fort Thomas, Campbell County, Kentucky, 41075, United States"
74 TELOK BLANGAH HEIGHTS,74,TELOK BLANGAH HTS,"1.275357, 103.80883280046154"
815C CHOA CHU KANG AVENUE 7,815C,CHOA CHU KANG AVE 7,"1.37632325, 103.74779812448816"
405 PANDAN GARDENS,405,PANDAN GDNS,"1.3192073999999998, 103.74967053479256"
301 ANG MO KIO AVENUE 3,301,ANG MO KIO AVE 3,"Error: Road retrieved. Returned address Ang Mo Kio Avenue 3, Ang Mo Kio, Singapore, Central, 560564, Singapore"
272 BUKIT BATOK EAST AVENUE 4,272,BT BATOK EAST AVE 4,"1.3484624, 103.758019"
166A TECK WHYE CRESCENT,166A,TECK WHYE CRES,"1.3832558, 103.75302793680612"
486 CHOA CHU KANG AVENUE 5,486,CHOA CHU KANG AVE 5,"1.375528, 103.73820754321696"
336 UBI AVENUE 1,336,UBI AVE 1,"1.3257934, 103.90217127028761"
201 JURONG EAST STREET 21,201,JURONG EAST ST 21,"1.3363894, 103.74306676509698"
28D DOVER CRESCENT,28D,DOVER CRES,"1.3061805, 103.78242657193742"
439C SENGKANG WEST AVENUE,439C,SENGKANG WEST AVE,"1.39218675, 103.87861135"
445 TAMPINES STREET 42,445,TAMPINES ST 42,"1.35810075, 103.95052429357915"
620 BEDOK RESERVOIR ROAD,620,BEDOK RESERVOIR RD,"1.3338653, 103.91821965904623"
638 BEDOK RESERVOIR ROAD,638,BEDOK RESERVOIR RD,"1.3314815000000002, 103.90432719892013"
469B ADMIRALTY DRIVE,469B,ADMIRALTY DR,"Error: Not Singapore. Returned address Admiralty Drive, Sunset Beach, Huntington Beach, Orange County, California, 92649, United States"
106 SPOTTISWOODE PARK ROAD,106,SPOTTISWOODE PK RD,"1.27357705, 103.83404965"
534 JELAPANG ROAD,534,JELAPANG RD,"Error: Road retrieved. Returned address Jelapang Road, Bukit Panjang, Northwest, 671524, Singapore"
204 PETIR ROAD,204,PETIR RD,"1.37285105, 103.77521355671236"
769 CHOA CHU KANG STREET 54,769,CHOA CHU KANG ST 54,"Error: Road retrieved. Returned address Choa Chu Kang Street 54, Zhenghua, Northwest, 689577, Singapore"
471A UPPER SERANGOON CRESCENT,471A,UPP SERANGOON CRES,"1.37824985, 103.9017922759466"
814 JURONG WEST STREET 81,814,JURONG WEST ST 81,"1.34569245, 103.69559847254679"
462 TAMPINES STREET 44,462,TAMPINES ST 44,"1.3591664, 103.9551593"
224 SIMEI STREET 4,224,SIMEI ST 4,"1.34273415, 103.9576706144394"
711 HOUGANG AVENUE 2,711,HOUGANG AVE 2,"1.3662907, 103.88776699866636"
308 CLEMENTI AVENUE 4,308,CLEMENTI AVE 4,"1.3211606, 103.76671"
174 BOON LAY DRIVE,174,BOON LAY DR,"1.3462838000000001, 103.70948306178695"
279 YISHUN STREET 22,279,YISHUN ST 22,"1.4383751, 103.83737205"
256 BUKIT BATOK EAST AVENUE 4,256,BT BATOK EAST AVE 4,"1.3507764, 103.75845279592124"
315 BUKIT BATOK STREET 32,315,BT BATOK ST 32,"1.3602091500000002, 103.74648171183892"
