address,block,street_name,lat_long
45 SIMS DRIVE,45,SIMS DR,"1.31732065, 103.87845445456986"
179 BISHAN STREET 13,179,BISHAN ST 13,"1.34860065, 103.8518574"
288B PUNGGOL PLACE,288B,PUNGGOL PL,"1.40273545, 103.90329458515905"
765 BEDOK RESERVOIR VIEW,765,BEDOK RESERVOIR VIEW,"1.33601215, 103.93576827192962"
128B PUNGGOL FIELD WALK,128B,PUNGGOL FIELD WALK,"Error: Road retrieved. Returned address Punggol Field Walk, Punggol, Northeast, 828750, Singapore"
703 WEST COAST ROAD,703,WEST COAST RD,"1.3066301, 103.76090633440887"
411 TAMPINES STREET 41,411,TAMPINES ST 41,"1.359146, 103.94624512416601"
101 CLEMENTI STREET 14,101,CLEMENTI ST 14,"1.3221645, 103.76883490770695"
120 HOUGANG AVENUE 1,120,HOUGANG AVE 1,"Error: Road retrieved. Returned address Hougang Avenue 1, Hougang, Northeast, 530110, Singapore"
163 ANG MO KIO AVENUE 4,163,ANG MO KIO AVE 4,"1.3738461499999999, 103.83858854339786"
219 CHOA CHU KANG CENTRAL,219,CHOA CHU KANG CTRL,"1.38243505, 103.74526611016339"
149 PASIR RIS STREET 13,149,PASIR RIS ST 13,"1.3618866, 103.9623594872046"
677A PUNGGOL DRIVE,677A,PUNGGOL DR,"1.4052023999999999, 103.9092231694882"
632A PUNGGOL DRIVE,632A,PUNGGOL DR,"1.4006953000000002, 103.9133893824202"
935 YISHUN CENTRAL 1,935,YISHUN CTRL 1,"1.4253108, 103.83678689760373"
632 YISHUN STREET 61,632,YISHUN ST 61,"Error: Road retrieved. Returned address Yishun Street 61, Nee Soon Central Meadows, Yishun, Northwest, 768548, Singapore"
263 YISHUN STREET 22,263,YISHUN ST 22,"1.4361823, 103.83899426032156"
670 JALAN DAMAI,670,JLN DAMAI,"1.3326737, 103.90821903998742"
10A BOON TIONG ROAD,10A,BOON TIONG RD,"Error: Road retrieved. Returned address Boon Tiong Road, Boon Tiong Aracadia, Bukit Merah, Singapore, Central, 163028, Singapore"
87 REDHILL CLOSE,87,REDHILL CL,"Error: Road retrieved. Returned address Redhill Close, Redhill Gardens, Bukit Merah, Singapore, Central, 150115, Singapore"
178 LOMPANG ROAD,178,LOMPANG RD,"Error: Road retrieved. Returned address Lompang Road, Bukit Panjang, Northwest, 677743, Singapore"
11 TECK WHYE LANE,11,TECK WHYE LANE,"1.3797394, 103.7549539719328"
46 BENDEMEER ROAD,46,BENDEMEER RD,"1.32292705, 103.86605779259558"
146 GANGSA ROAD,146,GANGSA RD,"Error: Road retrieved. Returned address Gangsa Road, Bukit Panjang, Northwest, 679002, Singapore"
163 GANGSA ROAD,163,GANGSA RD,"Error: Road retrieved. Returned address Gangsa Road, Bukit Panjang, Northwest, 679002, Singapore"
424 CLEMENTI AVENUE 1,424,CLEMENTI AVE 1,"1.3095766000000002, 103.77064090607851"
551 HOUGANG STREET 51,551,HOUGANG ST 51,"1.3785579000000001, 103.89054108854711"
461 JURONG WEST STREET 41,461,JURONG WEST ST 41,"1.3495432, 103.72080764786072"
986A JURONG WEST STREET 93,986A,JURONG WEST ST 93,"1.3371152, 103.69516927650574"
588C MONTREAL DRIVE,588C,MONTREAL DR,"1.45052705, 103.82468237370833"
205A COMPASSVALE LANE,205A,COMPASSVALE LANE,"1.3855965, 103.8973306"
291D BUKIT BATOK STREET 24,291D,BT BATOK ST 24,"1.3434255, 103.75548958043744"
669D JURONG WEST STREET 64,669D,JURONG WEST ST 64,"1.3434751999999999, 103.70322737357512"
217 MARSILING CRESCENT,217,MARSILING CRES,"Error: Road retrieved. Returned address Marsiling Crescent, Woodlands, Northwest, 739148, Singapore"
847 WOODLANDS STREET 82,847,WOODLANDS ST 82,"1.4421537500000001, 103.79198243678235"
324 CLEMENTI AVENUE 5,324,CLEMENTI AVE 5,"Error: Road retrieved. Returned address Clementi Avenue 5, Clementi, Southwest, 120335, Singapore"
984D BUANGKOK LINK,984D,BUANGKOK LINK,"Error: Road retrieved. Returned address Buangkok Link, Hougang, Northeast, 530991, Singapore"
456 YISHUN STREET 41,456,YISHUN ST 41,"Error: Road retrieved. Returned address Yishun Street 41, Yishun, Northwest, 760675, Singapore"
128 BEDOK RESERVOIR ROAD,128,BEDOK RESERVOIR RD,"1.3334381, 103.91153965394366"
848 JURONG WEST STREET 81,848,JURONG WEST ST 81,"1.3458933499999999, 103.69216550877198"
271 TAMPINES STREET 21,271,TAMPINES ST 21,"1.3499487000000001, 103.94994605"
552 BEDOK NORTH AVENUE 1,552,BEDOK NTH AVE 1,"1.33188455, 103.92782565988352"
14 TELOK BLANGAH CRESCENT,14,TELOK BLANGAH CRES,"1.2774776, 103.82063085407856"
849 YISHUN RING ROAD,849,YISHUN RING RD,"1.4171201, 103.8353542"
367 YISHUN RING ROAD,367,YISHUN RING RD,"1.42964945, 103.84530925653883"
289C BUKIT BATOK STREET 25,289C,BT BATOK ST 25,"1.34372405, 103.75999098548505"
631 CHOA CHU KANG NORTH 6,631,CHOA CHU KANG NTH 6,"Error: Road retrieved. Returned address Choa Chu Kang North 6, Northwest, 689579, Singapore"
646 HOUGANG AVENUE 8,646,HOUGANG AVE 8,"1.37185055, 103.88075285"
147 BISHAN STREET 11,147,BISHAN ST 11,"1.343887, 103.85514144768435"
437 HOUGANG AVENUE 8,437,HOUGANG AVE 8,"Error: Road retrieved. Returned address Hougang Avenue 8, Hougang, Northeast, 530631, Singapore"
411 YISHUN RING ROAD,411,YISHUN RING RD,"1.4254834, 103.8473393680985"
161 BEDOK SOUTH AVENUE 3,161,BEDOK STH AVE 3,"1.31958135, 103.9457571208705"
71 MARINE DRIVE,71,MARINE DR,"1.3045369, 103.90894365981111"
507 PASIR RIS STREET 52,507,PASIR RIS ST 52,"1.3764776, 103.94451768340328"
420 CLEMENTI AVENUE 1,420,CLEMENTI AVE 1,Error: geocode failed on input 420 CLEMENTI AVENUE 1
276 TOH GUAN ROAD,276,TOH GUAN RD,"1.3409678, 103.7474670086042"
468 NORTH BRIDGE ROAD,468,NTH BRIDGE RD,"Error: Not Singapore. Returned address 468, North Bridge Road, Clayton County, Georgia, 30215, United States"
175A PUNGGOL FIELD,175A,PUNGGOL FIELD,"1.3975446, 103.90886855328944"
410C FERNVALE ROAD,410C,FERNVALE RD,"Error: Not Singapore. Returned address Fernvale Road, Fernvale, Williamson County, Tennessee, United States"
494C TAMPINES STREET 43,494C,TAMPINES ST 43,"1.36353875, 103.9524141037635"
111 YISHUN RING ROAD,111,YISHUN RING RD,"1.43336035, 103.82832947235137"
333A YISHUN STREET 31,333A,YISHUN ST 31,"1.4320481, 103.84478814081797"
432B YISHUN AVENUE 1,432B,YISHUN AVE 1,"Error: Road retrieved. Returned address Yishun Avenue 1, Yishun, Northwest, 763476, Singapore"
111 BISHAN STREET 12,111,BISHAN ST 12,"Error: Road retrieved. Returned address Bishan Street 12, Bishan, Singapore, Central, 570139, Singapore"
341 CHOA CHU KANG LOOP,341,CHOA CHU KANG LOOP,"1.3843922, 103.74611997052747"
506 BISHAN STREET 11,506,BISHAN ST 11,"1.3491822, 103.8491489"
302 BUKIT BATOK STREET 31,302,BT BATOK ST 31,"1.35710715, 103.74845327277754"
51 LENGKOK BAHRU,51,LENGKOK BAHRU,"1.2877094, 103.81218665932803"
639 HOUGANG AVENUE 8,639,HOUGANG AVE 8,"1.3706912, 103.8798438"
406 PANDAN GARDENS,406,PANDAN GDNS,"1.3187969499999999, 103.74925471893363"
33 MARINE CRESCENT,33,MARINE CRES,"1.3026803500000002, 103.9121698273425"
168B PUNGGOL EAST,168B,PUNGGOL EAST,"Error: Road retrieved. Returned address Punggol East, Punggol, Northeast, 828824, Singapore"
181 EDGEFIELD PLAINS,181,EDGEFIELD PLAINS,"Error: Road retrieved. Returned address Edgefield Plains, Punggol, Northeast, 828850, Singapore"
930 TAMPINES STREET 91,930,TAMPINES ST 91,"1.3459637, 103.9396197163826"
554 WOODLANDS DRIVE 53,554,WOODLANDS DR 53,"Error: Road retrieved. Returned address Woodlands Drive 53, Woodlands, Northwest, 738240, Singapore"
322 BUKIT BATOK STREET 33,322,BT BATOK ST 33,"1.3616822, 103.7474910301953"
261 JURONG EAST STREET 24,261,JURONG EAST ST 24,"1.34423835, 103.7406687387674"
519 SERANGOON NORTH AVENUE 4,519,SERANGOON NTH AVE 4,"1.3715307, 103.87476290044684"
218 ANG MO KIO AVENUE 1,218,ANG MO KIO AVE 1,"1.36513405, 103.8417987"
965 HOUGANG AVENUE 9,965,HOUGANG AVE 9,"Error: Road retrieved. Returned address Hougang Avenue 9, Hougang, Northeast, 538692, Singapore"
798 YISHUN RING ROAD,798,YISHUN RING RD,"1.4191376999999998, 103.83291690589552"
119 ANG MO KIO AVENUE 3,119,ANG MO KIO AVE 3,"Error: Road retrieved. Returned address Ang Mo Kio Avenue 3, Ang Mo Kio, Singapore, Central, 560564, Singapore"
8 JALAN RUMAH TINGGI,8,JLN RUMAH TINGGI,"1.2885005, 103.80812400878644"
110 JURONG EAST STREET 13,110,JURONG EAST ST 13,"1.33891955, 103.73689033497024"
37 MARSILING DRIVE,37,MARSILING DR,"Error: Road retrieved. Returned address Marsiling Drive, Woodlands, Northwest, 731007, Singapore"
62 DAKOTA CRESCENT,62,DAKOTA CRES,"1.30785825, 103.88887287566604"
654B JURONG WEST STREET 61,654B,JURONG WEST ST 61,"1.3361223, 103.69784846864775"
282 TAMPINES STREET 22,282,TAMPINES ST 22,"1.34771245, 103.9524325"
169 BEDOK SOUTH AVENUE 3,169,BEDOK STH AVE 3,"1.3203755, 103.94509644054902"
555 CHOA CHU KANG NORTH 6,555,CHOA CHU KANG NTH 6,"Error: Road retrieved. Returned address Choa Chu Kang North 6, Northwest, 689579, Singapore"
417 CHOA CHU KANG AVENUE 4,417,CHOA CHU KANG AVE 4,"1.3830922, 103.74149513874751"
133 MARSILING RISE,133,MARSILING RISE,"1.43743745, 103.77822788531422"
870 TAMPINES STREET 83,870,TAMPINES ST 83,"1.3543059999999998, 103.93345162550155"
625 ANG MO KIO AVENUE 9,625,ANG MO KIO AVE 9,"Error: Road retrieved. Returned address Ang Mo Kio Avenue 9, Ang Mo Kio, Singapore, Central, 569845, Singapore"
313 SHUNFU ROAD,313,SHUNFU RD,"1.35142015, 103.8371513861609"
446 HOUGANG AVENUE 8,446,HOUGANG AVE 8,"Error: Road retrieved. Returned address Hougang Avenue 8, Hougang, Northeast, 530631, Singapore"
220 JURONG EAST STREET 21,220,JURONG EAST ST 21,"1.3410506, 103.73750151377817"
38C BENDEMEER ROAD,38C,BENDEMEER RD,"1.3212025500000002, 103.86689123831775"
299 PUNGGOL CENTRAL,299,PUNGGOL CTRL,"Error: Road retrieved. Returned address Punggol Central, Punggol, Northeast, 821256, Singapore"
491A TAMPINES AVENUE 9,491A,TAMPINES AVE 9,"1.3625684, 103.95378524322493"
101 TECK WHYE LANE,101,TECK WHYE LANE,"1.37783155, 103.75414687018797"
161B PUNGGOL CENTRAL,161B,PUNGGOL CTRL,"1.3958683, 103.91531983818668"
22 GHIM MOH LINK,22,GHIM MOH LINK,"1.3092395, 103.78569743583037"
445A FERNVALE ROAD,445A,FERNVALE RD,"1.3922286, 103.8742255322274"
190A RIVERVALE DRIVE,190A,RIVERVALE DR,"1.3950646500000001, 103.90310552640176"
225 TAMPINES STREET 23,225,TAMPINES ST 23,"1.35510675, 103.95405194812625"
428A YISHUN AVENUE 11,428A,YISHUN AVE 11,"1.42253505, 103.84737688419425"
228 JURONG EAST STREET 21,228,JURONG EAST ST 21,"1.34236075, 103.73622527307609"
865 YISHUN STREET 81,865,YISHUN ST 81,"1.4139722, 103.83854026026282"
165 BUKIT BATOK WEST AVENUE 8,165,BT BATOK WEST AVE 8,"1.34737705, 103.74237974483623"
663 BUFFALO ROAD,663,BUFFALO RD,"Error: Not Singapore. Returned address 663, Buffalo Road, Buffalo, Sullivan County, Tennessee, 37617, United States"
722 CLEMENTI WEST STREET 2,722,CLEMENTI WEST ST 2,"1.3029266499999999, 103.76383595926391"
471A FERNVALE STREET,471A,FERNVALE ST,"Error: Not Singapore. Returned address Fernvale Street, Sydenham, County Down, Northern Ireland, BT4 1QE, United Kingdom"
119 BUKIT MERAH VIEW,119,BT MERAH VIEW,"1.2835592999999998, 103.82081495560166"
106C PUNGGOL FIELD,106C,PUNGGOL FIELD,"1.397393, 103.90769840903361"
302A ANCHORVALE LINK,302A,ANCHORVALE LINK,"1.3877415499999999, 103.89136212105768"
493E TAMPINES STREET 43,493E,TAMPINES ST 43,"Error: Road retrieved. Returned address Tampines Street 43, Tampines, Northeast, 520441, Singapore"
709 JURONG WEST STREET 71,709,JURONG WEST ST 71,"1.3424975, 103.69445801807258"
739 WOODLANDS CIRCLE,739,WOODLANDS CIRCLE,"1.4443312000000001, 103.79712021257887"
411 WOODLANDS STREET 41,411,WOODLANDS ST 41,"1.4284853499999999, 103.77284355"
840 WOODLANDS STREET 82,840,WOODLANDS ST 82,"1.4438117, 103.79240945083525"
809B CHOA CHU KANG AVENUE 1,809B,CHOA CHU KANG AVE 1,"Error: Road retrieved. Returned address Choa Chu Kang Avenue 1, Choa Chu Kang, Southwest, 682296, Singapore"
487 PASIR RIS DRIVE 4,487,PASIR RIS DR 4,"1.3748464999999999, 103.96081784043801"
473B UPPER SERANGOON CRESCENT,473B,UPP SERANGOON CRES,"1.3761051499999999, 103.9010341447155"
39 CAMBRIDGE ROAD,39,CAMBRIDGE RD,"Error: Not Singapore. Returned address 39, Cambridge Road, Girton, Cambridge, Cambridgeshire, East of England, England, CB3 0PN, United Kingdom"
704 CHOA CHU KANG STREET 53,704,CHOA CHU KANG ST 53,"Error: Road retrieved. Returned address Choa Chu Kang Street 53, Northwest, 689189, Singapore"
103 TECK WHYE LANE,103,TECK WHYE LANE,"1.3771417, 103.75351614797196"
287 CHOA CHU KANG AVENUE 2,287,CHOA CHU KANG AVE 2,"1.3787714000000002, 103.74160765204765"
335B ANCHORVALE CRESCENT,335B,ANCHORVALE CRES,"1.398405, 103.888611"
150 SIMEI STREET 1,150,SIMEI ST 1,"1.3461381000000001, 103.95743200198726"
816 TAMPINES AVENUE 4,816,TAMPINES AVE 4,"1.34768945, 103.93759494844913"
573 ANG MO KIO AVENUE 3,573,ANG MO KIO AVE 3,"1.37054805, 103.85483873116061"
407 JURONG WEST STREET 42,407,JURONG WEST ST 42,"1.3547609999999999, 103.72152880498824"
486 PASIR RIS DRIVE 4,486,PASIR RIS DR 4,"1.37455515, 103.9606101779265"
466C SEMBAWANG DRIVE,466C,SEMBAWANG DR,"Error: Road retrieved. Returned address Sembawang Drive, Sembawang, Northwest, 757632, Singapore"
162 JALAN TECK WHYE,162,JLN TECK WHYE,"1.3807776999999999, 103.75782441712305"
338B KANG CHING ROAD,338B,KANG CHING RD,"1.3381328, 103.72206090414554"
104 WHAMPOA DRIVE,104,WHAMPOA DR,"1.32068995, 103.85344925947487"
569 HOUGANG STREET 51,569,HOUGANG ST 51,"1.37745915, 103.8881355717418"
577 ANG MO KIO AVENUE 10,577,ANG MO KIO AVE 10,"Error: Road retrieved. Returned address Ang Mo Kio Avenue 10, Ang Mo Kio, Singapore, Central, 560449, Singapore"
36 JALAN RUMAH TINGGI,36,JLN RUMAH TINGGI,"1.2885938000000001, 103.80898340408567"
490A CHOA CHU KANG AVENUE 5,490A,CHOA CHU KANG AVE 5,"1.3751847499999998, 103.7414243729028"
333 UBI AVENUE 1,333,UBI AVE 1,"1.32675935, 103.90309105549775"
275 TOH GUAN ROAD,275,TOH GUAN RD,"1.3410126500000001, 103.74796293320895"
320 YISHUN CENTRAL,320,YISHUN CTRL,"1.42929965, 103.84163330000001"
351 CHOA CHU KANG CENTRAL,351,CHOA CHU KANG CTRL,"1.3834953, 103.74303090253969"
234 JURONG EAST STREET 21,234,JURONG EAST ST 21,"1.33979115, 103.74185154064995"
516 JURONG WEST STREET 52,516,JURONG WEST ST 52,"1.34534, 103.72"
167C PUNGGOL EAST,167C,PUNGGOL EAST,"1.3944220999999999, 103.91478488819453"
317 SEMBAWANG VISTA,317,SEMBAWANG VISTA,"Error: Road retrieved. Returned address Sembawang Vista, Sembawang, Northwest, 757715, Singapore"
156 SIMEI ROAD,156,SIMEI RD,"1.3450517, 103.95890527056046"
168A QUEENSWAY,168A,QUEENSWAY,"Error: Not Singapore. Returned address The Queensway, Etobicoke—Lakeshore, Etobicoke, Toronto, Golden Horseshoe, Ontario, M8Z 1N5, Canada"
489C TAMPINES STREET 45,489C,TAMPINES ST 45,"1.36162525, 103.95665465356947"
536 WOODLANDS DRIVE 14,536,WOODLANDS DR 14,"1.43154835, 103.79184591004834"
25 TELOK BLANGAH CRESCENT,25,TELOK BLANGAH CRES,"1.2764034, 103.81916290050845"
114 LORONG 3 GEYLANG,114,LOR 3 GEYLANG,"1.3114813, 103.87395919650504"
439A SENGKANG WEST AVENUE,439A,SENGKANG WEST AVE,"1.39186875, 103.8777842074398"
3 TG PAGAR PLAZA,3,TG PAGAR PLAZA,"Error: Not Singapore. Returned address Pagar, 74, Riia mnt, Eeslinn, Pärnu linn, Pärnu maakond, 80020, Eesti"
340 UBI AVENUE 1,340,UBI AVE 1,"1.32643695, 103.90145738235721"
196A PUNGGOL FIELD,196A,PUNGGOL FIELD,"1.3993136499999999, 103.90680579379"
144 JALAN BUKIT MERAH,144,JLN BT MERAH,"Error: Road retrieved. Returned address Jalan Bukit Merah, Radin Mas, Bukit Merah, Singapore, Central, 169545, Singapore"
216 BISHAN STREET 23,216,BISHAN ST 23,"1.3565122, 103.84907621110693"
614A EDGEFIELD PLAINS,614A,EDGEFIELD PLAINS,"Error: Road retrieved. Returned address Edgefield Plains, Punggol, Northeast, 828850, Singapore"
6 KIM TIAN ROAD,6,KIM TIAN RD,"1.2838935999999999, 103.82733588538916"
131 CLARENCE LANE,131,CLARENCE LANE,"Error: Not Singapore. Returned address 131, Clarence Lane, Escondido, San Diego County, California, 92029, United States"
226 BISHAN STREET 23,226,BISHAN ST 23,"1.35839865, 103.84732724011607"
257 BANGKIT ROAD,257,BANGKIT RD,"1.3785138, 103.7732147"
458 SEGAR ROAD,458,SEGAR RD,"1.38800245, 103.77106537461461"
473 SEGAR ROAD,473,SEGAR RD,"Error: Road retrieved. Returned address Segar Road, Bukit Panjang, Northwest, 677738, Singapore"
118 CLEMENTI STREET 13,118,CLEMENTI ST 13,"1.3249450999999999, 103.7719240922494"
659 HOUGANG AVENUE 8,659,HOUGANG AVE 8,"Error: Road retrieved. Returned address Hougang Avenue 8, Hougang, Northeast, 530631, Singapore"
301 TAMPINES STREET 32,301,TAMPINES ST 32,"1.3532357, 103.95544481107444"
180A MARSILING ROAD,180A,MARSILING RD,"1.43906985, 103.7780999118306"
705 WOODLANDS DRIVE 40,705,WOODLANDS DR 40,"Error: Road retrieved. Returned address Woodlands Drive 40, Woodlands, Northwest, 738489, Singapore"
432D YISHUN AVENUE 1,432D,YISHUN AVE 1,"Error: Road retrieved. Returned address Yishun Avenue 1, Yishun, Northwest, 763476, Singapore"
332 ANG MO KIO AVENUE 1,332,ANG MO KIO AVE 1,"1.3616704, 103.85195465000001"
683C JURONG WEST STREET 64,683C,JURONG WEST ST 64,"1.3433274, 103.70467098577859"
170 BUKIT BATOK WEST AVENUE 8,170,BT BATOK WEST AVE 8,"1.3465523, 103.74028162127024"
379 CLEMENTI AVENUE 5,379,CLEMENTI AVE 5,"1.3179888499999999, 103.76788775226908"
8 BOON KENG ROAD,8,BOON KENG RD,"1.3164065, 103.861626131257"
614B EDGEFIELD PLAINS,614B,EDGEFIELD PLAINS,"1.40305615, 103.91008930173136"
847 TAMPINES STREET 83,847,TAMPINES ST 83,"1.3525006, 103.93498498949147"
138 POTONG PASIR AVENUE 3,138,POTONG PASIR AVE 3,"1.3335356, 103.86548382084894"
188 BUKIT BATOK WEST AVENUE 6,188,BT BATOK WEST AVE 6,"1.3462155999999998, 103.7461070359085"
683B CHOA CHU KANG CRESCENT,683B,CHOA CHU KANG CRES,"1.4038152, 103.74598558885413"
114 RIVERVALE WALK,114,RIVERVALE WALK,"1.38409845, 103.90115686424849"
705 CLEMENTI WEST STREET 2,705,CLEMENTI WEST ST 2,"1.3056139, 103.76079913984005"
58 GEYLANG BAHRU,58,GEYLANG BAHRU,"1.3232620000000002, 103.86809778623248"
139 RIVERVALE STREET,139,RIVERVALE ST,"Error: Not Singapore. Returned address Rivervale Street, Ormeau, Gold Coast City, Queensland, 4208, Australia"
504 WOODLANDS DRIVE 14,504,WOODLANDS DR 14,"1.4328018500000002, 103.79145213070612"
188 BOON LAY DRIVE,188,BOON LAY DR,"1.3438075, 103.71102615204913"
977 JURONG WEST STREET 93,977,JURONG WEST ST 93,"1.33976675, 103.69403638068223"
211D PUNGGOL WALK,211D,PUNGGOL WALK,"1.40102065, 103.89918631788635"
227 CHOA CHU KANG CENTRAL,227,CHOA CHU KANG CTRL,"1.38110055, 103.74570898569715"
682A JURONG WEST CENTRAL 1,682A,JURONG WEST CTRL 1,"1.3439763, 103.70542898937987"
530B PASIR RIS DRIVE 1,530B,PASIR RIS DR 1,"Error: Road retrieved. Returned address Pasir Ris Drive 1, Pasir Ris, Northeast, 510640, Singapore"
468A FERNVALE LINK,468A,FERNVALE LINK,"Error: Road retrieved. Returned address Fernvale Link, Fernvale, Central, 790470, Singapore"
191 BOON LAY DRIVE,191,BOON LAY DR,"1.34437465, 103.71267559043542"
108 TECK WHYE LANE,108,TECK WHYE LANE,"1.37829735, 103.7529235633391"
568 HOUGANG STREET 51,568,HOUGANG ST 51,"1.37795705, 103.88896757025897"
889B WOODLANDS DRIVE 50,889B,WOODLANDS DR 50,"1.4378148, 103.79284703290254"
152 BUKIT BATOK STREET 11,152,BT BATOK ST 11,"1.3483439000000002, 103.74426291587886"
144 PETIR ROAD,144,PETIR RD,"Error: Road retrieved. Returned address Petir Road, Bukit Panjang, Northwest, 678272, Singapore"
234 PASIR RIS DRIVE 4,234,PASIR RIS DR 4,"1.37349925, 103.96190263045702"
91 TANGLIN HALT ROAD,91,TANGLIN HALT RD,"1.30075895, 103.79942466626409"
178C RIVERVALE CRESCENT,178C,RIVERVALE CRES,"Error: Road retrieved. Returned address Rivervale Crescent, Seng Kang, Northeast, 540151, Singapore"
407 SERANGOON AVENUE 1,407,SERANGOON AVE 1,"1.3470924499999999, 103.87316474266132"
867 TAMPINES STREET 83,867,TAMPINES ST 83,"1.3551004500000001, 103.93401968015229"
688C WOODLANDS DRIVE 75,688C,WOODLANDS DR 75,NONE
317A YISHUN AVENUE 9,317A,YISHUN AVE 9,"Error: Road retrieved. Returned address Yishun Avenue 9, Yishun, Northwest, 760246, Singapore"
7 KIM TIAN PLACE,7,KIM TIAN PL,"Error: Not Singapore. Returned address 7, Nyabidi, Ngoro, Mbam-et-Kim, Centre, Cameroun"
134 TECK WHYE LANE,134,TECK WHYE LANE,"1.3802864499999998, 103.75098247084239"
14 KAMPONG ARANG ROAD,14,KG ARANG RD,"Error: Road retrieved. Returned address Kampong Arang Road, Kallang, Southeast, 438178, Singapore"
20 SAINT GEORGE'S ROAD,20,ST. GEORGE'S RD,"1.3246326499999999, 103.86296150037487"
61B STRATHMORE AVENUE,61B,STRATHMORE AVE,"Error: Not Singapore. Returned address 61, Strathmore Avenue, Buffalo, Erie County, New York, 14220, United States"
538 SERANGOON NORTH AVENUE 4,538,SERANGOON NTH AVE 4,"Error: Road retrieved. Returned address Serangoon North Avenue 4, Ang Mo Kio Industrial Park 2, Serangoon North, Singapore, Central, 555859, Singapore"
229 SIMEI STREET 4,229,SIMEI ST 4,"1.3431552500000001, 103.95609393647045"
521 JURONG WEST STREET 52,521,JURONG WEST ST 52,"1.3466874500000001, 103.71750190634037"
21 HOLLAND DRIVE,21,HOLLAND DR,"Error: Not Singapore. Returned address 21, Holland Drive, Tithebarn Green, Broadclyst, West Clyst, Exeter, Devon, South West England, England, EX1 3BL, United Kingdom"
253 TAMPINES STREET 21,253,TAMPINES ST 21,"1.3530950499999999, 103.94775713781115"
891B WOODLANDS DRIVE 50,891B,WOODLANDS DR 50,"Error: Road retrieved. Returned address Woodlands Drive 50, Woodlands, Northwest, 738853, Singapore"
833 YISHUN STREET 81,833,YISHUN ST 81,"1.4145189999999999, 103.83412035"
20 HOUGANG AVENUE 3,20,HOUGANG AVE 3,"Error: Road retrieved. Returned address Hougang Avenue 3, Hougang, Northeast, 535220, Singapore"
570 PASIR RIS STREET 53,570,PASIR RIS ST 53,"1.3727167, 103.94651264999999"
608 BEDOK RESERVOIR ROAD,608,BEDOK RESERVOIR RD,"1.3318556, 103.91316275046205"
111 GANGSA ROAD,111,GANGSA RD,"Error: Road retrieved. Returned address Gangsa Road, Bukit Panjang, Northwest, 679002, Singapore"
33 TEBAN GARDENS ROAD,33,TEBAN GDNS RD,"1.3202729500000001, 103.74186283178673"
989A JURONG WEST STREET 93,989A,JURONG WEST ST 93,"1.3359581, 103.69459176722728"
523 SERANGOON NORTH AVENUE 4,523,SERANGOON NTH AVE 4,"1.3730552500000002, 103.87288060079338"
857 TAMPINES STREET 83,857,TAMPINES ST 83,"1.3542732, 103.9359215496961"
174 LORONG 1 TOA PAYOH,174,LOR 1 TOA PAYOH,"Error: Road retrieved. Returned address Lorong 1 Toa Payoh, Toa Payoh, Singapore, Central, 313130, Singapore"
369 WOODLANDS AVENUE 1,369,WOODLANDS AVE 1,"Error: Road retrieved. Returned address Woodlands Avenue 1, Woodlands, Northwest, 739069, Singapore"
2B GEYLANG SERAI,2B,GEYLANG SERAI,"1.3173786, 103.89764465010593"
417 CANBERRA ROAD,417,CANBERRA RD,"Error: Not Singapore. Returned address Canberra Road, London Borough of Newham, London, Greater London, England, E6 2RW, United Kingdom"
4 JOO CHIAT ROAD,4,JOO CHIAT RD,"Error: Road retrieved. Returned address Joo Chiat Road, Geylang, Southeast, 427543, Singapore"
112 JURONG EAST STREET 13,112,JURONG EAST ST 13,"1.3393285000000001, 103.73609809594677"
2A UPPER BOON KENG ROAD,2A,UPP BOON KENG RD,"1.3137349999999999, 103.8721933826356"
313 JURONG EAST STREET 32,313,JURONG EAST ST 32,"1.3471221500000001, 103.7334028845238"
753 JURONG WEST STREET 74,753,JURONG WEST ST 74,"1.3485095, 103.7000361121209"
540 WOODLANDS DRIVE 16,540,WOODLANDS DR 16,"Error: Road retrieved. Returned address Woodlands Drive 16, Woodlands, Northwest, 730548, Singapore"
44 MOH GUAN TERRACE,44,MOH GUAN TER,"Error: Road retrieved. Returned address Moh Guan Terrace, Tiong Bahru Estate, Bukit Merah, Singapore, Central, 169715, Singapore"
4 MARINE TERRACE,4,MARINE TER,"1.3051042499999999, 103.91766190891835"
439 ANG MO KIO AVENUE 10,439,ANG MO KIO AVE 10,"Error: Road retrieved. Returned address Ang Mo Kio Avenue 10, Ang Mo Kio, Singapore, Central, 560449, Singapore"
425 CLEMENTI AVENUE 1,425,CLEMENTI AVE 1,"1.3096679500000001, 103.77133130904953"
308 HOUGANG AVENUE 5,308,HOUGANG AVE 5,"1.3669035, 103.89572964503105"
420 CANBERRA ROAD,420,CANBERRA RD,"1.45251745, 103.81854416011817"
334C ANCHORVALE CRESCENT,334C,ANCHORVALE CRES,"1.3974189, 103.88980257103674"
282C SENGKANG EAST AVENUE,282C,SENGKANG EAST AVE,"1.38511875, 103.89247005"
326B ANCHORVALE ROAD,326B,ANCHORVALE RD,"1.3952805, 103.8880436"
295C COMPASSVALE CRESCENT,295C,COMPASSVALE CRES,"1.39733995, 103.89998269682573"
139A LORONG 1A TOA PAYOH,139A,LOR 1A TOA PAYOH,"1.3362491, 103.84398744992941"
523 JELAPANG ROAD,523,JELAPANG RD,"Error: Road retrieved. Returned address Jelapang Road, Bukit Panjang, Northwest, 671524, Singapore"
416A FERNVALE LINK,416A,FERNVALE LINK,"1.3905714, 103.87994445000001"
655 WOODLANDS RING ROAD,655,WOODLANDS RING RD,"1.43736665, 103.7983188246125"
103 YISHUN RING ROAD,103,YISHUN RING RD,"1.4315468, 103.8293342"
167 BISHAN STREET 13,167,BISHAN ST 13,"1.34809155, 103.85516069230769"
528 JELAPANG ROAD,528,JELAPANG RD,"Error: Road retrieved. Returned address Jelapang Road, Bukit Panjang, Northwest, 671524, Singapore"
666A YISHUN AVENUE 4,666A,YISHUN AVE 4,"1.41921285, 103.84009439207945"
215 ANG MO KIO AVENUE 1,215,ANG MO KIO AVE 1,"1.3666063, 103.8415379"
877 WOODLANDS AVENUE 9,877,WOODLANDS AVE 9,"1.4451336000000001, 103.79133516089199"
716 BEDOK RESERVOIR ROAD,716,BEDOK RESERVOIR RD,"1.3378126, 103.92484650903856"
245 TAMPINES STREET 21,245,TAMPINES ST 21,"1.35291835, 103.94652773364531"
125 YISHUN STREET 11,125,YISHUN ST 11,"Error: Road retrieved. Returned address Yishun Street 11, Yishun, Northwest, 768643, Singapore"
2C BOON TIONG ROAD,2C,BOON TIONG RD,"Error: Road retrieved. Returned address Boon Tiong Road, Boon Tiong Aracadia, Bukit Merah, Singapore, Central, 163028, Singapore"
485C CHOA CHU KANG AVENUE 5,485C,CHOA CHU KANG AVE 5,"1.37478745, 103.73898142661614"
517 WOODLANDS DRIVE 14,517,WOODLANDS DR 14,"1.4338503, 103.79169997617285"
730 YISHUN STREET 71,730,YISHUN ST 71,"1.42682485, 103.83180125416581"
569 CHOA CHU KANG STREET 52,569,CHOA CHU KANG ST 52,"Error: Road retrieved. Returned address Choa Chu Kang Street 52, Northwest, 689286, Singapore"
361 YUNG AN ROAD,361,YUNG AN RD,"1.33605935, 103.72057216479058"
542 CHOA CHU KANG STREET 52,542,CHOA CHU KANG ST 52,"Error: Road retrieved. Returned address Choa Chu Kang Street 52, Northwest, 689286, Singapore"
464 PASIR RIS STREET 41,464,PASIR RIS ST 41,"1.37292415, 103.95862998447834"
756 PASIR RIS STREET 71,756,PASIR RIS ST 71,"1.3779303999999999, 103.9336377306679"
121B EDGEDALE PLAINS,121B,EDGEDALE PLAINS,"Error: Road retrieved. Returned address Edgedale Plains, Punggol, Northeast, 828867, Singapore"
820 TAMPINES STREET 81,820,TAMPINES ST 81,"1.3483046, 103.9362714"
15 BEDOK SOUTH ROAD,15,BEDOK STH RD,"1.3209048, 103.93570097098709"
414 ANG MO KIO AVENUE 10,414,ANG MO KIO AVE 10,"Error: Road retrieved. Returned address Ang Mo Kio Avenue 10, Ang Mo Kio, Singapore, Central, 560449, Singapore"
117 TECK WHYE LANE,117,TECK WHYE LANE,"1.3794641, 103.75143890689176"
212 BOON LAY PLACE,212,BOON LAY PL,"1.3491349000000001, 103.71306184451656"
133 CLARENCE LANE,133,CLARENCE LANE,"1.29228525, 103.81468910047809"
503 WOODLANDS DRIVE 14,503,WOODLANDS DR 14,"1.4325807, 103.79166614453915"
202 BEDOK NORTH STREET 1,202,BEDOK NTH ST 1,"1.3255952999999998, 103.92797144534538"
125 BUKIT BATOK CENTRAL,125,BT BATOK CTRL,"1.3513476999999998, 103.74683637584404"
632 CHOA CHU KANG NORTH 6,632,CHOA CHU KANG NTH 6,"Error: Road retrieved. Returned address Choa Chu Kang North 6, Northwest, 689579, Singapore"
450 CLEMENTI AVENUE 3,450,CLEMENTI AVE 3,"1.3133614, 103.7655915"
452 JURONG WEST STREET 42,452,JURONG WEST ST 42,"1.35147335, 103.71894992408536"
627 YISHUN STREET 61,627,YISHUN ST 61,"1.4176979, 103.8371361"
21 CHAI CHEE ROAD,21,CHAI CHEE RD,"1.32594485, 103.92218540126314"
655 SENJA ROAD,655,SENJA RD,"Error: Road retrieved. Returned address Senja Road, Bukit Panjang, Northwest, 677741, Singapore"
512 WEST COAST DRIVE,512,WEST COAST DR,"1.30994135, 103.76029286287002"
415 EUNOS ROAD 5,415,EUNOS RD 5,"1.31832005, 103.89765929685232"
207B PUNGGOL PLACE,207B,PUNGGOL PL,"1.4003564, 103.90072783183977"
140 TAMPINES STREET 12,140,TAMPINES ST 12,"1.34760725, 103.94384368496466"
687A WOODLANDS DRIVE 75,687A,WOODLANDS DR 75,NONE
327 JURONG EAST STREET 31,327,JURONG EAST ST 31,"1.34911275, 103.72897574067169"
730 JURONG WEST STREET 72,730,JURONG WEST ST 72,"1.3461351499999998, 103.69848125783784"
268D PUNGGOL FIELD,268D,PUNGGOL FIELD,"1.4026665, 103.8986331"
421 CANBERRA ROAD,421,CANBERRA RD,"1.4530214, 103.81868710154471"
416 HOUGANG AVENUE 10,416,HOUGANG AVE 10,"1.37549715, 103.89590769357298"
410 JURONG WEST STREET 42,410,JURONG WEST ST 42,"1.3536312, 103.72646420851197"
162A PUNGGOL CENTRAL,162A,PUNGGOL CTRL,"1.39655385, 103.91426623866086"
202 TAMPINES STREET 21,202,TAMPINES ST 21,"1.3526463, 103.9520751"
243 BUKIT PANJANG RING ROAD,243,BT PANJANG RING RD,"Error: Road retrieved. Returned address Bukit Panjang Ring Road, Bukit Panjang, Northwest, 679910, Singapore"
494B TAMPINES AVENUE 9,494B,TAMPINES AVE 9,"1.3631851, 103.95287711434534"
777 PASIR RIS STREET 71,777,PASIR RIS ST 71,"1.37514745, 103.93753814531422"
885 TAMPINES STREET 83,885,TAMPINES ST 83,"1.35108205, 103.93292968071783"
171 BUKIT BATOK WEST AVENUE 8,171,BT BATOK WEST AVE 8,"1.3461390500000001, 103.74047748117131"
612A PUNGGOL DRIVE,612A,PUNGGOL DR,"1.40425265, 103.90919342108532"
201 PETIR ROAD,201,PETIR RD,"1.371953, 103.77539901404855"
408 PANDAN GARDENS,408,PANDAN GDNS,"1.31815355, 103.74896958759695"
445 ANG MO KIO AVENUE 10,445,ANG MO KIO AVE 10,"Error: Road retrieved. Returned address Ang Mo Kio Avenue 10, Ang Mo Kio, Singapore, Central, 560449, Singapore"
269B QUEEN STREET,269B,QUEEN ST,"Error: Not Singapore. Returned address Queen Caroline Street, Brook Green, London Borough of Hammersmith and Fulham, London, Greater London, England, W6 9BN, United Kingdom"
487 ADMIRALTY LINK,487,ADMIRALTY LINK,"1.4556422, 103.81612013217614"
272 TAMPINES STREET 22,272,TAMPINES ST 22,"1.34892575, 103.9507634"
687B CHOA CHU KANG DRIVE,687B,CHOA CHU KANG DR,"Error: Road retrieved. Returned address Choa Chu Kang Drive, Choa Chu Kang, Southwest, 689717, Singapore"
477A UPPER SERANGOON VIEW,477A,UPP SERANGOON VIEW,"Error: Road retrieved. Returned address Upper Serangoon View, Hougang, Northeast, 530476, Singapore"
3 SAINT GEORGE'S ROAD,3,ST. GEORGE'S RD,"Error: Not Singapore. Returned address 3, Saint George's Road, Finglas North C ED, Dublin, Dublin 11, Leinster, D11 F76T, Éire / Ireland"
112 COMMONWEALTH CRESCENT,112,C'WEALTH CRES,"1.30657505, 103.7982319127443"
52 LENGKOK BAHRU,52,LENGKOK BAHRU,"1.2884463, 103.81290108231828"
613C PUNGGOL DRIVE,613C,PUNGGOL DR,"1.40409795, 103.90853774428003"
261B PUNGGOL WAY,261B,PUNGGOL WAY,"1.40599755, 103.89651737716495"
543 SERANGOON NORTH AVENUE 3,543,SERANGOON NTH AVE 3,"Error: Road retrieved. Returned address Serangoon North Avenue 3, Serangoon North, Singapore, Central, 550102, Singapore"
510 ANG MO KIO AVENUE 8,510,ANG MO KIO AVE 8,"1.3734035, 103.84908135"
109 ANG MO KIO AVENUE 4,109,ANG MO KIO AVE 4,"Error: Road retrieved. Returned address Ang Mo Kio Avenue 4, Ang Mo Kio, Singapore, Central, 568987, Singapore"
257 BISHAN STREET 22,257,BISHAN ST 22,"Error: Road retrieved. Returned address Bishan Street 22, Bishan, Singapore, Central, 570282, Singapore"
241 JURONG EAST STREET 24,241,JURONG EAST ST 24,"Error: Road retrieved. Returned address Jurong East Street 24, Jurong East, Southwest, 600229, Singapore"
18 GHIM MOH ROAD,18,GHIM MOH RD,"1.31013505, 103.78700515429004"
91 DAWSON ROAD,91,DAWSON RD,"Error: Not Singapore. Returned address Dawson Road, Dawson, Shelby County, Ohio, 45845, United States"
612 WOODLANDS AVENUE 4,612,WOODLANDS AVE 4,"1.4350035, 103.79700965919004"
438 YISHUN AVENUE 11,438,YISHUN AVE 11,"1.4216361499999999, 103.8461074263226"
296D CHOA CHU KANG AVENUE 2,296D,CHOA CHU KANG AVE 2,"1.3766645999999998, 103.7428884692903"
630 HOUGANG AVENUE 8,630,HOUGANG AVE 8,"1.3702947, 103.88109724856642"
845 TAMPINES STREET 83,845,TAMPINES ST 83,"1.3521463, 103.93496501285641"
557 WOODLANDS DRIVE 53,557,WOODLANDS DR 53,"Error: Road retrieved. Returned address Woodlands Drive 53, Woodlands, Northwest, 738240, Singapore"
422 CHOA CHU KANG AVENUE 4,422,CHOA CHU KANG AVE 4,"1.382201, 103.74103214560282"
282 TOH GUAN ROAD,282,TOH GUAN RD,"1.33957565, 103.74723375968756"
2D UPPER BOON KENG ROAD,2D,UPP BOON KENG RD,"1.3131895, 103.87234086458554"
3 MARINE TERRACE,3,MARINE TER,"1.3040916500000002, 103.91772413463025"
251 PASIR RIS STREET 21,251,PASIR RIS ST 21,"1.37047055, 103.96238834763683"
257 SERANGOON CENTRAL DRIVE,257,SERANGOON CTRL DR,"1.3550935, 103.87206759172636"
299 YISHUN STREET 20,299,YISHUN ST 20,"Error: Road retrieved. Returned address Yishun Street 20, Yishun, Northwest, 760291, Singapore"
615 ANG MO KIO AVENUE 4,615,ANG MO KIO AVE 4,"1.3775341, 103.83932784155203"
305 SERANGOON AVENUE 2,305,SERANGOON AVE 2,"Error: Road retrieved. Returned address Serangoon Avenue 2, Serangoon, Southeast, 556138, Singapore"
737 JURONG WEST STREET 75,737,JURONG WEST ST 75,"1.34664805, 103.70105921607447"
791 WOODLANDS AVENUE 6,791,WOODLANDS AVE 6,"1.44276575, 103.80218208588403"
769 WOODLANDS DRIVE 60,769,WOODLANDS DR 60,"1.4471180000000001, 103.79874249492886"
19 DOVER CRESCENT,19,DOVER CRES,"1.30779005, 103.78372514328295"
255 TAMPINES STREET 21,255,TAMPINES ST 21,"1.3529237, 103.95044668223495"
508 WOODLANDS DRIVE 14,508,WOODLANDS DR 14,"Error: Road retrieved. Returned address Woodlands Drive 14, Fragrant Woods, Woodlands, Northwest, 738079, Singapore"
729 TAMPINES STREET 71,729,TAMPINES ST 71,"1.35639285, 103.93403916780636"
488 JURONG WEST AVENUE 1,488,JURONG WEST AVE 1,"1.3490513, 103.72621093595791"
353 ANG MO KIO STREET 32,353,ANG MO KIO ST 32,"1.3640154500000001, 103.8516217737573"
649B JURONG WEST STREET 61,649B,JURONG WEST ST 61,"1.3380705000000002, 103.69835701014512"
527B PASIR RIS STREET 51,527B,PASIR RIS ST 51,"1.36908325, 103.94783080547919"
158 MEI LING STREET,158,MEI LING ST,"1.29269905, 103.80286422683048"
809 TAMPINES AVENUE 4,809,TAMPINES AVE 4,"1.3461056500000002, 103.93652529545663"
609 YISHUN STREET 61,609,YISHUN ST 61,"1.4209385, 103.8361094498475"
603 YISHUN STREET 61,603,YISHUN ST 61,"Error: Road retrieved. Returned address Yishun Street 61, Nee Soon Central Meadows, Yishun, Northwest, 768548, Singapore"
456 ANG MO KIO AVENUE 10,456,ANG MO KIO AVE 10,"Error: Road retrieved. Returned address Ang Mo Kio Avenue 10, Ang Mo Kio, Singapore, Central, 560449, Singapore"
762 CHOA CHU KANG NORTH 5,762,CHOA CHU KANG NTH 5,"Error: Road retrieved. Returned address Choa Chu Kang North 5, Northwest, 680533, Singapore"
26 BENDEMEER ROAD,26,BENDEMEER RD,"1.3188431, 103.8628005"
103 WOODLANDS STREET 13,103,WOODLANDS ST 13,"1.4365928000000001, 103.78106486331708"
740 WOODLANDS CIRCLE,740,WOODLANDS CIRCLE,"1.44449745, 103.79627585966563"
894C WOODLANDS DRIVE 50,894C,WOODLANDS DR 50,"Error: Road retrieved. Returned address Woodlands Drive 50, Woodlands, Northwest, 738853, Singapore"
215 YISHUN STREET 21,215,YISHUN ST 21,"Error: Road retrieved. Returned address Yishun Street 21, Yishun, Northwest, 768610, Singapore"
519 BEDOK NORTH AVENUE 1,519,BEDOK NTH AVE 1,"1.3308474000000001, 103.92803145808702"
224 BISHAN STREET 23,224,BISHAN ST 23,"1.3589117, 103.8477488312565"
288 CHOA CHU KANG AVENUE 3,288,CHOA CHU KANG AVE 3,"1.37909025, 103.74131467494081"
409 HOUGANG AVENUE 10,409,HOUGANG AVE 10,"1.37375295, 103.89501319510364"
502 JURONG WEST AVENUE 1,502,JURONG WEST AVE 1,"1.3504414, 103.7181864"
51 COMMONWEALTH DRIVE,51,C'WEALTH DR,"Error: Not Singapore. Returned address 51, Commonwealth Drive, Town of Bethlehem, Albany County, New York, 12077, United States"
42 HOLLAND DRIVE,42,HOLLAND DR,"1.3078388, 103.7929045"
986C JURONG WEST STREET 93,986C,JURONG WEST ST 93,"1.3369856, 103.69562761636234"
686A JURONG WEST CENTRAL 1,686A,JURONG WEST CTRL 1,"1.3417407, 103.70482042841977"
222 YISHUN STREET 21,222,YISHUN ST 21,"1.434014, 103.83570602360987"
333D ANCHORVALE LINK,333D,ANCHORVALE LINK,"1.39423435, 103.89218547352408"
537 WOODLANDS DRIVE 16,537,WOODLANDS DR 16,"Error: Road retrieved. Returned address Woodlands Drive 16, Woodlands, Northwest, 730548, Singapore"
107 BEDOK RESERVOIR ROAD,107,BEDOK RESERVOIR RD,"1.3298725500000002, 103.90923587702021"
12 PINE CLOSE,12,PINE CL,"1.30870785, 103.88211432339497"
9 SAINT GEORGE'S ROAD,9,ST. GEORGE'S RD,"1.3237619999999999, 103.86309478997373"
426 PASIR RIS DRIVE 6,426,PASIR RIS DR 6,"1.3699929499999999, 103.95576045"
266 PASIR RIS STREET 21,266,PASIR RIS ST 21,"1.36619535, 103.96380661767013"
620 ANG MO KIO AVENUE 9,620,ANG MO KIO AVE 9,"Error: Road retrieved. Returned address Ang Mo Kio Avenue 9, Ang Mo Kio, Singapore, Central, 569845, Singapore"
746 PASIR RIS STREET 71,746,PASIR RIS ST 71,"1.3786390499999999, 103.93522473708886"
484C CHOA CHU KANG AVENUE 5,484C,CHOA CHU KANG AVE 5,"1.3755913, 103.73705601811437"
635A PUNGGOL DRIVE,635A,PUNGGOL DR,"1.4009318, 103.91370832098244"
495C TAMPINES STREET 43,495C,TAMPINES ST 43,"1.36328165, 103.95160973902888"
497D TAMPINES STREET 45,497D,TAMPINES ST 45,"1.3588586, 103.95915958993535"
423 ANG MO KIO AVENUE 3,423,ANG MO KIO AVE 3,"Error: Road retrieved. Returned address Ang Mo Kio Avenue 3, Ang Mo Kio, Singapore, Central, 560564, Singapore"
370 BUKIT BATOK STREET 31,370,BT BATOK ST 31,"1.3599577, 103.749307"
26A JALAN MEMBINA,26A,JLN MEMBINA,"Error: Road retrieved. Returned address Jalan Membina, Bukit Merah, Singapore, Central, 169485, Singapore"
106 TECK WHYE LANE,106,TECK WHYE LANE,"1.37792195, 103.75288526328126"
423 CLEMENTI AVENUE 1,423,CLEMENTI AVE 1,"1.30939215, 103.76982565764946"
44 CIRCUIT ROAD,44,CIRCUIT RD,"1.3266363499999998, 103.88614915377316"
628 HOUGANG AVENUE 8,628,HOUGANG AVE 8,"Error: Road retrieved. Returned address Hougang Avenue 8, Hougang, Northeast, 530631, Singapore"
309 JURONG EAST STREET 32,309,JURONG EAST ST 32,"1.3476173999999999, 103.73435991274481"
838 JURONG WEST STREET 81,838,JURONG WEST ST 81,"1.3438042, 103.69379"
302B ANCHORVALE LINK,302B,ANCHORVALE LINK,"1.3879771500000002, 103.89086250392197"
224 SERANGOON AVENUE 4,224,SERANGOON AVE 4,"1.35720645, 103.87083895"
106 SIMEI STREET 1,106,SIMEI ST 1,"1.3418396499999998, 103.95078257827369"
44 LORONG 5 TOA PAYOH,44,LOR 5 TOA PAYOH,"1.33636455, 103.85406212647864"
160 BEDOK SOUTH AVENUE 3,160,BEDOK STH AVE 3,"1.31921635, 103.94512732600873"
909 JURONG WEST STREET 91,909,JURONG WEST ST 91,"1.3413012000000002, 103.68625682429985"
987A JURONG WEST STREET 93,987A,JURONG WEST ST 93,"1.33650875, 103.69449715589988"
105B EDGEFIELD PLAINS,105B,EDGEFIELD PLAINS,"1.3973125, 103.90609014831072"
164 TAMPINES STREET 12,164,TAMPINES ST 12,"1.34960845, 103.94600650000001"
603 ANG MO KIO AVENUE 5,603,ANG MO KIO AVE 5,"1.3801792, 103.83575158255286"
127 BEDOK NORTH STREET 2,127,BEDOK NTH ST 2,"1.32796925, 103.93788750891991"
53 GEYLANG BAHRU,53,GEYLANG BAHRU,"1.3243029, 103.86821328142662"
478 PASIR RIS DRIVE 4,478,PASIR RIS DR 4,"1.3748298, 103.95885115066406"
80 STRATHMORE AVENUE,80,STRATHMORE AVE,"Error: Not Singapore. Returned address 80, Strathmore Avenue, Buffalo, Erie County, New York, 14220, United States"
228A COMPASSVALE WALK,228A,COMPASSVALE WALK,"1.38750885, 103.90133720633824"
416 YISHUN AVENUE 11,416,YISHUN AVE 11,"1.4238383, 103.84587859919137"
6 HAIG ROAD,6,HAIG RD,"1.31317605, 103.8972381984271"
853 JURONG WEST STREET 81,853,JURONG WEST ST 81,"1.3472266, 103.6931766"
160A PUNGGOL CENTRAL,160A,PUNGGOL CTRL,"1.3954619, 103.91572809995864"
27 CHAI CHEE ROAD,27,CHAI CHEE RD,"1.3241630500000001, 103.92350032780476"
603 ELIAS ROAD,603,ELIAS RD,"1.3768389, 103.9437212213609"
256D SUMANG WALK,256D,SUMANG WALK,"1.4049666, 103.89601741619288"
186D RIVERVALE DRIVE,186D,RIVERVALE DR,"Error: Not Singapore. Returned address Rivervale Drive, Santa Cruz County, California, 95073, United States"
535 SERANGOON NORTH AVENUE 4,535,SERANGOON NTH AVE 4,"1.3737636, 103.8739271"
739 TAMPINES STREET 72,739,TAMPINES ST 72,"1.3592118499999999, 103.93319614958835"
170 BISHAN STREET 13,170,BISHAN ST 13,"1.3464781000000001, 103.85333894493071"
221 PASIR RIS STREET 21,221,PASIR RIS ST 21,"1.3705726999999999, 103.96195252960675"
476 TAMPINES STREET 44,476,TAMPINES ST 44,"1.3608498500000001, 103.95375346984822"
631 PASIR RIS DRIVE 3,631,PASIR RIS DR 3,"1.37884935, 103.94025879029988"
70 REDHILL CLOSE,70,REDHILL CL,"Error: Road retrieved. Returned address Redhill Close, Bukit Merah, Singapore, Central, 150070, Singapore"
43A SIMS DRIVE,43A,SIMS DR,"Error: Not Singapore. Returned address 43, Sims Drive, Redwood, Suffolk County, New York, 11963, United States"
168 STIRLING ROAD,168,STIRLING RD,"Error: Not Singapore. Returned address Stirling Road, Berea, Buffalo City Ward 18, East London, Buffalo City Metropolitan Municipality, Eastern Cape, 5241, South Africa"
36 BEDOK SOUTH AVENUE 2,36,BEDOK STH AVE 2,"1.32161045, 103.93840211560789"
113 HOUGANG AVENUE 1,113,HOUGANG AVE 1,"1.3534827, 103.88851435566232"
135 EDGEDALE PLAINS,135,EDGEDALE PLAINS,"Error: Road retrieved. Returned address Edgedale Plains, Punggol, Northeast, 828867, Singapore"
617C PUNGGOL DRIVE,617C,PUNGGOL DR,"1.4019221499999999, 103.9125164732976"
432 TAMPINES STREET 41,432,TAMPINES ST 41,"1.35899795, 103.9508285852457"
286 BISHAN STREET 24,286,BISHAN ST 24,"1.3584436000000002, 103.84388387762067"
229 BUKIT BATOK EAST AVENUE 3,229,BT BATOK EAST AVE 3,"1.3481872, 103.75487319044716"
402 BUKIT BATOK WEST AVENUE 7,402,BT BATOK WEST AVE 7,"1.3647027999999999, 103.74430704032059"
9B BOON TIONG ROAD,9B,BOON TIONG RD,"Error: Road retrieved. Returned address Boon Tiong Road, Boon Tiong Aracadia, Bukit Merah, Singapore, Central, 163028, Singapore"
634 JURONG WEST STREET 65,634,JURONG WEST ST 65,"1.34307965, 103.69896927651277"
609 BUKIT PANJANG RING ROAD,609,BT PANJANG RING RD,"Error: Road retrieved. Returned address Bukit Panjang Ring Road, Bukit Panjang, Northwest, 679910, Singapore"
27 MARSILING DRIVE,27,MARSILING DR,"1.4421211, 103.7740205"
164 BUKIT BATOK STREET 11,164,BT BATOK ST 11,"1.3477348, 103.7429478"
405 ANG MO KIO AVENUE 10,405,ANG MO KIO AVE 10,"Error: Road retrieved. Returned address Ang Mo Kio Avenue 10, Ang Mo Kio, Singapore, Central, 560449, Singapore"
634A SENJA ROAD,634A,SENJA RD,"Error: Road retrieved. Returned address Senja Road, Bukit Panjang, Northwest, 677741, Singapore"
155 GANGSA ROAD,155,GANGSA RD,"Error: Road retrieved. Returned address Gangsa Road, Bukit Panjang, Northwest, 679002, Singapore"
262 WATERLOO STREET,262,WATERLOO ST,"Error: Not Singapore. Returned address 262, Waterloo Street, Waterloo, Warner, Merrimack County, New Hampshire, 03278, United States"
651B JURONG WEST STREET 61,651B,JURONG WEST ST 61,"1.3370769, 103.69841826050029"
683A JURONG WEST CENTRAL 1,683A,JURONG WEST CTRL 1,"1.3426255, 103.7054145"
104 TAMPINES STREET 11,104,TAMPINES ST 11,"1.3471929, 103.9466771572083"
516 JELAPANG ROAD,516,JELAPANG RD,"Error: Road retrieved. Returned address Jelapang Road, Bukit Panjang, Northwest, 671524, Singapore"
435 CLEMENTI AVENUE 3,435,CLEMENTI AVE 3,"1.31457215, 103.76258260024346"
416 CLEMENTI AVENUE 1,416,CLEMENTI AVE 1,"1.31039935, 103.77128692605824"
350 UBI AVENUE 1,350,UBI AVE 1,"1.32578905, 103.90130187263381"
35 TELOK BLANGAH RISE,35,TELOK BLANGAH RISE,"1.27284785, 103.82203548279838"
935 JURONG WEST STREET 91,935,JURONG WEST ST 91,"1.34267665, 103.68833535775356"
46 OWEN ROAD,46,OWEN RD,"Error: Not Singapore. Returned address 46, Owen Road, Victory Park, New Rochelle, Westchester County, New York, 10804, United States"
118 BEDOK RESERVOIR ROAD,118,BEDOK RESERVOIR RD,"1.3311193499999998, 103.90915084096397"
708 TAMPINES STREET 71,708,TAMPINES ST 71,"1.35807495, 103.9365856588472"
204A PUNGGOL FIELD,204A,PUNGGOL FIELD,"Error: Road retrieved. Returned address Punggol Field, Punggol Cove, Punggol, Northeast, 820198, Singapore"
190B RIVERVALE DRIVE,190B,RIVERVALE DR,"1.3942802, 103.90212688801185"
322 ANG MO KIO AVENUE 3,322,ANG MO KIO AVE 3,"1.3683078, 103.8477606"
928 TAMPINES STREET 91,928,TAMPINES ST 91,"1.3460367500000001, 103.94022527227364"
889D WOODLANDS DRIVE 50,889D,WOODLANDS DR 50,"1.43780405, 103.7918934936221"
548 CHOA CHU KANG STREET 52,548,CHOA CHU KANG ST 52,"Error: Road retrieved. Returned address Choa Chu Kang Street 52, Northwest, 689286, Singapore"
265 TOH GUAN ROAD,265,TOH GUAN RD,"1.3406978999999999, 103.7445759976011"
207 PETIR ROAD,207,PETIR RD,"1.3736739, 103.77489856172781"
275B JURONG WEST STREET 25,275B,JURONG WEST ST 25,"Error: Road retrieved. Returned address Jurong West Street 25, Jurong West, Southwest, 644276, Singapore"
656C JURONG WEST STREET 61,656C,JURONG WEST ST 61,"1.33597665, 103.69996229599093"
635B PUNGGOL DRIVE,635B,PUNGGOL DR,"1.40078485, 103.91391754848027"
62A STRATHMORE AVENUE,62A,STRATHMORE AVE,"Error: Not Singapore. Returned address 62, Strathmore Avenue, Buffalo, Erie County, New York, 14220, United States"
204C COMPASSVALE DRIVE,204C,COMPASSVALE DR,"Error: Road retrieved. Returned address Compassvale Drive, Seng Kang, Northeast, 544749, Singapore"
342 TAMPINES STREET 33,342,TAMPINES ST 33,"1.35134015, 103.96199358028048"
756 WOODLANDS AVENUE 4,756,WOODLANDS AVE 4,"Error: Road retrieved. Returned address Woodlands Avenue 4, Woodlands, Northwest, 738908, Singapore"
710 YISHUN AVENUE 5,710,YISHUN AVE 5,"Error: Road retrieved. Returned address Yishun Avenue 5, Yishun, Northwest, 760743, Singapore"
163 BISHAN STREET 13,163,BISHAN ST 13,"1.34804965, 103.85624215899776"
622 SENJA ROAD,622,SENJA RD,"Error: Road retrieved. Returned address Senja Road, Bukit Panjang, Northwest, 677741, Singapore"
438 FAJAR ROAD,438,FAJAR RD,"Error: Road retrieved. Returned address Fajar Road, Bukit Panjang, Northwest, 673443, Singapore"
503 JURONG WEST AVENUE 1,503,JURONG WEST AVE 1,"1.3499421, 103.7177208"
908 JURONG WEST STREET 91,908,JURONG WEST ST 91,"1.34051435, 103.68638314962686"
101D PUNGGOL FIELD,101D,PUNGGOL FIELD,"1.3985751, 103.9062532957754"
196D PUNGGOL FIELD,196D,PUNGGOL FIELD,"Error: Road retrieved. Returned address Punggol Field, Punggol Cove, Punggol, Northeast, 820198, Singapore"
779 WOODLANDS CRESCENT,779,WOODLANDS CRES,"Error: Road retrieved. Returned address Woodlands Crescent, Woodlands, Northwest, 733783, Singapore"
297C CHOA CHU KANG AVENUE 2,297C,CHOA CHU KANG AVE 2,"1.37783935, 103.74309915954723"
122 ANG MO KIO AVENUE 3,122,ANG MO KIO AVE 3,"Error: Road retrieved. Returned address Ang Mo Kio Avenue 3, Ang Mo Kio, Singapore, Central, 560122, Singapore"
95 BEDOK NORTH AVENUE 4,95,BEDOK NTH AVE 4,"1.33386955, 103.94216063211398"
541 BEDOK NORTH STREET 3,541,BEDOK NTH ST 3,"1.331316, 103.92294769293812"
511 JELAPANG ROAD,511,JELAPANG RD,"Error: Road retrieved. Returned address Jelapang Road, Bukit Panjang, Northwest, 671524, Singapore"
101 WHAMPOA DRIVE,101,WHAMPOA DR,"1.32042995, 103.85388519940128"
501A WELLINGTON CIRCLE,501A,WELLINGTON CIRCLE,"Error: Not Singapore. Returned address 501, Wellington Circle, Rochester Hills, Oakland County, Michigan, 48309, United States"
203 TAMPINES STREET 21,203,TAMPINES ST 21,"1.3524424499999999, 103.95261286175057"
637 YISHUN STREET 61,637,YISHUN ST 61,"1.4200754999999998, 103.83922468830998"
236 BUKIT BATOK EAST AVENUE 5,236,BT BATOK EAST AVE 5,"1.34923825, 103.75611824634574"
413 PASIR RIS DRIVE 6,413,PASIR RIS DR 6,"1.37271885, 103.95552525"
472B FERNVALE STREET,472B,FERNVALE ST,"1.39685875, 103.88109881992503"
125 KIM TIAN ROAD,125,KIM TIAN RD,"Error: Road retrieved. Returned address Kim Tian Road, Bukit Merah, Singapore, Central, 169252, Singapore"
542 JURONG WEST AVENUE 1,542,JURONG WEST AVE 1,"1.3513024, 103.71550582603942"
17 DOVER CRESCENT,17,DOVER CRES,"1.3076417, 103.78293154793337"
265E COMPASSVALE BOW,265E,COMPASSVALE BOW,"Error: Road retrieved. Returned address Compassvale Bow, Seng Kang, Northeast, 544275, Singapore"
161 TAMPINES STREET 12,161,TAMPINES ST 12,"1.3499592, 103.94600085228083"
508 BUKIT BATOK STREET 52,508,BT BATOK ST 52,"1.3525779500000001, 103.75442969879404"
570 CHOA CHU KANG STREET 52,570,CHOA CHU KANG ST 52,"1.3942521, 103.74462335567307"
318B ANCHORVALE LINK,318B,ANCHORVALE LINK,"1.3939865, 103.8892811"
727 JURONG WEST AVENUE 5,727,JURONG WEST AVE 5,"1.3457727, 103.69769950287382"
503 PASIR RIS STREET 52,503,PASIR RIS ST 52,"1.37568695, 103.9454448803176"
131 CASHEW ROAD,131,CASHEW RD,"Error: Not Singapore. Returned address 131, Cashew Road, Greensboro, Hale County, Alabama, 36744, United States"
584 PASIR RIS STREET 53,584,PASIR RIS ST 53,"1.3749665, 103.94722216613508"
25 TEBAN GARDENS ROAD,25,TEBAN GDNS RD,"1.3230783, 103.73790986148292"
570 ANG MO KIO AVENUE 3,570,ANG MO KIO AVE 3,"Error: Road retrieved. Returned address Ang Mo Kio Avenue 3, Ang Mo Kio, Singapore, Central, 560564, Singapore"
718 BEDOK RESERVOIR ROAD,718,BEDOK RESERVOIR RD,"1.3368886999999998, 103.92528330870982"
148 SILAT AVENUE,148,SILAT AVE,"1.2768793999999999, 103.83088718992096"
636B SENJA ROAD,636B,SENJA RD,"1.38755575, 103.7583305449773"
138A YUAN CHING ROAD,138A,YUAN CHING RD,"Error: Road retrieved. Returned address Yuan Ching Road, Jurong East, Southwest, 649845, Singapore"
259C PUNGGOL FIELD,259C,PUNGGOL FIELD,"1.4044862, 103.89569519226804"
214 LORONG 8 TOA PAYOH,214,LOR 8 TOA PAYOH,"Error: Road retrieved. Returned address Lorong 8 Toa Payoh, Toa Payoh, Singapore, Central, 310229, Singapore"
120 MARSILING RISE,120,MARSILING RISE,"1.43907045, 103.78097317213496"
596B ANG MO KIO STREET 52,596B,ANG MO KIO ST 52,"Error: Road retrieved. Returned address Ang Mo Kio Street 52, Ang Mo Kio, Singapore, Central, 560525, Singapore"
607 CHOA CHU KANG STREET 62,607,CHOA CHU KANG ST 62,"Error: Road retrieved. Returned address Choa Chu Kang Street 62, Northwest, 680627, Singapore"
190 PASIR RIS STREET 12,190,PASIR RIS ST 12,"1.3655309, 103.95873804399855"
306 ANG MO KIO AVENUE 1,306,ANG MO KIO AVE 1,"Error: Road retrieved. Returned address Ang Mo Kio Avenue 1, Ang Mo Kio, Singapore, Central, 560218, Singapore"
271 BISHAN STREET 24,271,BISHAN ST 24,"1.3566071499999999, 103.8422612080831"
352 BUKIT BATOK STREET 34,352,BT BATOK ST 34,"1.3615804, 103.74951217208562"
116 JURONG EAST STREET 13,116,JURONG EAST ST 13,"1.3396951000000001, 103.73470587926155"
274 TAMPINES STREET 22,274,TAMPINES ST 22,"1.3482569999999998, 103.9501108"
111 WOODLANDS STREET 13,111,WOODLANDS ST 13,"Error: Road retrieved. Returned address Woodlands Street 13, Woodlands, Northwest, 738623, Singapore"
232 COMPASSVALE WALK,232,COMPASSVALE WALK,"1.3904025, 103.9013531"
145 LORONG AH SOO,145,LOR AH SOO,"1.35147475, 103.88324188555953"
490C CHOA CHU KANG AVENUE 5,490C,CHOA CHU KANG AVE 5,"1.3758968, 103.74165711977676"
624 JURONG WEST STREET 61,624,JURONG WEST ST 61,"1.3409635, 103.69771996075038"
716 TAMPINES STREET 71,716,TAMPINES ST 71,NONE
220A BEDOK CENTRAL,220A,BEDOK CTRL,"1.3256107, 103.93480461699474"
542 BUKIT BATOK STREET 52,542,BT BATOK ST 52,"1.3539699, 103.75110919329445"
603 SENJA ROAD,603,SENJA RD,"Error: Road retrieved. Returned address Senja Road, Bukit Panjang, Northwest, 677741, Singapore"
615 BUKIT PANJANG RING ROAD,615,BT PANJANG RING RD,"Error: Road retrieved. Returned address Bukit Panjang Ring Road, Bukit Panjang, Northwest, 679910, Singapore"
35 TEBAN GARDENS ROAD,35,TEBAN GDNS RD,"1.31953005, 103.74267090131397"
228C COMPASSVALE WALK,228C,COMPASSVALE WALK,"1.3877782, 103.90065108726056"
141 JALAN BUKIT MERAH,141,JLN BT MERAH,"Error: Road retrieved. Returned address Jalan Bukit Merah, Radin Mas, Bukit Merah, Singapore, Central, 169545, Singapore"
497B TAMPINES STREET 45,497B,TAMPINES ST 45,"1.35884555, 103.95813356315472"
220 BISHAN STREET 23,220,BISHAN ST 23,"1.35752675, 103.84878858291088"
327 SEMBAWANG CRESCENT,327,SEMBAWANG CRES,"Error: Road retrieved. Returned address Sembawang Crescent, Sembawang, Northwest, 757632, Singapore"
198 BOON LAY DRIVE,198,BOON LAY DR,"1.3444039, 103.71437295563013"
830 WOODLANDS STREET 83,830,WOODLANDS ST 83,"Error: Road retrieved. Returned address Woodlands Street 83, Woodlands, Northwest, 738489, Singapore"
58 MARINE TERRACE,58,MARINE TER,"Error: Not Singapore. Returned address Marine Terrace, Foord, Folkestone, Folkestone and Hythe, Kent, South East, England, CT20 1PZ, United Kingdom"
497H TAMPINES STREET 45,497H,TAMPINES ST 45,"1.35982125, 103.960029125"
699A HOUGANG STREET 52,699A,HOUGANG ST 52,"1.3768139, 103.88903880097416"
816 JELLICOE ROAD,816,JELLICOE RD,"1.3070448, 103.861091053312"
302 SERANGOON AVENUE 2,302,SERANGOON AVE 2,"Error: Road retrieved. Returned address Serangoon Avenue 2, Serangoon, Southeast, 556138, Singapore"
446 CHOA CHU KANG AVENUE 4,446,CHOA CHU KANG AVE 4,"1.3806922, 103.73691555008534"
518 JURONG WEST STREET 52,518,JURONG WEST ST 52,"1.3450541999999999, 103.71807550740662"
426C YISHUN AVENUE 11,426C,YISHUN AVE 11,"1.4227712499999998, 103.8469826507458"
50 CHAI CHEE STREET,50,CHAI CHEE ST,"1.3291873, 103.92256707741845"
336A ANCHORVALE CRESCENT,336A,ANCHORVALE CRES,"1.3975491999999998, 103.88935418011206"
14 LORONG 7 TOA PAYOH,14,LOR 7 TOA PAYOH,"1.33666005, 103.8583792176195"
842E TAMPINES STREET 82,842E,TAMPINES ST 82,"1.3516876500000001, 103.93849605610328"
720 PASIR RIS STREET 72,720,PASIR RIS ST 72,"1.38168515, 103.93653017255815"
304 CLEMENTI AVENUE 4,304,CLEMENTI AVE 4,"1.3208979, 103.7648789496063"
403 HOUGANG AVENUE 10,403,HOUGANG AVE 10,"Error: Road retrieved. Returned address Hougang Avenue 10, Hougang, Northeast, 538766, Singapore"
732 JURONG WEST STREET 73,732,JURONG WEST ST 73,"1.34610165, 103.69946215170475"
236 YISHUN RING ROAD,236,YISHUN RING RD,"1.4341147, 103.83913798535724"
63 KALLANG BAHRU,63,KALLANG BAHRU,"1.3211874, 103.86869558639744"
105 PASIR RIS STREET 12,105,PASIR RIS ST 12,"1.3684349, 103.9576055979098"
123D RIVERVALE DRIVE,123D,RIVERVALE DR,"1.3869561, 103.90230292570048"
633 JURONG WEST STREET 65,633,JURONG WEST ST 65,"1.34343065, 103.69918530959812"
128 LORONG 1 TOA PAYOH,128,LOR 1 TOA PAYOH,"1.33816045, 103.84436480134369"
262 BISHAN STREET 22,262,BISHAN ST 22,"Error: Road retrieved. Returned address Bishan Street 22, Bishan, Singapore, Central, 570282, Singapore"
165 GANGSA ROAD,165,GANGSA RD,"Error: Road retrieved. Returned address Gangsa Road, Bukit Panjang, Northwest, 679002, Singapore"
229 JURONG EAST STREET 21,229,JURONG EAST ST 21,"1.34181485, 103.73802732225093"
266 BUKIT BATOK EAST AVENUE 4,266,BT BATOK EAST AVE 4,"1.3491295, 103.76035874823977"
535A SERANGOON NORTH AVENUE 4,535A,SERANGOON NTH AVE 4,"1.37357575, 103.87453576889109"
222 SIMEI STREET 4,222,SIMEI ST 4,"1.3415903999999998, 103.95714328583671"
407 YISHUN AVENUE 6,407,YISHUN AVE 6,"1.42590635, 103.84844735773234"
502 BEDOK NORTH STREET 3,502,BEDOK NTH ST 3,"1.33119695, 103.93120255038214"
239 BUKIT BATOK EAST AVENUE 5,239,BT BATOK EAST AVE 5,"1.3500192, 103.75552859250378"
108 ALJUNIED CRESCENT,108,ALJUNIED CRES,"1.3191447, 103.88532524827039"
24 EUNOS CRESCENT,24,EUNOS CRES,"1.3237830499999999, 103.90234253616023"
667A PUNGGOL DRIVE,667A,PUNGGOL DR,"1.4025756, 103.91426074849812"
717 WOODLANDS DRIVE 70,717,WOODLANDS DR 70,"Error: Road retrieved. Returned address Woodlands Drive 70, Woodlands, Northwest, 730676, Singapore"
548A SEGAR ROAD,548A,SEGAR RD,"1.388986, 103.76821873399258"
1D CANTONMENT ROAD,1D,CANTONMENT RD,"1.2769187, 103.84149595"
26 JALAN BERSEH,26,JLN BERSEH,"Error: Road retrieved. Returned address Jalan Berseh, Rochor, Singapore, Central, 207630, Singapore"
910 HOUGANG STREET 91,910,HOUGANG ST 91,"Error: Road retrieved. Returned address Hougang Street 91, Hougang, Northeast, 530920, Singapore"
462 JURONG WEST STREET 41,462,JURONG WEST ST 41,"Error: Road retrieved. Returned address Jurong West Street 41, Jurong West, Southwest, 640478, Singapore"
209 BOON LAY PLACE,209,BOON LAY PL,"1.3464979499999998, 103.71538650816463"
662A JURONG WEST STREET 64,662A,JURONG WEST ST 64,"1.33693545, 103.70289274942078"
679A JURONG WEST CENTRAL 1,679A,JURONG WEST CTRL 1,"1.3442557000000002, 103.70585491996749"
100 WHAMPOA DRIVE,100,WHAMPOA DR,"1.3207933, 103.85438810477277"
504B MONTREAL DRIVE,504B,MONTREAL DR,"Error: Not Singapore. Returned address Montreal Drive, San Jose, Santa Clara County, California, 95130, United States"
533 SERANGOON NORTH AVENUE 4,533,SERANGOON NTH AVE 4,"1.3745446000000001, 103.8746143"
201D COMPASSVALE DRIVE,201D,COMPASSVALE DR,"1.3873989500000001, 103.89357185569075"
441C FERNVALE ROAD,441C,FERNVALE RD,"1.3921700499999998, 103.87468120706387"
150 ANG MO KIO AVENUE 5,150,ANG MO KIO AVE 5,"1.3767776999999999, 103.84201139498651"
260 BUKIT BATOK EAST AVENUE 4,260,BT BATOK EAST AVE 4,"1.350905, 103.75906834739862"
241 BUKIT PANJANG RING ROAD,241,BT PANJANG RING RD,"Error: Road retrieved. Returned address Bukit Panjang Ring Road, Bukit Panjang, Northwest, 679910, Singapore"
329 CLEMENTI AVENUE 2,329,CLEMENTI AVE 2,"1.31308435, 103.76740054021462"
320 CLEMENTI AVENUE 4,320,CLEMENTI AVE 4,"1.3172026, 103.76557749427535"
276C JURONG WEST STREET 25,276C,JURONG WEST ST 25,"Error: Road retrieved. Returned address Jurong West Street 25, Jurong West, Southwest, 644276, Singapore"
468 JURONG WEST STREET 41,468,JURONG WEST ST 41,"1.34866015, 103.72043838916827"
417 PASIR RIS DRIVE 6,417,PASIR RIS DR 6,"1.3719583000000002, 103.95551561440745"
160 HOUGANG STREET 11,160,HOUGANG ST 11,"Error: Road retrieved. Returned address Hougang Street 11, Hougang, Northeast, 534075, Singapore"
267 BOON LAY DRIVE,267,BOON LAY DR,"1.34643885, 103.70702053602017"
679A PUNGGOL DRIVE,679A,PUNGGOL DR,"1.40595035, 103.90835694646925"
337 SEMBAWANG CRESCENT,337,SEMBAWANG CRES,"1.44638775, 103.81545996810515"
293D COMPASSVALE CRESCENT,293D,COMPASSVALE CRES,"1.3967033500000001, 103.8953448547714"
736 WOODLANDS CIRCLE,736,WOODLANDS CIRCLE,"1.4429363, 103.79689943409"
784 CHOA CHU KANG DRIVE,784,CHOA CHU KANG DR,"Error: Road retrieved. Returned address Choa Chu Kang Drive, Choa Chu Kang, Southwest, 689717, Singapore"
656 HOUGANG AVENUE 8,656,HOUGANG AVE 8,"Error: Road retrieved. Returned address Hougang Avenue 8, Hougang, Northeast, 530631, Singapore"
327 SERANGOON AVENUE 3,327,SERANGOON AVE 3,"1.35064365, 103.86843692684062"
748 WOODLANDS CIRCLE,748,WOODLANDS CIRCLE,"1.44521065, 103.79546879138945"
29 MARINE CRESCENT,29,MARINE CRES,"1.30285725, 103.9131993343271"
243 SERANGOON AVENUE 2,243,SERANGOON AVE 2,"1.35282145, 103.86864658170438"
858 YISHUN AVENUE 4,858,YISHUN AVE 4,"Error: Road retrieved. Returned address Yishun Avenue 4, Yishun, Northwest, 761672, Singapore"
853 HOUGANG CENTRAL,853,HOUGANG CTRL,"Error: Road retrieved. Returned address Hougang Central, Hougang, Northeast, 530853, Singapore"
43 CHAI CHEE STREET,43,CHAI CHEE ST,"1.3282612999999999, 103.92543315194064"
699B HOUGANG STREET 52,699B,HOUGANG ST 52,"Error: Road retrieved. Returned address Hougang Street 52, Hougang, Northeast, 530699, Singapore"
243 JURONG EAST STREET 24,243,JURONG EAST ST 24,"Error: Road retrieved. Returned address Jurong East Street 24, Jurong East, Southwest, 600243, Singapore"
728 WOODLANDS CIRCLE,728,WOODLANDS CIRCLE,"1.4428324, 103.79884094112856"
535 ANG MO KIO AVENUE 5,535,ANG MO KIO AVE 5,"1.37458685, 103.85304205"
212 BISHAN STREET 23,212,BISHAN ST 23,"1.3566045500000001, 103.84814802644698"
507 WEST COAST DRIVE,507,WEST COAST DR,"1.31203655, 103.76090470934093"
423 JURONG WEST AVENUE 1,423,JURONG WEST AVE 1,"1.3508806999999998, 103.72546714759066"
175B YUNG KUANG ROAD,175B,YUNG KUANG RD,"1.33283335, 103.72120452013513"
528A PASIR RIS STREET 51,528A,PASIR RIS ST 51,"1.37024415, 103.94797883887789"
259B PUNGGOL FIELD,259B,PUNGGOL FIELD,"1.4039628, 103.89529560116279"
449 TAMPINES STREET 42,449,TAMPINES ST 42,"1.35705075, 103.9510901"
354 WOODLANDS AVENUE 1,354,WOODLANDS AVE 1,"1.43231555, 103.78520732130644"
21 TELOK BLANGAH CRESCENT,21,TELOK BLANGAH CRES,"1.2766028, 103.82091665"
313 SEMBAWANG DRIVE,313,SEMBAWANG DR,"Error: Road retrieved. Returned address Sembawang Drive, Sembawang, Northwest, 757632, Singapore"
278 TAMPINES STREET 22,278,TAMPINES ST 22,"1.34675115, 103.95130788841519"
403 BEDOK NORTH AVENUE 3,403,BEDOK NTH AVE 3,"1.3297727, 103.93390430237662"
458 PASIR RIS DRIVE 4,458,PASIR RIS DR 4,"1.37151265, 103.95938814271607"
623B PUNGGOL CENTRAL,623B,PUNGGOL CTRL,"1.39946585, 103.91183081901765"
584 WOODLANDS DRIVE 16,584,WOODLANDS DR 16,"1.4296213500000001, 103.79486031401449"
401 WOODLANDS STREET 41,401,WOODLANDS ST 41,"Error: Road retrieved. Returned address Woodlands Street 41, Woodlands, Northwest, 31, Singapore"
502A WOODLANDS DRIVE 14,502A,WOODLANDS DR 14,"1.43329525, 103.7913393612347"
296E CHOA CHU KANG AVENUE 2,296E,CHOA CHU KANG AVE 2,"1.3769159000000002, 103.74298375308896"
366 CLEMENTI AVENUE 2,366,CLEMENTI AVE 2,"1.31252755, 103.77179071406535"
157A RIVERVALE CRESCENT,157A,RIVERVALE CRES,"1.3879636999999998, 103.90813032344076"
909 TAMPINES AVENUE 4,909,TAMPINES AVE 4,"1.3501824, 103.93941415624442"
197C BOON LAY DRIVE,197C,BOON LAY DR,"1.34346565, 103.71368294681321"
559 PASIR RIS STREET 51,559,PASIR RIS ST 51,"1.36651255, 103.9515643511161"
620 CHOA CHU KANG STREET 62,620,CHOA CHU KANG ST 62,"Error: Road retrieved. Returned address Choa Chu Kang Street 62, Northwest, 680627, Singapore"
157 YUNG LOH ROAD,157,YUNG LOH RD,"Error: Road retrieved. Returned address Yung Loh Road, Jurong West, Southwest, 610155, Singapore"
388 TAMPINES STREET 32,388,TAMPINES ST 32,"1.35535335, 103.95822998423185"
412 YISHUN RING ROAD,412,YISHUN RING RD,"1.4255852, 103.84700500394138"
428 PASIR RIS DRIVE 6,428,PASIR RIS DR 6,"1.36962135, 103.95677353547931"
181 BEDOK NORTH ROAD,181,BEDOK NTH RD,"1.3266751499999998, 103.94124850557638"
185 JELEBU ROAD,185,JELEBU RD,"Error: Road retrieved. Returned address Jelebu Road, Bukit Panjang, Northwest, 677743, Singapore"
698B JURONG WEST CENTRAL 3,698B,JURONG WEST CTRL 3,"1.3406969499999999, 103.70769524150764"
114 TAMPINES STREET 11,114,TAMPINES ST 11,"1.34597795, 103.94678085"
174 WOODLANDS STREET 13,174,WOODLANDS ST 13,"Error: Road retrieved. Returned address Woodlands Street 13, Woodlands, Northwest, 738623, Singapore"
23 EUNOS CRESCENT,23,EUNOS CRES,"1.32430745, 103.90216840286098"
214 SERANGOON AVENUE 4,214,SERANGOON AVE 4,"Error: Road retrieved. Returned address Serangoon Avenue 4, Serangoon Green, Serangoon, Southeast, 551223, Singapore"
940 JURONG WEST STREET 91,940,JURONG WEST ST 91,"1.34326145, 103.68911079078332"
229 TAMPINES STREET 23,229,TAMPINES ST 23,"1.35588315, 103.95393623926675"
226 LORONG 8 TOA PAYOH,226,LOR 8 TOA PAYOH,"Error: Road retrieved. Returned address Lorong 8 Toa Payoh, Toa Payoh, Singapore, Central, 310226, Singapore"
