address,block,street_name,lat_long
866 TAMPINES STREET 83,866,TAMPINES ST 83,"1.3544372500000001, 103.93463542884376"
223 PENDING ROAD,223,PENDING RD,"Error: Road retrieved. Returned address Pending Road, Bukit Panjang, Northwest, 670129, Singapore"
663 WOODLANDS RING ROAD,663,WOODLANDS RING RD,"1.43631125, 103.79866395662928"
836 WOODLANDS STREET 83,836,WOODLANDS ST 83,"1.4404059500000002, 103.79168345219597"
10 TELOK BLANGAH CRESCENT,10,TELOK BLANGAH CRES,"1.27773095, 103.8197612"
429 CLEMENTI AVENUE 3,429,CLEMENTI AVE 3,"1.3129076, 103.762904641075"
272B SENGKANG CENTRAL,272B,SENGKANG CTRL,"1.38490395, 103.89383296204525"
258 BUKIT BATOK EAST AVENUE 4,258,BT BATOK EAST AVE 4,"1.3512517, 103.75891827082067"
435 BUKIT PANJANG RING ROAD,435,BT PANJANG RING RD,"Error: Road retrieved. Returned address Bukit Panjang Ring Road, Bukit Panjang, Northwest, 679910, Singapore"
9 EUNOS CRESCENT,9,EUNOS CRES,"1.3218556, 103.9032026"
501 PASIR RIS STREET 52,501,PASIR RIS ST 52,"1.37595355, 103.9464677425484"
336B ANCHORVALE CRESCENT,336B,ANCHORVALE CRES,"1.3976346, 103.88918100652174"
117A RIVERVALE DRIVE,117A,RIVERVALE DR,"1.3832798, 103.90235970782143"
850 HOUGANG CENTRAL,850,HOUGANG CTRL,"1.36968895, 103.89341728231611"
652 PUNGGOL CENTRAL,652,PUNGGOL CTRL,"1.3969258999999998, 103.91571370194248"
357C ADMIRALTY DRIVE,357C,ADMIRALTY DR,"Error: Not Singapore. Returned address Admiralty Drive, Sunset Beach, Huntington Beach, Orange County, California, 92649, United States"
503A CANBERRA LINK,503A,CANBERRA LINK,"Error: Road retrieved. Returned address Canberra Link, Sembawang, Northwest, 750115, Singapore"
141 RIVERVALE STREET,141,RIVERVALE ST,"Error: Not Singapore. Returned address Rivervale Street, Ormeau, Gold Coast City, Queensland, 4208, Australia"
587 WOODLANDS DRIVE 16,587,WOODLANDS DR 16,"Error: Road retrieved. Returned address Woodlands Drive 16, Woodlands, Northwest, 730548, Singapore"
18 TELOK BLANGAH CRESCENT,18,TELOK BLANGAH CRES,"1.2778847999999998, 103.82255315"
244 BUKIT PANJANG RING ROAD,244,BT PANJANG RING RD,"Error: Road retrieved. Returned address Bukit Panjang Ring Road, Bukit Panjang, Northwest, 679910, Singapore"
311 UBI AVENUE 1,311,UBI AVE 1,"1.3297637999999998, 103.90315033421439"
273C JURONG WEST AVENUE 3,273C,JURONG WEST AVE 3,"1.35195775, 103.70416048776542"
307 SERANGOON AVENUE 2,307,SERANGOON AVE 2,"Error: Road retrieved. Returned address Serangoon Avenue 2, Serangoon, Southeast, 556138, Singapore"
437 TAMPINES STREET 43,437,TAMPINES ST 43,"1.35993655, 103.95160845072374"
111 CLEMENTI STREET 13,111,CLEMENTI ST 13,"1.32316235, 103.77119712181289"
434 BUKIT PANJANG RING ROAD,434,BT PANJANG RING RD,"Error: Road retrieved. Returned address Bukit Panjang Ring Road, Bukit Panjang, Northwest, 679910, Singapore"
438 CHOA CHU KANG AVENUE 4,438,CHOA CHU KANG AVE 4,"1.3841622, 103.73980907111785"
101 ALJUNIED CRESCENT,101,ALJUNIED CRES,"1.3208976, 103.88332482508591"
3 PINE CLOSE,3,PINE CL,"1.3072221499999999, 103.88319143175761"
541 HOUGANG AVENUE 8,541,HOUGANG AVE 8,"1.37747295, 103.8912765"
506A SERANGOON NORTH AVENUE 4,506A,SERANGOON NTH AVE 4,"1.37316745, 103.87554654520153"
318 TAMPINES STREET 33,318,TAMPINES ST 33,"1.35160725, 103.95599822863018"
70 LORONG 4 TOA PAYOH,70,LOR 4 TOA PAYOH,"1.33477705, 103.85230616025885"
310 WOODLANDS STREET 31,310,WOODLANDS ST 31,"1.43013695, 103.77598816564516"
142 MARSILING ROAD,142,MARSILING RD,"1.43700845, 103.77713512272905"
105 SERANGOON NORTH AVENUE 1,105,SERANGOON NTH AVE 1,"1.3702561, 103.870233"
839 JURONG WEST STREET 81,839,JURONG WEST ST 81,"1.3436731499999999, 103.69246154754902"
259 ANG MO KIO AVENUE 2,259,ANG MO KIO AVE 2,"1.3685800499999998, 103.83158468454434"
103 LENGKONG TIGA,103,LENGKONG TIGA,Error: geocode failed on input 103 LENGKONG TIGA
13 TELOK BLANGAH CRESCENT,13,TELOK BLANGAH CRES,"1.27816925, 103.8204779"
783 YISHUN RING ROAD,783,YISHUN RING RD,"1.4219187, 103.83252035000001"
207 YISHUN STREET 21,207,YISHUN ST 21,"Error: Road retrieved. Returned address Yishun Street 21, Yishun, Northwest, 768610, Singapore"
297D CHOA CHU KANG AVENUE 2,297D,CHOA CHU KANG AVE 2,"1.378092, 103.74309384427048"
120 YISHUN RING ROAD,120,YISHUN RING RD,"1.4348603, 103.82937048588806"
104 BEDOK NORTH AVENUE 4,104,BEDOK NTH AVE 4,"1.3332926999999999, 103.93661838856605"
175 BUKIT BATOK WEST AVENUE 8,175,BT BATOK WEST AVE 8,"1.3456785, 103.74190213035324"
289B BUKIT BATOK STREET 25,289B,BT BATOK ST 25,"1.34398395, 103.76067525874765"
516 CHOA CHU KANG STREET 51,516,CHOA CHU KANG ST 51,"Error: Road retrieved. Returned address Choa Chu Kang Street 51, Northwest, 689333, Singapore"
458 CHOA CHU KANG AVENUE 4,458,CHOA CHU KANG AVE 4,"1.3781267, 103.73614268085497"
655B JURONG WEST STREET 61,655B,JURONG WEST ST 61,"1.3354731499999999, 103.69750607396551"
558 JURONG WEST STREET 42,558,JURONG WEST ST 42,"1.35409055, 103.71726395084579"
653 YISHUN AVENUE 4,653,YISHUN AVE 4,"Error: Road retrieved. Returned address Yishun Avenue 4, Yishun, Northwest, 761672, Singapore"
505C YISHUN STREET 51,505C,YISHUN ST 51,"Error: Road retrieved. Returned address Yishun Street 51, Yishun, Northwest, 762511, Singapore"
131 BEDOK NORTH AVENUE 3,131,BEDOK NTH AVE 3,"1.3269579500000002, 103.93576200668566"
424 WOODLANDS STREET 41,424,WOODLANDS ST 41,"1.4271768, 103.77531976172122"
717 BEDOK RESERVOIR ROAD,717,BEDOK RESERVOIR RD,"1.337663, 103.9256209530303"
120 PAYA LEBAR WAY,120,PAYA LEBAR WAY,"1.3225821500000001, 103.88436014921785"
724 TAMPINES STREET 71,724,TAMPINES ST 71,"1.3568284, 103.93492791059654"
513 WOODLANDS DRIVE 14,513,WOODLANDS DR 14,"1.4338435999999999, 103.78942064476345"
437 ANG MO KIO AVENUE 10,437,ANG MO KIO AVE 10,"Error: Road retrieved. Returned address Ang Mo Kio Avenue 10, Ang Mo Kio, Singapore, Central, 560449, Singapore"
106 ANG MO KIO AVENUE 4,106,ANG MO KIO AVE 4,"Error: Road retrieved. Returned address Ang Mo Kio Avenue 4, Ang Mo Kio, Singapore, Central, 568987, Singapore"
32 TELOK BLANGAH RISE,32,TELOK BLANGAH RISE,"1.27310985, 103.8217334353581"
616 CHOA CHU KANG STREET 62,616,CHOA CHU KANG ST 62,"Error: Road retrieved. Returned address Choa Chu Kang Street 62, Northwest, 680627, Singapore"
319B ANCHORVALE DRIVE,319B,ANCHORVALE DR,"1.39141205, 103.89058591121452"
406B FERNVALE ROAD,406B,FERNVALE RD,"1.38848945, 103.87431805916295"
858B TAMPINES AVENUE 5,858B,TAMPINES AVE 5,"1.3542708, 103.93866535"
515B TAMPINES CENTRAL 7,515B,TAMPINES CTRL 7,"1.3569588000000001, 103.93866925772068"
622 BUKIT BATOK CENTRAL,622,BT BATOK CTRL,"1.35069995, 103.74850716022314"
978C BUANGKOK CRESCENT,978C,BUANGKOK CRES,"Error: Road retrieved. Returned address Buangkok Crescent, Hougang, Northeast, 536980, Singapore"
466 HOUGANG AVENUE 8,466,HOUGANG AVE 8,"Error: Road retrieved. Returned address Hougang Avenue 8, Hougang, Northeast, 530631, Singapore"
359 TAMPINES STREET 34,359,TAMPINES ST 34,"1.3555153500000001, 103.96199484882219"
265 BUKIT BATOK EAST AVENUE 4,265,BT BATOK EAST AVE 4,"1.3499259, 103.759651"
137 JALAN BUKIT MERAH,137,JLN BT MERAH,"Error: Road retrieved. Returned address Jalan Bukit Merah, Radin Mas, Bukit Merah, Singapore, Central, 169545, Singapore"
410 SAUJANA ROAD,410,SAUJANA RD,"1.3824911, 103.76728493661203"
810 YISHUN RING ROAD,810,YISHUN RING RD,"Error: Road retrieved. Returned address Yishun Ring Road, Yishun, Northwest, 760413, Singapore"
421 TAMPINES STREET 41,421,TAMPINES ST 41,"1.3575107, 103.94754447587388"
232 BAIN STREET,232,BAIN ST,"Error: Not Singapore. Returned address 232, Bain Street, Talent, Jackson County, Oregon, 97540, United States"
679 HOUGANG AVENUE 8,679,HOUGANG AVE 8,"Error: Road retrieved. Returned address Hougang Avenue 8, Hougang, Northeast, 530631, Singapore"
613A PUNGGOL DRIVE,613A,PUNGGOL DR,"Error: Road retrieved. Returned address Punggol Drive, Punggol, Northeast, 821665, Singapore"
824 WOODLANDS STREET 81,824,WOODLANDS ST 81,"Error: Road retrieved. Returned address Woodlands St 81, Woodlands, Northwest, 738525, Singapore"
697B JURONG WEST CENTRAL 3,697B,JURONG WEST CTRL 3,"1.34069935, 103.70849190808171"
172 BUKIT BATOK WEST AVENUE 8,172,BT BATOK WEST AVE 8,"1.34570115, 103.74073058681124"
4 TECK WHYE AVENUE,4,TECK WHYE AVE,"1.3820645, 103.7525295"
355 HOUGANG AVENUE 7,355,HOUGANG AVE 7,"Error: Road retrieved. Returned address Hougang Avenue 7, Hougang, Northeast, 530377, Singapore"
912 HOUGANG STREET 91,912,HOUGANG ST 91,"1.3786041999999998, 103.88385334765039"
337B TAH CHING ROAD,337B,TAH CHING RD,"1.33744675, 103.72228597125448"
703 JURONG WEST STREET 71,703,JURONG WEST ST 71,"1.3416888, 103.69585977016666"
126A EDGEDALE PLAINS,126A,EDGEDALE PLAINS,"Error: Road retrieved. Returned address Edgedale Plains, Punggol, Northeast, 828867, Singapore"
21 QUEEN'S CLOSE,21,QUEEN'S CL,"Error: Not Singapore. Returned address 25, 23, 21, Queen's Close, Harston, South Cambridgeshire, Cambridgeshire, East of England, England, CB22 7QW, United Kingdom"
401 SERANGOON AVENUE 1,401,SERANGOON AVE 1,"1.34628285, 103.87330388615649"
249 TAMPINES STREET 21,249,TAMPINES ST 21,"1.35198225, 103.94811327635473"
127 SIMEI STREET 1,127,SIMEI ST 1,"1.34671465, 103.95448071601889"
565 ANG MO KIO AVENUE 3,565,ANG MO KIO AVE 3,"1.36956985, 103.8584361518277"
259 BUKIT BATOK EAST AVENUE 4,259,BT BATOK EAST AVE 4,"1.35110895, 103.75979966093567"
289G BUKIT BATOK STREET 25,289G,BT BATOK ST 25,"Error: Block retrieved. Returned address 289G, Bukit Batok East Avenue 3, Nature View, Bukit Batok, Singapore, Southwest, BUKIT BATOK STREET 25, Singapore"
489 JURONG WEST AVENUE 1,489,JURONG WEST AVE 1,"1.3491504, 103.727261075"
236 COMPASSVALE WALK,236,COMPASSVALE WALK,"1.39053855, 103.8993125620171"
406 TAMPINES STREET 41,406,TAMPINES ST 41,"1.35808695, 103.94597769553556"
27B JALAN MEMBINA,27B,JLN MEMBINA,"1.2829674500000001, 103.82476729191242"
611 CLEMENTI WEST STREET 1,611,CLEMENTI WEST ST 1,"1.3039684, 103.76917055109604"
602 JURONG WEST STREET 62,602,JURONG WEST ST 62,"1.3392539, 103.70024544134904"
724 PASIR RIS STREET 72,724,PASIR RIS ST 72,"1.38101385, 103.93605358413141"
406 SEMBAWANG DRIVE,406,SEMBAWANG DR,"1.4530116, 103.81718227844118"
123 RIVERVALE DRIVE,123,RIVERVALE DR,"1.3865903, 103.90321952144694"
225 LORONG 8 TOA PAYOH,225,LOR 8 TOA PAYOH,"Error: Road retrieved. Returned address Lorong 8 Toa Payoh, Toa Payoh, Singapore, Central, 310225, Singapore"
807A CHAI CHEE ROAD,807A,CHAI CHEE RD,"1.3271522, 103.92343526257311"
61 TELOK BLANGAH HEIGHTS,61,TELOK BLANGAH HTS,"1.27569185, 103.81209361616982"
560 CHOA CHU KANG NORTH 6,560,CHOA CHU KANG NTH 6,"Error: Road retrieved. Returned address Choa Chu Kang North 6, Northwest, 689579, Singapore"
189 PASIR RIS STREET 12,189,PASIR RIS ST 12,"1.36565825, 103.95908773658249"
341 TAMPINES STREET 33,341,TAMPINES ST 33,"1.3513814, 103.96095435729518"
311 JURONG EAST STREET 32,311,JURONG EAST ST 32,"1.3476338, 103.73260034472867"
465 JURONG WEST STREET 41,465,JURONG WEST ST 41,"Error: Road retrieved. Returned address Jurong West Street 41, Jurong West, Southwest, 640478, Singapore"
105C EDGEFIELD PLAINS,105C,EDGEFIELD PLAINS,"1.3976889, 103.9055907473284"
132 RIVERVALE STREET,132,RIVERVALE ST,"Error: Not Singapore. Returned address Rivervale Street, Ormeau, Gold Coast City, Queensland, 4208, Australia"
112 LORONG 1 TOA PAYOH,112,LOR 1 TOA PAYOH,"Error: Road retrieved. Returned address Lorong 1 Toa Payoh, Toa Payoh, Singapore, Central, 313130, Singapore"
303 SHUNFU ROAD,303,SHUNFU RD,"1.3497445, 103.83868181922091"
466 CRAWFORD LANE,466,CRAWFORD LANE,"Error: Not Singapore. Returned address 466, Crawford Lane, Sullivan County, Tennessee, 37617, United States"
935 TAMPINES STREET 91,935,TAMPINES ST 91,"1.34569545, 103.94117511810038"
984A BUANGKOK LINK,984A,BUANGKOK LINK,"1.3818423, 103.8816657"
2 BEDOK SOUTH AVENUE 1,2,BEDOK STH AVE 1,"1.3212585, 103.9332190782861"
343 BUKIT BATOK STREET 34,343,BT BATOK ST 34,"1.3624054499999998, 103.74918698240441"
661B JURONG WEST STREET 64,661B,JURONG WEST ST 64,"1.3358832999999999, 103.70556483095231"
661D JURONG WEST STREET 64,661D,JURONG WEST ST 64,"1.33653465, 103.70461196694787"
413 BEDOK NORTH AVENUE 2,413,BEDOK NTH AVE 2,"1.33027615, 103.93109075"
190 BISHAN STREET 13,190,BISHAN ST 13,"1.3505308999999999, 103.85204999215668"
518 PASIR RIS STREET 52,518,PASIR RIS ST 52,"1.3742119499999998, 103.94483341258993"
217 PASIR RIS STREET 21,217,PASIR RIS ST 21,"1.3694501, 103.96088816811829"
438A SENGKANG WEST AVENUE,438A,SENGKANG WEST AVE,"1.3927803, 103.87741416239349"
79B TOA PAYOH CENTRAL,79B,TOA PAYOH CTRL,"1.3346578, 103.84816089390364"
224 LORONG 8 TOA PAYOH,224,LOR 8 TOA PAYOH,"Error: Road retrieved. Returned address Lorong 8 Toa Payoh, Toa Payoh, Singapore, Central, 310229, Singapore"
137 MARSILING ROAD,137,MARSILING RD,"1.4384161999999998, 103.7770961562982"
642 BEDOK RESERVOIR ROAD,642,BEDOK RESERVOIR RD,"1.3313418000000001, 103.90551952997446"
489C CHOA CHU KANG AVENUE 5,489C,CHOA CHU KANG AVE 5,"1.3760887, 103.73957133193804"
283 TAMPINES STREET 22,283,TAMPINES ST 22,"1.3487608999999998, 103.9523708888864"
719 YISHUN STREET 71,719,YISHUN ST 71,"1.4268483, 103.82911577043325"
671A JURONG WEST STREET 65,671A,JURONG WEST ST 65,"1.3440845499999998, 103.70251803005183"
526 SERANGOON NORTH AVENUE 4,526,SERANGOON NTH AVE 4,"Error: Road retrieved. Returned address Serangoon North Avenue 4, Ang Mo Kio Industrial Park 2, Serangoon North, Singapore, Central, 555859, Singapore"
277 CHOA CHU KANG AVENUE 2,277,CHOA CHU KANG AVE 2,"1.379978, 103.74476161014005"
184 YUNG SHENG ROAD,184,YUNG SHENG RD,"Error: Road retrieved. Returned address Yung Sheng Road, Taman Jurong, Jurong West, Southwest, 618499, Singapore"
482 ADMIRALTY LINK,482,ADMIRALTY LINK,"Error: Road retrieved. Returned address Admiralty Link, Sembawang, Northwest, 757521, Singapore"
257A COMPASSVALE ROAD,257A,COMPASSVALE RD,"1.3924873, 103.89744777076373"
515C TAMPINES CENTRAL 7,515C,TAMPINES CTRL 7,"1.3569589, 103.93901698779192"
254 YISHUN RING ROAD,254,YISHUN RING RD,"1.43466925, 103.84055258054795"
156 ANG MO KIO AVENUE 4,156,ANG MO KIO AVE 4,"1.3755022499999998, 103.83995684140612"
154 YUNG HO ROAD,154,YUNG HO RD,"1.3271024, 103.722005"
130 EDGEDALE PLAINS,130,EDGEDALE PLAINS,"Error: Road retrieved. Returned address Edgedale Plains, Punggol, Northeast, 828867, Singapore"
265 BISHAN STREET 24,265,BISHAN ST 24,"1.3584732, 103.84217804371795"
113 PENDING ROAD,113,PENDING RD,"Error: Road retrieved. Returned address Pending Road, Bukit Panjang, Northwest, 670129, Singapore"
887 TAMPINES STREET 81,887,TAMPINES ST 81,"1.35036355, 103.93210824057869"
723 WOODLANDS AVENUE 6,723,WOODLANDS AVE 6,"Error: Road retrieved. Returned address Woodlands Avenue 6, Woodlands, Northwest, 737858, Singapore"
267 YISHUN STREET 22,267,YISHUN ST 22,"1.4370224999999999, 103.83932620735116"
271C JURONG WEST STREET 24,271C,JURONG WEST ST 24,"1.3501474, 103.7043201646382"
195B PUNGGOL ROAD,195B,PUNGGOL RD,"1.4013896, 103.90647079728137"
95C HENDERSON ROAD,95C,HENDERSON RD,"Error: Not Singapore. Returned address 95, Henderson Road, Henderson, Webster County, Missouri, 65742, United States"
688 JURONG WEST CENTRAL 1,688,JURONG WEST CTRL 1,"1.34103875, 103.70541303465549"
167B SIMEI LANE,167B,SIMEI LANE,"1.3431452, 103.95956352890937"
16 EUNOS CRESCENT,16,EUNOS CRES,"1.3229997500000001, 103.90452154560245"
140 LORONG AH SOO,140,LOR AH SOO,"1.3524953499999999, 103.88374515000001"
804 KING GEORGE'S AVENUE,804,KING GEORGE'S AVE,"Error: Road retrieved. Returned address King George's Avenue, Kallang, Singapore, Central, 200803, Singapore"
650 HOUGANG AVENUE 8,650,HOUGANG AVE 8,"Error: Road retrieved. Returned address Hougang Avenue 8, Hougang, Northeast, 530631, Singapore"
444 SIN MING AVENUE,444,SIN MING AVE,"Error: Road retrieved. Returned address Sin Ming Avenue, Bishan, Singapore, Central, 579646, Singapore"
689B CHOA CHU KANG DRIVE,689B,CHOA CHU KANG DR,"Error: Road retrieved. Returned address Choa Chu Kang Drive, Choa Chu Kang, Southwest, 689717, Singapore"
17 BEACH ROAD,17,BEACH RD,"Error: Not Singapore. Returned address 17, Beach Road, Jackman, Somerset County, Maine, 04945, United States"
108C MCNAIR ROAD,108C,MCNAIR RD,"1.31977, 103.85964024666566"
510 PASIR RIS STREET 52,510,PASIR RIS ST 52,"1.37561215, 103.94457069724515"
101 RIVERVALE WALK,101,RIVERVALE WALK,"1.38268395, 103.89934685314518"
506 BEDOK NORTH AVENUE 3,506,BEDOK NTH AVE 3,"1.332128, 103.93372090427377"
288 BISHAN STREET 24,288,BISHAN ST 24,"1.3569258, 103.84513317022387"
230 BUKIT BATOK EAST AVENUE 3,230,BT BATOK EAST AVE 3,"1.34779815, 103.7548284487232"
470B UPPER SERANGOON CRESCENT,470B,UPP SERANGOON CRES,"Error: Road retrieved. Returned address Upper Serangoon Crescent, Hougang, Northeast, 537475, Singapore"
8 SAINT GEORGE'S LANE,8,ST. GEORGE'S LANE,"1.32357955, 103.85990889225864"
681 RACE COURSE ROAD,681,RACE COURSE RD,"Error: Not Singapore. Returned address 681, Race Course Road, Warrenton, Fauquier County, Virginia, 20186, United States"
503B CANBERRA LINK,503B,CANBERRA LINK,"1.45053225, 103.82215585030553"
152 LORONG 2 TOA PAYOH,152,LOR 2 TOA PAYOH,"1.3341385, 103.8459217017298"
153 LORONG 2 TOA PAYOH,153,LOR 2 TOA PAYOH,"1.33359705, 103.84571834430105"
207A PUNGGOL PLACE,207A,PUNGGOL PL,"1.4003559, 103.9009703340439"
267 BISHAN STREET 24,267,BISHAN ST 24,"1.3574528, 103.84301217382588"
26 NEW UPPER CHANGI ROAD,26,NEW UPP CHANGI RD,"1.3233043, 103.93421565"
232 JURONG EAST STREET 21,232,JURONG EAST ST 21,"1.3399244000000001, 103.74071666615535"
96 WHAMPOA DRIVE,96,WHAMPOA DR,"Error: Road retrieved. Returned address Whampoa Drive, Novena, Singapore, Central, 320029, Singapore"
310C PUNGGOL WALK,310C,PUNGGOL WALK,"1.40970185, 103.89986120312894"
31 MARINE CRESCENT,31,MARINE CRES,"1.30373625, 103.91143827379193"
707 BEDOK NORTH ROAD,707,BEDOK NTH RD,"1.3354687, 103.91927329556799"
677B JURONG WEST STREET 64,677B,JURONG WEST ST 64,"1.3454158999999999, 103.70449919032663"
227 YISHUN STREET 21,227,YISHUN ST 21,"Error: Road retrieved. Returned address Yishun Street 21, Yishun, Northwest, 768610, Singapore"
837 JURONG WEST STREET 81,837,JURONG WEST ST 81,"1.3431001, 103.69291158087117"
530 WOODLANDS DRIVE 14,530,WOODLANDS DR 14,"Error: Road retrieved. Returned address Woodlands Drive 14, Fragrant Woods, Woodlands, Northwest, 738079, Singapore"
6 TELOK BLANGAH CRESCENT,6,TELOK BLANGAH CRES,"1.2781144, 103.81848295"
42 SIMS DRIVE,42,SIMS DR,"1.3168001, 103.87621748517618"
337 HOUGANG AVENUE 7,337,HOUGANG AVE 7,"Error: Road retrieved. Returned address Hougang Avenue 7, Hougang, Northeast, 530377, Singapore"
322 WOODLANDS STREET 32,322,WOODLANDS ST 32,"1.43149315, 103.77890112630891"
527 CHOA CHU KANG STREET 51,527,CHOA CHU KANG ST 51,"Error: Road retrieved. Returned address Choa Chu Kang Street 51, Northwest, 689333, Singapore"
233 YISHUN STREET 21,233,YISHUN ST 21,"Error: Road retrieved. Returned address Yishun Street 21, Yishun, Northwest, 768610, Singapore"
29 NEW UPPER CHANGI ROAD,29,NEW UPP CHANGI RD,"1.3239124, 103.93620465210519"
104A DEPOT ROAD,104A,DEPOT RD,"1.28041685, 103.81253013894946"
249 CHOA CHU KANG AVENUE 2,249,CHOA CHU KANG AVE 2,"1.3796053499999998, 103.7452426289266"
463C SEMBAWANG DRIVE,463C,SEMBAWANG DR,"1.4561723999999998, 103.81437923358388"
342 WOODLANDS AVENUE 1,342,WOODLANDS AVE 1,"Error: Road retrieved. Returned address Woodlands Avenue 1, Woodlands, Northwest, 739069, Singapore"
345 YISHUN AVENUE 11,345,YISHUN AVE 11,"Error: Road retrieved. Returned address Yishun Avenue 11, Yishun, Northwest, 760413, Singapore"
662 YISHUN AVENUE 4,662,YISHUN AVE 4,"1.420404, 103.84042359091026"
374 CLEMENTI AVENUE 4,374,CLEMENTI AVE 4,"Error: Road retrieved. Returned address Clementi Avenue 4, Clementi, Southwest, 120308, Singapore"
607 HOUGANG AVENUE 4,607,HOUGANG AVE 4,"Error: Road retrieved. Returned address Hougang Avenue 4, Hougang, Northeast, 530682, Singapore"
46 MARINE CRESCENT,46,MARINE CRES,"1.3051251499999998, 103.91266153847155"
350C CANBERRA ROAD,350C,CANBERRA RD,"Error: Not Singapore. Returned address Canberra Road, London Borough of Newham, London, Greater London, England, E6 2RW, United Kingdom"
850 TAMPINES STREET 82,850,TAMPINES ST 82,"1.3530405, 103.93595230671392"
114 YISHUN RING ROAD,114,YISHUN RING RD,"Error: Road retrieved. Returned address Yishun Ring Road, Yishun, Northwest, 760413, Singapore"
700C ANG MO KIO AVENUE 6,700C,ANG MO KIO AVE 6,"1.3695140000000001, 103.84652245512065"
53 NEW UPPER CHANGI ROAD,53,NEW UPP CHANGI RD,"1.3243167, 103.94246191101837"
316 BUKIT BATOK STREET 32,316,BT BATOK ST 32,"1.36057285, 103.74708244120214"
220 PETIR ROAD,220,PETIR RD,"1.37453585, 103.77282081847052"
621 CHOA CHU KANG STREET 62,621,CHOA CHU KANG ST 62,"Error: Road retrieved. Returned address Choa Chu Kang Street 62, Northwest, 680627, Singapore"
415 JURONG WEST STREET 42,415,JURONG WEST ST 42,"1.35285205, 103.72488922618459"
494E TAMPINES STREET 43,494E,TAMPINES ST 43,"1.3641323, 103.95370642500001"
334 WOODLANDS STREET 32,334,WOODLANDS ST 32,"1.4300619, 103.78048403798846"
432 HOUGANG AVENUE 6,432,HOUGANG AVE 6,"1.3762124, 103.89306099802508"
683 TESSENSOHN ROAD,683,TESSENSOHN RD,"1.3146262, 103.8562822"
745 WOODLANDS CIRCLE,745,WOODLANDS CIRCLE,"Error: Not Singapore. Returned address 745, Woodlands Circle, Woodlands, Cumberland County, Tennessee, 38571, United States"
457 ANG MO KIO AVENUE 10,457,ANG MO KIO AVE 10,"Error: Road retrieved. Returned address Ang Mo Kio Avenue 10, Ang Mo Kio, Singapore, Central, 560449, Singapore"
407 CHOA CHU KANG AVENUE 3,407,CHOA CHU KANG AVE 3,"1.3802856000000001, 103.74104495575543"
504A MONTREAL DRIVE,504A,MONTREAL DR,"1.4513975000000001, 103.82379779079145"
50 HAVELOCK ROAD,50,HAVELOCK RD,"Error: Not Singapore. Returned address 50, Havelock Road, Sidley, Bexhill-on-Sea, Rother, East Sussex, South East, England, TN39 4AH, United Kingdom"
124B BUKIT MERAH VIEW,124B,BT MERAH VIEW,"Error: Road retrieved. Returned address Bukit Merah View, Bukit Merah, Singapore, Central, 159682, Singapore"
80A TELOK BLANGAH STREET 31,80A,TELOK BLANGAH ST 31,"1.2736569, 103.80656804316428"
238 JURONG EAST STREET 21,238,JURONG EAST ST 21,"1.34069105, 103.7406027044749"
463 CRAWFORD LANE,463,CRAWFORD LANE,"Error: Not Singapore. Returned address 463, Crawford Lane, Frankfort, Ross County, Ohio, 45628, United States"
738 PASIR RIS DRIVE 10,738,PASIR RIS DR 10,"1.3790719999999999, 103.93642281091064"
648A JURONG WEST STREET 61,648A,JURONG WEST ST 61,"1.33842565, 103.69754931833177"
53 CHAI CHEE STREET,53,CHAI CHEE ST,"1.32845875, 103.920005347961"
476 JURONG WEST STREET 41,476,JURONG WEST ST 41,"1.34768995, 103.72422185232875"
316D PUNGGOL WAY,316D,PUNGGOL WAY,"1.4087687500000001, 103.89681909997137"
555 HOUGANG STREET 51,555,HOUGANG ST 51,"1.37946085, 103.88955979868054"
501 ANG MO KIO AVENUE 5,501,ANG MO KIO AVE 5,"Error: Road retrieved. Returned address Ang Mo Kio Avenue 5, Ang Mo Kio, Singapore, Central, 569948, Singapore"
652 SENJA LINK,652,SENJA LINK,"Error: Road retrieved. Returned address Senja Link, Bukit Panjang, Northwest, 670631, Singapore"
441B CLEMENTI AVENUE 3,441B,CLEMENTI AVE 3,"Error: Road retrieved. Returned address Clementi Avenue 3, Clementi, Southwest, 120443, Singapore"
411 JURONG WEST STREET 42,411,JURONG WEST ST 42,"1.35371215, 103.72524810376177"
138B YUAN CHING ROAD,138B,YUAN CHING RD,"1.328328, 103.72477"
354A ADMIRALTY DRIVE,354A,ADMIRALTY DR,"Error: Not Singapore. Returned address Admiralty Drive, Sunset Beach, Huntington Beach, Orange County, California, 92649, United States"
194 RIVERVALE DRIVE,194,RIVERVALE DR,"1.39283815, 103.90153585150432"
157D RIVERVALE CRESCENT,157D,RIVERVALE CRES,"1.3881353, 103.90774946355306"
329 SERANGOON AVENUE 3,329,SERANGOON AVE 3,"1.349869, 103.86876233908026"
232A SERANGOON AVENUE 2,232A,SERANGOON AVE 2,"1.35433855, 103.86842707771481"
807 TAMPINES AVENUE 4,807,TAMPINES AVE 4,"1.3458673, 103.93603999044643"
348C YISHUN AVENUE 11,348C,YISHUN AVE 11,"1.4271139000000002, 103.84222500941428"
859 YISHUN AVENUE 4,859,YISHUN AVE 4,"Error: Road retrieved. Returned address Yishun Avenue 4, Yishun, Northwest, 761672, Singapore"
87 ZION ROAD,87,ZION RD,"Error: Not Singapore. Returned address 87, Zion Road, Robeson Township, Berks County, Pennsylvania, 19508, United States"
359B ADMIRALTY DRIVE,359B,ADMIRALTY DR,"Error: Not Singapore. Returned address Admiralty Drive, Sunset Beach, Huntington Beach, Orange County, California, 92649, United States"
438B SENGKANG WEST AVENUE,438B,SENGKANG WEST AVE,"1.3927775, 103.877686175"
760 YISHUN STREET 72,760,YISHUN ST 72,"Error: Road retrieved. Returned address Yishun Street 72, Yishun, Northwest, 760731, Singapore"
102 TAMPINES STREET 11,102,TAMPINES ST 11,"1.3468257499999998, 103.94603749909277"
164 JALAN TECK WHYE,164,JLN TECK WHYE,"1.3812009, 103.75661036430263"
955 HOUGANG AVENUE 9,955,HOUGANG AVE 9,"Error: Road retrieved. Returned address Hougang Avenue 9, Hougang, Northeast, 538692, Singapore"
335A ANCHORVALE CRESCENT,335A,ANCHORVALE CRES,"1.3984716000000001, 103.88896958012867"
732 YISHUN AVENUE 5,732,YISHUN AVE 5,"1.42905425, 103.830318"
440 ANG MO KIO AVENUE 10,440,ANG MO KIO AVE 10,"Error: Road retrieved. Returned address JMS, Ang Mo Kio Avenue 10, Ang Mo Kio, Singapore, Central, 569730, Singapore"
663 CHOA CHU KANG CRESCENT,663,CHOA CHU KANG CRES,"Error: Road retrieved. Returned address Choa Chu Kang Crescent, Northwest, 689097, Singapore"
601 CLEMENTI WEST STREET 1,601,CLEMENTI WEST ST 1,"1.3047502999999998, 103.7652741734526"
690 JURONG WEST CENTRAL 1,690,JURONG WEST CTRL 1,"1.3411979, 103.7068471"
618B PUNGGOL DRIVE,618B,PUNGGOL DR,"1.40147325, 103.91209318837721"
302A PUNGGOL PLACE,302A,PUNGGOL PL,"Error: Road retrieved. Returned address Punggol Place, Punggol, Northeast, 828845, Singapore"
351 HOUGANG AVENUE 7,351,HOUGANG AVE 7,"Error: Road retrieved. Returned address Hougang Avenue 7, Hougang, Northeast, 530377, Singapore"
619 YISHUN RING ROAD,619,YISHUN RING RD,"Error: Road retrieved. Returned address Yishun Ring Road, Yishun, Northwest, 760413, Singapore"
808B CHAI CHEE ROAD,808B,CHAI CHEE RD,"1.3273598500000001, 103.92386956499999"
324 SERANGOON AVENUE 3,324,SERANGOON AVE 3,"1.35124195, 103.86888873870649"
302 WOODLANDS STREET 31,302,WOODLANDS ST 31,"1.4314962, 103.7743811"
889A WOODLANDS DRIVE 50,889A,WOODLANDS DR 50,"1.4375574, 103.79339831390473"
547 HOUGANG STREET 51,547,HOUGANG ST 51,"Error: Road retrieved. Returned address Hougang Street 51, Hougang, Northeast, 530699, Singapore"
73 LORONG 4 TOA PAYOH,73,LOR 4 TOA PAYOH,"1.3343058, 103.85172384983865"
644 BEDOK RESERVOIR ROAD,644,BEDOK RESERVOIR RD,"1.3307391000000002, 103.90551114859002"
102 CLEMENTI STREET 14,102,CLEMENTI ST 14,"1.32227305, 103.76929525058489"
223 SIMEI STREET 4,223,SIMEI ST 4,"1.3420239, 103.95767808189754"
766 WOODLANDS CIRCLE,766,WOODLANDS CIRCLE,"Error: Not Singapore. Returned address 766, Woodlands Circle, Woodlands, Cumberland County, Tennessee, 38571, United States"
181 ANG MO KIO AVENUE 5,181,ANG MO KIO AVE 5,"Error: Road retrieved. Returned address Ang Mo Kio Avenue 5, Ang Mo Kio, Singapore, Central, 569948, Singapore"
684B JURONG WEST STREET 64,684B,JURONG WEST ST 64,"1.3438389, 103.70422117434342"
302B PUNGGOL PLACE,302B,PUNGGOL PL,"Error: Road retrieved. Returned address Punggol Place, Punggol, Northeast, 828845, Singapore"
96 COMMONWEALTH CRESCENT,96,C'WEALTH CRES,"1.3061598, 103.80130689270126"
333B ANCHORVALE LINK,333B,ANCHORVALE LINK,"1.3945576499999999, 103.89142027138857"
22 BALAM ROAD,22,BALAM RD,"Error: Block retrieved. Returned address 22, Circuit Road, Balam Gardens, Geylang, Singapore, Southeast, 370022, Singapore"
26 DOVER CRESCENT,26,DOVER CRES,"1.3058657, 103.78159250063263"
228B COMPASSVALE WALK,228B,COMPASSVALE WALK,"1.38775725, 103.90112090215196"
107 SERANGOON NORTH AVENUE 1,107,SERANGOON NTH AVE 1,"1.36991005, 103.8702301250627"
931 TAMPINES STREET 91,931,TAMPINES ST 91,"1.3461028, 103.93904635363924"
102 POTONG PASIR AVENUE 1,102,POTONG PASIR AVE 1,"1.33360965, 103.86907525335515"
22 SIN MING ROAD,22,SIN MING RD,"1.35741025, 103.83946944734114"
119D KIM TIAN ROAD,119D,KIM TIAN RD,"Error: Road retrieved. Returned address Kim Tian Road, Bukit Merah, Singapore, Central, 169252, Singapore"
5 TECK WHYE AVENUE,5,TECK WHYE AVE,"1.3820746000000002, 103.75362040907376"
7 SAINT GEORGE'S LANE,7,ST. GEORGE'S LANE,"1.32367225, 103.85913248683687"
49 STRATHMORE AVENUE,49,STRATHMORE AVE,"Error: Not Singapore. Returned address 49, Strathmore Avenue, Buffalo, Erie County, New York, 14220, United States"
312 TAMPINES STREET 33,312,TAMPINES ST 33,"1.3526878, 103.95706407465974"
899C WOODLANDS DRIVE 50,899C,WOODLANDS DR 50,"1.4365546500000002, 103.79519889320325"
103B DEPOT ROAD,103B,DEPOT RD,"1.2808166, 103.8131738095191"
243 PASIR RIS STREET 21,243,PASIR RIS ST 21,"1.3715057499999999, 103.96301914304112"
169B PUNGGOL FIELD,169B,PUNGGOL FIELD,"1.3932346999999998, 103.9141141007506"
272D PUNGGOL WALK,272D,PUNGGOL WALK,"1.40275245, 103.90042583029691"
24 NEW UPPER CHANGI ROAD,24,NEW UPP CHANGI RD,"1.32383155, 103.93343911035609"
407 PANDAN GARDENS,407,PANDAN GDNS,"1.31886565, 103.74865638506785"
359A ADMIRALTY DRIVE,359A,ADMIRALTY DR,"Error: Not Singapore. Returned address Admiralty Drive, Sunset Beach, Huntington Beach, Orange County, California, 92649, United States"
535 BUKIT BATOK STREET 52,535,BT BATOK ST 52,"1.3549823, 103.75038693108402"
648B JURONG WEST STREET 61,648B,JURONG WEST ST 61,"1.33846485, 103.69799918849463"
689 JURONG WEST CENTRAL 1,689,JURONG WEST CTRL 1,"1.34095815, 103.70636916727523"
301D ANCHORVALE DRIVE,301D,ANCHORVALE DR,"1.3884631, 103.89130696563228"
356 WOODLANDS AVENUE 5,356,WOODLANDS AVE 5,"Error: Road retrieved. Returned address Woodlands Avenue 5, Woodlands, Northwest, 730900, Singapore"
547 CHOA CHU KANG STREET 52,547,CHOA CHU KANG ST 52,"Error: Road retrieved. Returned address Choa Chu Kang Street 52, Northwest, 689286, Singapore"
411 HOUGANG AVENUE 10,411,HOUGANG AVE 10,"1.3741324000000001, 103.8951914474026"
230C TAMPINES STREET 24,230C,TAMPINES ST 24,"1.3555516, 103.95156715413842"
312 SHUNFU ROAD,312,SHUNFU RD,"1.3511658500000001, 103.83874044941027"
345 UBI AVENUE 1,345,UBI AVE 1,"1.32591345, 103.89906742686773"
126 LORONG 1 TOA PAYOH,126,LOR 1 TOA PAYOH,"Error: Road retrieved. Returned address Lorong 1 Toa Payoh, Toa Payoh, Singapore, Central, 313130, Singapore"
191 PUNGGOL CENTRAL,191,PUNGGOL CTRL,"Error: Road retrieved. Returned address Punggol Central, Punggol, Northeast, 821256, Singapore"
503C CANBERRA LINK,503C,CANBERRA LINK,"1.4505655, 103.82261251742996"
426 CLEMENTI AVENUE 3,426,CLEMENTI AVE 3,"1.31154005, 103.7642679078363"
102 TECK WHYE LANE,102,TECK WHYE LANE,"1.37731045, 103.75448532485585"
273 TOH GUAN ROAD,273,TOH GUAN RD,"1.3425562, 103.74522915251603"
208 BOON LAY PLACE,208,BOON LAY PL,"1.3472528, 103.71391419410999"
987D JURONG WEST STREET 93,987D,JURONG WEST ST 93,"1.3366033, 103.69540790717924"
458 CLEMENTI AVENUE 3,458,CLEMENTI AVE 3,"1.31159965, 103.76700195000001"
985A BUANGKOK CRESCENT,985A,BUANGKOK CRES,"1.38122065, 103.8801741"
528C PASIR RIS STREET 51,528C,PASIR RIS ST 51,"1.37104585, 103.94813306186869"
431A YISHUN AVENUE 1,431A,YISHUN AVE 1,"Error: Road retrieved. Returned address Yishun Avenue 1, Yishun, Northwest, 763476, Singapore"
660 YISHUN AVENUE 4,660,YISHUN AVE 4,"1.4216959999999998, 103.83996189999999"
301A ANCHORVALE DRIVE,301A,ANCHORVALE DR,"1.38916525, 103.89185392216822"
834 WOODLANDS STREET 83,834,WOODLANDS ST 83,"1.44008975, 103.79108149911028"
351 YISHUN AVENUE 11,351,YISHUN AVE 11,"1.42642655, 103.84409360000001"
542 ANG MO KIO AVENUE 10,542,ANG MO KIO AVE 10,"1.3747544, 103.85590132172422"
443B FAJAR ROAD,443B,FAJAR RD,"1.3809497999999998, 103.76963587871887"
303 SERANGOON AVENUE 2,303,SERANGOON AVE 2,"Error: Road retrieved. Returned address Serangoon Avenue 2, Serangoon, Southeast, 556138, Singapore"
36 CIRCUIT ROAD,36,CIRCUIT RD,"1.3290367, 103.88698822563637"
532 JURONG WEST STREET 52,532,JURONG WEST ST 52,"1.3491279, 103.71605080485543"
648D JURONG WEST STREET 61,648D,JURONG WEST ST 61,"1.33935085, 103.69787414089184"
172 WOODLANDS STREET 13,172,WOODLANDS ST 13,"Error: Road retrieved. Returned address Woodlands Street 13, Woodlands, Northwest, 738623, Singapore"
220B BEDOK CENTRAL,220B,BEDOK CTRL,"1.3255396, 103.93449480974203"
26 CHAI CHEE ROAD,26,CHAI CHEE RD,"1.32329295, 103.92358857270074"
458 JURONG WEST STREET 41,458,JURONG WEST ST 41,"1.3502109500000001, 103.72005019956136"
124A RIVERVALE DRIVE,124A,RIVERVALE DR,"1.38818355, 103.90216505964875"
110 BUKIT PURMEI ROAD,110,BT PURMEI RD,"Error: Road retrieved. Returned address Bukit Purmei Road, Bukit Purmei Ville, Bukit Merah, Singapore, Central, 90112, Singapore"
730 CLEMENTI WEST STREET 2,730,CLEMENTI WEST ST 2,"1.30470735, 103.76325476471001"
725 JURONG WEST AVENUE 5,725,JURONG WEST AVE 5,"1.3454948, 103.6973409"
254 CHOA CHU KANG AVENUE 2,254,CHOA CHU KANG AVE 2,"1.3781145000000001, 103.74406030131183"
35 LORONG 5 TOA PAYOH,35,LOR 5 TOA PAYOH,"1.3343698499999999, 103.8547504813373"
567 CHOA CHU KANG STREET 52,567,CHOA CHU KANG ST 52,"Error: Road retrieved. Returned address Choa Chu Kang Street 52, Northwest, 689286, Singapore"
244 YISHUN RING ROAD,244,YISHUN RING RD,"Error: Road retrieved. Returned address Yishun Ring Road, Yishun, Northwest, 760413, Singapore"
181A BOON LAY DRIVE,181A,BOON LAY DR,"1.3485307, 103.70801339320084"
337D TAH CHING ROAD,337D,TAH CHING RD,"1.3374443, 103.72149662847777"
183C BOON LAY AVENUE,183C,BOON LAY AVE,"1.3485771, 103.7093212635585"
209C COMPASSVALE LANE,209C,COMPASSVALE LANE,"1.3840651, 103.89897483653576"
453B FERNVALE ROAD,453B,FERNVALE RD,"1.3944098999999999, 103.87521620604323"
157C RIVERVALE CRESCENT,157C,RIVERVALE CRES,"1.3878751999999999, 103.90766526090577"
99B LORONG 2 TOA PAYOH,99B,LOR 2 TOA PAYOH,"1.33869735, 103.84725582443244"
505A YISHUN STREET 51,505A,YISHUN ST 51,"Error: Road retrieved. Returned address Yishun Street 51, Yishun, Northwest, 762511, Singapore"
303 BUKIT BATOK STREET 31,303,BT BATOK ST 31,"1.3569992499999999, 103.74811725359905"
941 JURONG WEST STREET 91,941,JURONG WEST ST 91,"1.3438358, 103.68871966038284"
193 PASIR RIS STREET 12,193,PASIR RIS ST 12,"1.3660339000000001, 103.95941770550546"
269A PUNGGOL FIELD,269A,PUNGGOL FIELD,"1.4031489000000001, 103.8990163255596"
856C TAMPINES STREET 82,856C,TAMPINES ST 82,"1.3526961499999999, 103.93729703900806"
116 LORONG 2 TOA PAYOH,116,LOR 2 TOA PAYOH,"Error: Road retrieved. Returned address Lorong 2 Toa Payoh, Toa Payoh, Singapore, Central, 319640, Singapore"
29 KELANTAN ROAD,29,KELANTAN RD,"Error: Road retrieved. Returned address Kelantan Road, Rochor, Singapore, Central, 208828, Singapore"
449 HOUGANG AVENUE 10,449,HOUGANG AVE 10,"Error: Road retrieved. Returned address Hougang Avenue 10, Hougang, Northeast, 538766, Singapore"
541 JURONG WEST AVENUE 1,541,JURONG WEST AVE 1,"1.3509759, 103.7158728"
860 JURONG WEST STREET 81,860,JURONG WEST ST 81,"1.34895415, 103.6967189268883"
922 TAMPINES STREET 91,922,TAMPINES ST 91,"1.3475015, 103.94075582357515"
178D RIVERVALE CRESCENT,178D,RIVERVALE CRES,"Error: Road retrieved. Returned address Rivervale Crescent, Seng Kang, Northeast, 540151, Singapore"
106 SERANGOON NORTH AVENUE 1,106,SERANGOON NTH AVE 1,"1.3702532, 103.87100937491638"
141 BEDOK RESERVOIR ROAD,141,BEDOK RESERVOIR RD,"1.33529175, 103.9134064577134"
275A BISHAN STREET 24,275A,BISHAN ST 24,"1.3567242, 103.84346500855162"
709 CLEMENTI WEST STREET 2,709,CLEMENTI WEST ST 2,"1.30530165, 103.76209023065601"
776 WOODLANDS CRESCENT,776,WOODLANDS CRES,"Error: Road retrieved. Returned address Woodlands Crescent, Woodlands, Northwest, 733783, Singapore"
215 BUKIT BATOK STREET 21,215,BT BATOK ST 21,"1.34670205, 103.7536038877551"
26 TELOK BLANGAH CRESCENT,26,TELOK BLANGAH CRES,"1.27674915, 103.81887168319713"
715 CLEMENTI WEST STREET 2,715,CLEMENTI WEST ST 2,"1.3029327, 103.76221116682578"
102 BUKIT BATOK WEST AVENUE 6,102,BT BATOK WEST AVE 6,"1.347508, 103.74750306428571"
442C FAJAR ROAD,442C,FAJAR RD,"1.38146715, 103.77086473055869"
122 HOUGANG AVENUE 1,122,HOUGANG AVE 1,"Error: Road retrieved. Returned address Hougang Avenue 1, Hougang, Northeast, 530110, Singapore"
340 BUKIT BATOK STREET 34,340,BT BATOK ST 34,"1.36311655, 103.74955376598592"
578 WOODLANDS DRIVE 16,578,WOODLANDS DR 16,"1.43150985, 103.79596425333638"
637B PUNGGOL DRIVE,637B,PUNGGOL DR,Error: geocode failed on input 637B PUNGGOL DRIVE
704 ANG MO KIO AVENUE 8,704,ANG MO KIO AVE 8,"Error: Road retrieved. Returned address Ang Mo Kio Avenue 8, Ang Mo Kio, Singapore, Central, 569843, Singapore"
183 TOA PAYOH CENTRAL,183,TOA PAYOH CTRL,"Error: Road retrieved. Returned address Toa Payoh Central, Toa Payoh, Singapore, Central, 310177, Singapore"
127A KIM TIAN ROAD,127A,KIM TIAN RD,"1.2819979, 103.82965489967468"
547D SEGAR ROAD,547D,SEGAR RD,"1.3888981500000002, 103.76911095542637"
60 DAKOTA CRESCENT,60,DAKOTA CRES,"1.3078658, 103.8885715"
348 KANG CHING ROAD,348,KANG CHING RD,"1.34032135, 103.71961478358483"
684 RACE COURSE ROAD,684,RACE COURSE RD,"Error: Not Singapore. Returned address 684, Race Course Road, Warrenton, Fauquier County, Virginia, 20186, United States"
108 JALAN RAJAH,108,JLN RAJAH,"1.3281288, 103.8555040608502"
20 MARINE TERRACE,20,MARINE TER,"1.30373745, 103.91506248605589"
2 HOLLAND AVENUE,2,HOLLAND AVE,"Error: Not Singapore. Returned address 2, Holland Avenue, Buffalo, Erie County, New York, 14224, United States"
324D SENGKANG EAST WAY,324D,SENGKANG EAST WAY,"1.3927943, 103.89141139979239"
109 LORONG 1 TOA PAYOH,109,LOR 1 TOA PAYOH,"1.3412309, 103.8461844"
25 TOA PAYOH EAST,25,TOA PAYOH EAST,"1.33372315, 103.85738094500894"
405 YISHUN AVENUE 6,405,YISHUN AVE 6,"1.42684315, 103.84927309687407"
114 ANG MO KIO AVENUE 4,114,ANG MO KIO AVE 4,"Error: Road retrieved. Returned address Ang Mo Kio Avenue 4, Ang Mo Kio, Singapore, Central, 568987, Singapore"
549 BEDOK NORTH AVENUE 1,549,BEDOK NTH AVE 1,"1.3316780000000001, 103.9267700942356"
129 KIM TIAN ROAD,129,KIM TIAN RD,"1.281169, 103.8288852"
206 CLEMENTI AVENUE 6,206,CLEMENTI AVE 6,"Error: Road retrieved. Returned address Clementi Avenue 6, Clementi, Southwest, 128808, Singapore"
110 COMMONWEALTH CRESCENT,110,C'WEALTH CRES,"1.30676575, 103.79871335"
350B CANBERRA ROAD,350B,CANBERRA RD,"Error: Not Singapore. Returned address Canberra Road, London Borough of Newham, London, Greater London, England, E6 2RW, United Kingdom"
57 LORONG 5 TOA PAYOH,57,LOR 5 TOA PAYOH,"1.3370142500000002, 103.85148402459845"
571C WOODLANDS AVENUE 1,571C,WOODLANDS AVE 1,"Error: Road retrieved. Returned address Woodlands Avenue 1, Woodlands, Northwest, 739069, Singapore"
805 WOODLANDS STREET 81,805,WOODLANDS ST 81,"Error: Road retrieved. Returned address Woodlands St 81, Woodlands, Northwest, 738525, Singapore"
147 YISHUN STREET 11,147,YISHUN ST 11,"Error: Road retrieved. Returned address Yishun Street 11, Yishun, Northwest, 768643, Singapore"
530 BEDOK NORTH STREET 3,530,BEDOK NTH ST 3,"1.3336933, 103.92707312306376"
488A CHOA CHU KANG AVENUE 5,488A,CHOA CHU KANG AVE 5,"1.3770609, 103.7387615803597"
460 CLEMENTI AVENUE 3,460,CLEMENTI AVE 3,"1.3111362500000001, 103.76702829999999"
368 TAMPINES STREET 34,368,TAMPINES ST 34,"1.3585614499999998, 103.96120294062237"
524 BEDOK NORTH STREET 3,524,BEDOK NTH ST 3,"1.33481555, 103.93071756833507"
679C JURONG WEST CENTRAL 1,679C,JURONG WEST CTRL 1,"1.34408765, 103.7065687234568"
496B TAMPINES STREET 43,496B,TAMPINES ST 43,"1.36159755, 103.95101972343917"
205 MARSILING DRIVE,205,MARSILING DR,"1.4448975000000002, 103.77341493978686"
861 WOODLANDS STREET 83,861,WOODLANDS ST 83,"Error: Road retrieved. Returned address Woodlands Street 83, Woodlands, Northwest, 738489, Singapore"
222 BISHAN STREET 23,222,BISHAN ST 23,"1.3580767, 103.8481948"
980D BUANGKOK CRESCENT,980D,BUANGKOK CRES,"1.38045435, 103.88106734863834"
109 SERANGOON NORTH AVENUE 1,109,SERANGOON NTH AVE 1,"1.3694183, 103.87053120009215"
801 YISHUN RING ROAD,801,YISHUN RING RD,"Error: Road retrieved. Returned address Yishun Ring Road, Yishun, Northwest, 760413, Singapore"
315B ANG MO KIO STREET 31,315B,ANG MO KIO ST 31,"1.36407905, 103.84747586423586"
7 HAIG ROAD,7,HAIG RD,"1.31380005, 103.8969278984271"
881 TAMPINES STREET 84,881,TAMPINES ST 84,"1.35227825, 103.9328561175672"
498B TAMPINES STREET 45,498B,TAMPINES ST 45,"1.3609887999999999, 103.95859372076643"
6 SAINT GEORGE'S LANE,6,ST. GEORGE'S LANE,"1.32325985, 103.85889089195234"
523B TAMPINES CENTRAL 7,523B,TAMPINES CTRL 7,"1.3599331499999998, 103.93855860909811"
638 WOODLANDS RING ROAD,638,WOODLANDS RING RD,"Error: Road retrieved. Returned address Woodlands Ring Road, Woodlands, Northwest, 737890, Singapore"
431C YISHUN AVENUE 1,431C,YISHUN AVE 1,"Error: Road retrieved. Returned address Yishun Avenue 1, Yishun, Northwest, 763476, Singapore"
116 BEDOK RESERVOIR ROAD,116,BEDOK RESERVOIR RD,Error: geocode failed on input 116 BEDOK RESERVOIR ROAD
40 BEO CRESCENT,40,BEO CRES,"1.2888364, 103.8273436"
531 JURONG WEST STREET 52,531,JURONG WEST ST 52,"1.3489688499999999, 103.71514398031088"
704 JURONG WEST STREET 71,704,JURONG WEST ST 71,"1.3408872, 103.69525540425224"
643 PASIR RIS DRIVE 10,643,PASIR RIS DR 10,"1.37776885, 103.93789757799937"
541 PASIR RIS STREET 51,541,PASIR RIS ST 51,"1.36933735, 103.95113425562448"
416B FERNVALE LINK,416B,FERNVALE LINK,"1.3905124, 103.880485274432"
154 GANGSA ROAD,154,GANGSA RD,"Error: Road retrieved. Returned address Gangsa Road, Bukit Panjang, Northwest, 679002, Singapore"
658C JURONG WEST STREET 65,658C,JURONG WEST ST 65,"1.33682905, 103.70051004572929"
102 JALAN RAJAH,102,JLN RAJAH,"1.32838715, 103.85098861670637"
506 SERANGOON NORTH AVENUE 4,506,SERANGOON NTH AVE 4,"1.3728262500000001, 103.87631229078497"
395 YISHUN RING ROAD,395,YISHUN RING RD,"1.4288378, 103.847248431304"
244 HOUGANG STREET 22,244,HOUGANG ST 22,"Error: Road retrieved. Returned address Hougang Street 22, Hougang, Northeast, 530110, Singapore"
365 CLEMENTI AVENUE 2,365,CLEMENTI AVE 2,"1.31228525, 103.77000210629676"
846 JURONG WEST STREET 81,846,JURONG WEST ST 81,"1.3452943, 103.69153990743919"
409 JURONG WEST STREET 42,409,JURONG WEST ST 42,"1.3540774500000001, 103.72531969679811"
872 TAMPINES STREET 84,872,TAMPINES ST 84,"1.3541845000000001, 103.9323825193207"
614 BEDOK RESERVOIR ROAD,614,BEDOK RESERVOIR RD,"1.3324455, 103.91674825494715"
410 COMMONWEALTH AVENUE WEST,410,C'WEALTH AVE WEST,"1.3114155, 103.7697271476529"
406 HOUGANG AVENUE 10,406,HOUGANG AVE 10,"1.3736955000000002, 103.89607596354561"
256 SERANGOON CENTRAL DRIVE,256,SERANGOON CTRL DR,"1.3550626499999998, 103.87139627500403"
258 YISHUN STREET 22,258,YISHUN ST 22,"Error: Road retrieved. Returned address Yishun Street 22, Yishun, Northwest, 760264, Singapore"
204 ANG MO KIO AVENUE 3,204,ANG MO KIO AVE 3,"Error: Road retrieved. Returned address Ang Mo Kio Avenue 3, Ang Mo Kio, Singapore, Central, 560564, Singapore"
103 BUKIT BATOK CENTRAL,103,BT BATOK CTRL,"1.34831025, 103.74809946885944"
150 PASIR RIS STREET 13,150,PASIR RIS ST 13,"1.3630102499999999, 103.9631942896791"
32 NEW MKT ROAD,32,NEW MKT RD,"Error: Not Singapore. Returned address 32, New Market Road, Edgefield County, South Carolina, 29847, United States"
615 ELIAS ROAD,615,ELIAS RD,"1.3762941, 103.94182859873206"
343 ANG MO KIO AVENUE 3,343,ANG MO KIO AVE 3,"Error: Road retrieved. Returned address Ang Mo Kio Avenue 3, Ang Mo Kio, Singapore, Central, 560564, Singapore"
960 HOUGANG AVENUE 9,960,HOUGANG AVE 9,"Error: Road retrieved. Returned address Hougang Avenue 9, Hougang, Northeast, 538692, Singapore"
38 CAMBRIDGE ROAD,38,CAMBRIDGE RD,"Error: Not Singapore. Returned address 38, Cambridge Road, Harmony, Cambridge, Somerset County, Maine, 04942, United States"
53 JALAN MA'MOR,53,JLN MA'MOR,"Error: Road retrieved. Returned address Jalan Ma'mor, Novena, Singapore, Central, 328958, Singapore"
879 WOODLANDS STREET 82,879,WOODLANDS ST 82,"Error: Road retrieved. Returned address Woodlands Street 82, Woodlands, Northwest, 738954, Singapore"
677D PUNGGOL DRIVE,677D,PUNGGOL DR,"1.40592365, 103.91041867615931"
21 LIM LIAK STREET,21,LIM LIAK ST,"1.285447, 103.83216065074731"
162B RIVERVALE CRESCENT,162B,RIVERVALE CRES,"1.3904428, 103.90797575845883"
588B ANG MO KIO STREET 52,588B,ANG MO KIO ST 52,"1.3719907, 103.85303949516165"
16 TECK WHYE LANE,16,TECK WHYE LANE,"1.3785309, 103.75500878355686"
260 BOON LAY DRIVE,260,BOON LAY DR,"1.34514715, 103.70779044255079"
811 JURONG WEST STREET 81,811,JURONG WEST ST 81,"1.3462176000000001, 103.69654196391446"
775 PASIR RIS STREET 71,775,PASIR RIS ST 71,"1.3742001, 103.93715634358661"
489 ADMIRALTY LINK,489,ADMIRALTY LINK,"1.4550756, 103.81686057668045"
297 TAMPINES STREET 22,297,TAMPINES ST 22,"1.3511459499999998, 103.95472864986405"
283 YISHUN AVENUE 6,283,YISHUN AVE 6,"1.4393866000000002, 103.83905935"
431D YISHUN AVENUE 1,431D,YISHUN AVE 1,"1.4198656, 103.84683706285972"
654 JALAN TENAGA,654,JLN TENAGA,"1.3330058, 103.90696520549199"
194 BISHAN STREET 13,194,BISHAN ST 13,"Error: Road retrieved. Returned address Bishan Street 13, Bishan, Singapore, Central, 579799, Singapore"
208 PETIR ROAD,208,PETIR RD,"1.37394115, 103.77506165"
685B CHOA CHU KANG CRESCENT,685B,CHOA CHU KANG CRES,"1.4036303, 103.74815658607046"
914 JURONG WEST STREET 91,914,JURONG WEST ST 91,"1.3414134500000001, 103.68794967022059"
601C PUNGGOL CENTRAL,601C,PUNGGOL CTRL,"1.4027824500000001, 103.90802482340635"
277B COMPASSVALE LINK,277B,COMPASSVALE LINK,"1.3823340000000002, 103.89446677080379"
892A TAMPINES AVENUE 8,892A,TAMPINES AVE 8,"1.3488873, 103.92947868203325"
606 WOODLANDS RING ROAD,606,WOODLANDS RING RD,"Error: Road retrieved. Returned address Woodlands Ring Road, Woodlands, Northwest, 737890, Singapore"
128 BEDOK NORTH STREET 2,128,BEDOK NTH ST 2,"1.32772685, 103.93906134056978"
106A DEPOT ROAD,106A,DEPOT RD,"1.2805745499999999, 103.81118702746147"
632C PUNGGOL DRIVE,632C,PUNGGOL DR,"1.40096145, 103.91299546328648"
448 ANG MO KIO AVENUE 10,448,ANG MO KIO AVE 10,"Error: Road retrieved. Returned address Ang Mo Kio Avenue 10, Ang Mo Kio, Singapore, Central, 560449, Singapore"
233 LORONG 8 TOA PAYOH,233,LOR 8 TOA PAYOH,"Error: Road retrieved. Returned address Lorong 8 Toa Payoh, Toa Payoh, Singapore, Central, 310229, Singapore"
73A REDHILL ROAD,73A,REDHILL RD,"Error: Not Singapore. Returned address Redhill Road, Redhill, Arnold, Gedling, Nottinghamshire, East Midlands, England, NG5 8HB, United Kingdom"
570B WOODLANDS AVENUE 1,570B,WOODLANDS AVE 1,"1.430908, 103.7907695"
637 CHOA CHU KANG NORTH 6,637,CHOA CHU KANG NTH 6,"Error: Road retrieved. Returned address Choa Chu Kang North 6, Northwest, 689579, Singapore"
270 TOH GUAN ROAD,270,TOH GUAN RD,"1.3412269, 103.74599256075274"
789 WOODLANDS AVENUE 6,789,WOODLANDS AVE 6,"1.4434403, 103.8026207"
290G BUKIT BATOK STREET 24,290G,BT BATOK ST 24,"1.34322515, 103.75700463125042"
23 TOA PAYOH EAST,23,TOA PAYOH EAST,"Error: Road retrieved. Returned address Toa Payoh East, Toa Payoh, Singapore, Central, 310023, Singapore"
425 SERANGOON AVENUE 1,425,SERANGOON AVE 1,"1.3481220999999999, 103.87661901337574"
932 TAMPINES STREET 91,932,TAMPINES ST 91,"1.3456352, 103.93946993393621"
604 ELIAS ROAD,604,ELIAS RD,"1.37628935, 103.94325149251657"
27 TELOK BLANGAH WAY,27,TELOK BLANGAH WAY,"1.27423055, 103.82175019199364"
816 WOODLANDS STREET 82,816,WOODLANDS ST 82,"1.4420518, 103.7901386661017"
185 BUKIT BATOK WEST AVENUE 6,185,BT BATOK WEST AVE 6,"1.3469957, 103.74467311778193"
907 TAMPINES AVENUE 4,907,TAMPINES AVE 4,"1.35060525, 103.93938596696066"
500 PASIR RIS STREET 52,500,PASIR RIS ST 52,"1.37598265, 103.94596550609023"
415 TAMPINES STREET 41,415,TAMPINES ST 41,"1.3595272, 103.94695697144161"
213 PETIR ROAD,213,PETIR RD,"1.3741240499999998, 103.7755628186593"
57 NEW UPPER CHANGI ROAD,57,NEW UPP CHANGI RD,"1.3243255, 103.9415678696042"
273A PUNGGOL PLACE,273A,PUNGGOL PL,"1.4022730499999998, 103.9021343083134"
332A ANCHORVALE LINK,332A,ANCHORVALE LINK,"1.3952939, 103.89120663882593"
52 LORONG 6 TOA PAYOH,52,LOR 6 TOA PAYOH,"1.3381129, 103.8529291351526"
689B WOODLANDS DRIVE 75,689B,WOODLANDS DR 75,NONE
101 BEDOK RESERVOIR ROAD,101,BEDOK RESERVOIR RD,"1.32851935, 103.90995386983747"
550A SEGAR ROAD,550A,SEGAR RD,"1.38923095, 103.76739670000873"
641 ROWELL ROAD,641,ROWELL RD,"Error: Not Singapore. Returned address 641, Rowell Road, Crawford County, Georgia, 31078, United States"
11 UPPER BOON KENG ROAD,11,UPP BOON KENG RD,"1.3142903, 103.87104484809258"
611 ELIAS ROAD,611,ELIAS RD,"1.3750629, 103.94249215830737"
23 GHIM MOH LINK,23,GHIM MOH LINK,"1.3087602999999999, 103.78608887143942"
780F WOODLANDS CRESCENT,780F,WOODLANDS CRES,"1.4478751, 103.80123789053667"
868 YISHUN STREET 81,868,YISHUN ST 81,"Error: Road retrieved. Returned address Yishun Street 81, Yishun, Northwest, 760873, Singapore"
747A BEDOK RESERVOIR CRESCENT,747A,BEDOK RESERVOIR CRES,"1.33661545, 103.92126219728519"
38 TEBAN GARDENS ROAD,38,TEBAN GDNS RD,"1.32113995, 103.74276487129043"
629 JURONG WEST STREET 65,629,JURONG WEST ST 65,"1.34251565, 103.699677635352"
211C PUNGGOL WALK,211C,PUNGGOL WALK,"1.40083175, 103.89958326893614"
470 SEMBAWANG DRIVE,470,SEMBAWANG DR,"1.4516567, 103.81538266519738"
128 MARSILING RISE,128,MARSILING RISE,"Error: Road retrieved. Returned address Marsiling Rise, Woodlands, Northwest, 738099, Singapore"
9 HOLLAND AVENUE,9,HOLLAND AVE,"Error: Not Singapore. Returned address 9, Holland Avenue, Buffalo, Erie County, New York, 14224, United States"
250 YISHUN AVENUE 9,250,YISHUN AVE 9,"Error: Road retrieved. Returned address Yishun Avenue 9, Yishun, Northwest, 760246, Singapore"
415 BUKIT BATOK WEST AVENUE 4,415,BT BATOK WEST AVE 4,"1.36323895, 103.74662791716463"
121 BUKIT BATOK CENTRAL,121,BT BATOK CTRL,"1.3514868999999998, 103.74792428501803"
9 JALAN RUMAH TINGGI,9,JLN RUMAH TINGGI,"1.2889004, 103.8083819706761"
459 JURONG WEST STREET 41,459,JURONG WEST ST 41,"1.35032815, 103.7209528874373"
210 PASIR RIS STREET 21,210,PASIR RIS ST 21,"1.3669873, 103.96147245556803"
357A ADMIRALTY DRIVE,357A,ADMIRALTY DR,"Error: Not Singapore. Returned address Admiralty Drive, Sunset Beach, Huntington Beach, Orange County, California, 92649, United States"
511 SERANGOON NORTH AVENUE 4,511,SERANGOON NTH AVE 4,"Error: Road retrieved. Returned address Serangoon North Avenue 4, Ang Mo Kio Industrial Park 2, Serangoon North, Singapore, Central, 555859, Singapore"
79D TOA PAYOH CENTRAL,79D,TOA PAYOH CTRL,"1.3346566000000002, 103.84900916635976"
352 CLEMENTI AVENUE 2,352,CLEMENTI AVE 2,"1.3146366, 103.77159392812902"
573 HOUGANG STREET 51,573,HOUGANG ST 51,"1.3776964, 103.88759490884048"
249 JURONG EAST STREET 24,249,JURONG EAST ST 24,"1.3425048, 103.7393663"
185C RIVERVALE CRESCENT,185C,RIVERVALE CRES,"1.39322185, 103.90655755996019"
820 WOODLANDS STREET 82,820,WOODLANDS ST 82,"Error: Road retrieved. Returned address Woodlands Street 82, Woodlands, Northwest, 738954, Singapore"
833 WOODLANDS STREET 83,833,WOODLANDS ST 83,"Error: Road retrieved. Returned address Woodlands Street 83, Woodlands, Northwest, 738489, Singapore"
160 BUKIT BATOK STREET 11,160,BT BATOK ST 11,"1.34884095, 103.74207023539486"
490B TAMPINES STREET 45,490B,TAMPINES ST 45,"1.36234885, 103.95604490045866"
666 YISHUN AVENUE 4,666,YISHUN AVE 4,"1.41900665, 103.84058447202246"
187 PUNGGOL CENTRAL,187,PUNGGOL CTRL,"1.3988743499999998, 103.91071659558943"
564 HOUGANG STREET 51,564,HOUGANG ST 51,"1.3802147, 103.8886981494446"
495D TAMPINES STREET 43,495D,TAMPINES ST 43,"1.3636848000000001, 103.95208679204106"
114 BISHAN STREET 12,114,BISHAN ST 12,"Error: Road retrieved. Returned address Bishan Street 12, Bishan, Singapore, Central, 570139, Singapore"
218 PETIR ROAD,218,PETIR RD,"1.3745063499999999, 103.7735665"
765 CHOA CHU KANG NORTH 5,765,CHOA CHU KANG NTH 5,"Error: Road retrieved. Returned address Choa Chu Kang North 5, Northwest, 680533, Singapore"
339C KANG CHING ROAD,339C,KANG CHING RD,"1.3384904, 103.7218067888742"
287 YISHUN AVENUE 6,287,YISHUN AVE 6,"Error: Road retrieved. Returned address Yishun Avenue 6, Yishun, Northwest, 760406, Singapore"
325 JURONG EAST STREET 31,325,JURONG EAST ST 31,"1.3487965499999999, 103.72903373057945"
789 YISHUN AVENUE 2,789,YISHUN AVE 2,"Error: Road retrieved. Returned address Yishun Avenue 2, Yishun, Northwest, 760175, Singapore"
436 ANG MO KIO AVENUE 10,436,ANG MO KIO AVE 10,"Error: Road retrieved. Returned address Ang Mo Kio Avenue 10, Ang Mo Kio, Singapore, Central, 560449, Singapore"
408 SERANGOON AVENUE 1,408,SERANGOON AVE 1,"1.3474419, 103.8735513"
556 ANG MO KIO AVENUE 10,556,ANG MO KIO AVE 10,"Error: Road retrieved. Returned address Ang Mo Kio Avenue 10, Ang Mo Kio, Singapore, Central, 560449, Singapore"
5 BEDOK SOUTH AVENUE 2,5,BEDOK STH AVE 2,"1.3220355499999998, 103.9342919687501"
80B TELOK BLANGAH STREET 31,80B,TELOK BLANGAH ST 31,"1.27342865, 103.80700180846043"
459 SEGAR ROAD,459,SEGAR RD,"1.3877242, 103.77183189269999"
155 JALAN TECK WHYE,155,JLN TECK WHYE,"1.3788225, 103.75708643104113"
680B JURONG WEST CENTRAL 1,680B,JURONG WEST CTRL 1,"1.3450063, 103.70534034868497"
60 GEYLANG BAHRU,60,GEYLANG BAHRU,"1.32277055, 103.86911777972725"
451 PASIR RIS DRIVE 6,451,PASIR RIS DR 6,"1.3713622, 103.95835361334335"
301C PUNGGOL CENTRAL,301C,PUNGGOL CTRL,"Error: Road retrieved. Returned address Blk 301C, 301D, Punggol Central, Punggol, Singapore, Northeast, 820301, Singapore"
207C PUNGGOL PLACE,207C,PUNGGOL PL,"1.40057, 103.90015454060867"
209B PUNGGOL PLACE,209B,PUNGGOL PL,"1.39981635, 103.90108815175735"
140 RIVERVALE STREET,140,RIVERVALE ST,"1.3892061500000001, 103.90393005434899"
433B SENGKANG WEST WAY,433B,SENGKANG WEST WAY,"1.3939352999999999, 103.87755209425765"
118 POTONG PASIR AVENUE 1,118,POTONG PASIR AVE 1,"1.33548205, 103.86262866625813"
253 KIM KEAT AVENUE,253,KIM KEAT AVE,"1.33115395, 103.85770483123953"
202 MARSILING DRIVE,202,MARSILING DR,"1.44298035, 103.77497915489721"
823 WOODLANDS STREET 82,823,WOODLANDS ST 82,"Error: Road retrieved. Returned address Woodlands Street 82, Woodlands, Northwest, 738954, Singapore"
317 UBI AVENUE 1,317,UBI AVE 1,"1.3285664499999998, 103.90282265750275"
477 PASIR RIS DRIVE 6,477,PASIR RIS DR 6,"1.374822, 103.9585860337129"
412 TAMPINES STREET 41,412,TAMPINES ST 41,"1.3594609, 103.94625522657623"
310C ANG MO KIO AVENUE 1,310C,ANG MO KIO AVE 1,"Error: Road retrieved. Returned address Ang Mo Kio Avenue 1, Ang Mo Kio, Singapore, Central, 560218, Singapore"
211 BUKIT BATOK STREET 21,211,BT BATOK ST 21,"1.34619805, 103.75069538251027"
34 KIM CHENG STREET,34,KIM CHENG ST,"Error: Road retrieved. Returned address Kim Cheng Street, Tiong Bahru Estate, Bukit Merah, Singapore, Central, 169715, Singapore"
830 HOUGANG CENTRAL,830,HOUGANG CTRL,"1.3708038, 103.89036990239734"
408 JURONG WEST STREET 42,408,JURONG WEST ST 42,"1.3546399500000001, 103.72305645946975"
803 TAMPINES AVENUE 4,803,TAMPINES AVE 4,"1.3453569, 103.93804070495074"
624 ANG MO KIO AVENUE 4,624,ANG MO KIO AVE 4,"Error: Road retrieved. Returned address Ang Mo Kio Avenue 4, Ang Mo Kio, Singapore, Central, 560624, Singapore"
117 BEDOK RESERVOIR ROAD,117,BEDOK RESERVOIR RD,"1.33138975, 103.90875908841963"
423 HOUGANG AVENUE 6,423,HOUGANG AVE 6,"Error: Road retrieved. Returned address Hougang Avenue 6, Hougang, Northeast, 538787, Singapore"
323 JURONG EAST STREET 31,323,JURONG EAST ST 31,"1.3483847, 103.72896539582268"
217 SERANGOON AVENUE 4,217,SERANGOON AVE 4,"1.35763245, 103.87212324929168"
507 SERANGOON NORTH AVENUE 4,507,SERANGOON NTH AVE 4,"1.3719706999999999, 103.87524302687395"
286 BUKIT BATOK EAST AVENUE 3,286,BT BATOK EAST AVE 3,"1.3466413, 103.75858013435743"
507 JELAPANG ROAD,507,JELAPANG RD,"Error: Road retrieved. Returned address Jelapang Road, Bukit Panjang, Northwest, 671524, Singapore"
930 HOUGANG STREET 91,930,HOUGANG ST 91,"Error: Road retrieved. Returned address Hougang Street 91, Hougang, Northeast, 530920, Singapore"
601B PUNGGOL CENTRAL,601B,PUNGGOL CTRL,"1.4022689, 103.90790837736392"
266A COMPASSVALE BOW,266A,COMPASSVALE BOW,"1.3825468, 103.89686921334805"
438 ANG MO KIO AVENUE 10,438,ANG MO KIO AVE 10,"Error: Road retrieved. Returned address Rozel, Ang Mo Kio Avenue 10, Ang Mo Kio, Singapore, Central, 569730, Singapore"
159 BISHAN STREET 13,159,BISHAN ST 13,"1.3467148999999998, 103.85581893630226"
4A BOON TIONG ROAD,4A,BOON TIONG RD,"Error: Road retrieved. Returned address Boon Tiong Road, Boon Tiong Aracadia, Bukit Merah, Singapore, Central, 163028, Singapore"
704 WEST COAST ROAD,704,WEST COAST RD,"1.3062806, 103.7608104"
920 JURONG WEST STREET 92,920,JURONG WEST ST 92,"1.33984975, 103.68814682548114"
10 HOLLAND AVENUE,10,HOLLAND AVE,"Error: Not Singapore. Returned address 10, Holland Avenue, Copse Hill, London Borough of Merton, London, Greater London, England, SW20, United Kingdom"
298D COMPASSVALE STREET,298D,COMPASSVALE ST,"1.3956677000000002, 103.90118821051848"
176 WOODLANDS STREET 13,176,WOODLANDS ST 13,"Error: Road retrieved. Returned address Woodlands Street 13, Woodlands, Northwest, 738623, Singapore"
104 BUKIT BATOK CENTRAL,104,BT BATOK CTRL,"1.3489111500000002, 103.74768790949082"
987C BUANGKOK GREEN,987C,BUANGKOK GREEN,"1.37947605, 103.87790080048387"
463 JURONG WEST STREET 41,463,JURONG WEST ST 41,"1.3505812, 103.7229812"
56 LORONG 4 TOA PAYOH,56,LOR 4 TOA PAYOH,"1.33701115, 103.85039167460206"
215A JURONG EAST STREET 21,215A,JURONG EAST ST 21,"1.33951655, 103.73834714941052"
202A PUNGGOL FIELD,202A,PUNGGOL FIELD,"1.39971385, 103.90448913415885"
196 PASIR RIS STREET 12,196,PASIR RIS ST 12,"1.36617185, 103.9602993649157"
703 HOUGANG AVENUE 2,703,HOUGANG AVE 2,"1.36548205, 103.88950413086437"
476B CHOA CHU KANG AVENUE 5,476B,CHOA CHU KANG AVE 5,"1.3770467499999999, 103.7376158922925"
711 JURONG WEST STREET 71,711,JURONG WEST ST 71,"1.34312545, 103.6955915544936"
217A COMPASSVALE DRIVE,217A,COMPASSVALE DR,"1.3894076000000002, 103.89377576170486"
312 SERANGOON AVENUE 2,312,SERANGOON AVE 2,"Error: Road retrieved. Returned address Serangoon Avenue 2, Serangoon, Southeast, 556138, Singapore"
710 ANG MO KIO AVENUE 8,710,ANG MO KIO AVE 8,"Error: Road retrieved. Returned address Ang Mo Kio Avenue 8, Ang Mo Kio, Singapore, Central, 569843, Singapore"
258 BOON LAY DRIVE,258,BOON LAY DR,"1.34605595, 103.7086209648531"
692 JURONG WEST CENTRAL 1,692,JURONG WEST CTRL 1,"1.34224875, 103.70700505451455"
6 BOON KENG ROAD,6,BOON KENG RD,"1.317264, 103.8608474950479"
32 HOLLAND CLOSE,32,HOLLAND CL,"1.3064851, 103.7965004714747"
463A SEMBAWANG DRIVE,463A,SEMBAWANG DR,"1.4555825, 103.81408942773894"
307B ANCHORVALE ROAD,307B,ANCHORVALE RD,"1.3896229, 103.88741389703412"
465 ANG MO KIO AVENUE 10,465,ANG MO KIO AVE 10,"1.36621315, 103.85717505"
321 BUKIT BATOK STREET 33,321,BT BATOK ST 33,"1.3613327, 103.74727694148228"
106 PASIR RIS STREET 12,106,PASIR RIS ST 12,"1.3680602, 103.95760495008824"
148 PASIR RIS STREET 13,148,PASIR RIS ST 13,"1.36229855, 103.96210953375706"
15 GHIM MOH ROAD,15,GHIM MOH RD,"1.3088975500000002, 103.78869339425697"
684C WOODLANDS DRIVE 62,684C,WOODLANDS DR 62,"Error: Road retrieved. Returned address Woodlands Drive 62, Woodlands, Northwest, 737942, Singapore"
199 BOON LAY DRIVE,199,BOON LAY DR,"1.3437218, 103.71453042582462"
271B PUNGGOL WALK,271B,PUNGGOL WALK,"1.40418695, 103.90058130258316"
116 TECK WHYE LANE,116,TECK WHYE LANE,"1.3793537, 103.7517986"
332 JURONG EAST AVENUE 1,332,JURONG EAST AVE 1,"1.3514213499999999, 103.72991304986999"
409 SAUJANA ROAD,409,SAUJANA RD,"1.38275825, 103.76783623284885"
213 JURONG EAST STREET 21,213,JURONG EAST ST 21,"1.33901505, 103.73980477935385"
171B EDGEDALE PLAINS,171B,EDGEDALE PLAINS,"Error: Road retrieved. Returned address Edgedale Plains, Punggol, Northeast, 828867, Singapore"
314 WOODLANDS STREET 31,314,WOODLANDS ST 31,"1.43112645, 103.77610412535961"
510 BEDOK NORTH STREET 3,510,BEDOK NTH ST 3,"1.33242145, 103.93116912983982"
104 PASIR RIS STREET 12,104,PASIR RIS ST 12,"1.36789275, 103.95886136580864"
687C WOODLANDS DRIVE 75,687C,WOODLANDS DR 75,NONE
218 SERANGOON AVENUE 4,218,SERANGOON AVE 4,"1.35799255, 103.87217505577063"
607 ANG MO KIO AVENUE 4,607,ANG MO KIO AVE 4,"Error: Road retrieved. Returned address Ang Mo Kio Avenue 4, Ang Mo Kio, Singapore, Central, 568987, Singapore"
254 ANG MO KIO AVENUE 4,254,ANG MO KIO AVE 4,"Error: Road retrieved. Returned address Ang Mo Kio Avenue 4, Ang Mo Kio, Singapore, Central, 568987, Singapore"
1 EVERTON PARK,1,EVERTON PK,"Error: Block retrieved. Returned address 1, Cantonment Road, Everton Park, Bukit Merah, Singapore, Central, 080001, Singapore"
210A PUNGGOL PLACE,210A,PUNGGOL PL,"1.3999953, 103.90036004999999"
314D ANCHORVALE LINK,314D,ANCHORVALE LINK,"1.39146865, 103.88954074402014"
154 JALAN TECK WHYE,154,JLN TECK WHYE,"1.3795693999999998, 103.75791828677325"
228 BISHAN STREET 23,228,BISHAN ST 23,"1.3580538999999998, 103.84673005944336"
359 BUKIT BATOK STREET 31,359,BT BATOK ST 31,"1.3617029, 103.7512531"
415 BEDOK NORTH AVENUE 2,415,BEDOK NTH AVE 2,"1.32963155, 103.93024790000001"
685C CHOA CHU KANG CRESCENT,685C,CHOA CHU KANG CRES,"1.40349265, 103.74864989132668"
687D CHOA CHU KANG DRIVE,687D,CHOA CHU KANG DR,"Error: Road retrieved. Returned address Choa Chu Kang Drive, Choa Chu Kang, Southwest, 689717, Singapore"
363 CLEMENTI AVENUE 2,363,CLEMENTI AVE 2,"1.3127562, 103.76900240541246"
610 CLEMENTI WEST STREET 1,610,CLEMENTI WEST ST 1,"1.3048227, 103.7690520033972"
673B EDGEFIELD PLAINS,673B,EDGEFIELD PLAINS,"1.4069851500000001, 103.91111651666665"
266D PUNGGOL WAY,266D,PUNGGOL WAY,"1.4049582, 103.89800557430519"
602 WOODLANDS DRIVE 42,602,WOODLANDS DR 42,"Error: Road retrieved. Returned address Woodlands Drive 42, Woodlands, Northwest, 730888, Singapore"
810 WOODLANDS STREET 81,810,WOODLANDS ST 81,"Error: Block retrieved. Returned address 810, Woodlands St 81, Woodlands, Northwest, 738525, Singapore"
745 YISHUN STREET 72,745,YISHUN ST 72,"Error: Road retrieved. Returned address Yishun Street 72, Yishun, Northwest, 760731, Singapore"
752 YISHUN STREET 72,752,YISHUN ST 72,"1.4273053, 103.83404488050923"
391 YISHUN AVENUE 6,391,YISHUN AVE 6,"1.42945585, 103.84916464789596"
631 BEDOK RESERVOIR ROAD,631,BEDOK RESERVOIR RD,"1.333176, 103.9144833"
445 SIN MING AVENUE,445,SIN MING AVE,"1.358732, 103.8316987"
121A KIM TIAN PLACE,121A,KIM TIAN PL,"Error: Not Singapore. Returned address KIM, agiewnicka, Tarnogaj, Osiedle Tarnogaj, Wrocaw, wojewdztwo dolnolskie, 50-511, Polska"
563 HOUGANG STREET 51,563,HOUGANG ST 51,"1.3799074, 103.88868090121048"
337C TAH CHING ROAD,337C,TAH CHING RD,"1.3371213499999999, 103.72178318879226"
228 PASIR RIS STREET 21,228,PASIR RIS ST 21,"1.37210785, 103.96155442680185"
