address,block,street_name,lat_long
116 PASIR RIS STREET 11,116,PASIR RIS ST 11,"Error: Road retrieved. Returned address Pasir Ris Street 11, Pasir Ris, Northeast, 510158, Singapore"
540 BEDOK NORTH STREET 3,540,BEDOK NTH ST 3,"1.3310533, 103.92192894307725"
616 BEDOK RESERVOIR ROAD,616,BEDOK RESERVOIR RD,"1.33151275, 103.91474192856921"
182 BEDOK NORTH ROAD,182,BEDOK NTH RD,"1.32693395, 103.94165795550099"
349 CLEMENTI AVENUE 2,349,CLEMENTI AVE 2,"1.31594575, 103.77114015110357"
567 HOUGANG STREET 51,567,HOUGANG ST 51,"1.3787140500000001, 103.88907218230408"
915 HOUGANG STREET 91,915,HOUGANG ST 91,"1.3775594, 103.88381009957338"
135 LORONG AH SOO,135,LOR AH SOO,"Error: Road retrieved. Returned address Lorong Ah Soo, Hougang, Northeast, 530129, Singapore"
273C COMPASSVALE LINK,273C,COMPASSVALE LINK,"1.3845896, 103.8944642874963"
672B KLANG LANE,672B,KLANG LANE,"Error: Road retrieved. Returned address Klang Lane, Rochor, Singapore, Central, 219924, Singapore"
693 JURONG WEST CENTRAL 1,693,JURONG WEST CTRL 1,"1.3428797000000001, 103.70617984029612"
354D ADMIRALTY DRIVE,354D,ADMIRALTY DR,"Error: Not Singapore. Returned address Admiralty Drive, Sunset Beach, Huntington Beach, Orange County, California, 92649, United States"
168 WOODLANDS STREET 11,168,WOODLANDS ST 11,"1.4333652, 103.77700651455147"
504C YISHUN STREET 51,504C,YISHUN ST 51,"Error: Road retrieved. Returned address Yishun Street 51, Yishun, Northwest, 762511, Singapore"
711 BEDOK RESERVOIR ROAD,711,BEDOK RESERVOIR RD,"1.3359621, 103.92368388773679"
5 TOH YI DRIVE,5,TOH YI DR,"1.3352919, 103.77095430993761"
612 CLEMENTI WEST STREET 1,612,CLEMENTI WEST ST 1,"1.3035364999999999, 103.76883542741666"
818 TAMPINES STREET 81,818,TAMPINES ST 81,"1.34797785, 103.93677488955561"
7 LORONG 7 TOA PAYOH,7,LOR 7 TOA PAYOH,"1.33804905, 103.85730901761949"
318 WOODLANDS STREET 31,318,WOODLANDS ST 31,"Error: Road retrieved. Returned address Woodlands Street 31, Woodlands, Northwest, 31, Singapore"
727 YISHUN STREET 71,727,YISHUN ST 71,"1.4262134, 103.83098410217809"
112 BUKIT BATOK WEST AVENUE 6,112,BT BATOK WEST AVE 6,"1.3483091, 103.74530225855615"
634 ANG MO KIO AVENUE 6,634,ANG MO KIO AVE 6,"Error: Road retrieved. Returned address Ang Mo Kio Avenue 6, Ang Mo Kio, Singapore, Central, 569845, Singapore"
5 EVERTON PARK,5,EVERTON PK,"Error: Not Singapore. Returned address Stafford Road, Everton Park, Brisbane City, Queensland, 4053, Australia"
344 UBI AVENUE 1,344,UBI AVE 1,"1.3263042, 103.89951233351204"
606 HOUGANG AVENUE 4,606,HOUGANG AVE 4,"Error: Road retrieved. Returned address Hougang Avenue 4, Hougang, Northeast, 530682, Singapore"
1 DOVER ROAD,1,DOVER RD,"1.3024216, 103.7834794"
501 TAMPINES CENTRAL 1,501,TAMPINES CTRL 1,"1.3557763999999999, 103.94433694287885"
106 BUKIT BATOK CENTRAL,106,BT BATOK CTRL,"1.3480917, 103.74749091782907"
11 PINE CLOSE,11,PINE CL,"Error: Not Singapore. Returned address 11, Pine Close, Eaton, Norwich, Norfolk, East of England, England, NR4 7PU, United Kingdom"
60 TEBAN GARDENS ROAD,60,TEBAN GDNS RD,"1.3226816000000001, 103.73880867083784"
736 JURONG WEST STREET 75,736,JURONG WEST ST 75,"1.34612645, 103.70163350472814"
607 ELIAS ROAD,607,ELIAS RD,"1.37621805, 103.94235008014707"
121 RIVERVALE DRIVE,121,RIVERVALE DR,"1.3867855, 103.90454427123612"
3 UPPER ALJUNIED LANE,3,UPP ALJUNIED LANE,"1.33402575, 103.8799389"
304 ANG MO KIO AVENUE 1,304,ANG MO KIO AVE 1,"Error: Road retrieved. Returned address Ang Mo Kio Avenue 1, Ang Mo Kio, Singapore, Central, 560218, Singapore"
234 BISHAN STREET 22,234,BISHAN ST 22,"Error: Road retrieved. Returned address Bishan Street 22, Bishan, Singapore, Central, 570282, Singapore"
673A JURONG WEST STREET 65,673A,JURONG WEST ST 65,"1.34428095, 103.70123548124235"
143 RIVERVALE DRIVE,143,RIVERVALE DR,"1.3900256999999998, 103.90563238111723"
491G TAMPINES STREET 45,491G,TAMPINES ST 45,"1.36346925, 103.95450269095167"
835 WOODLANDS STREET 83,835,WOODLANDS ST 83,"1.44046985, 103.79104789882044"
17 HOUGANG AVENUE 3,17,HOUGANG AVE 3,"Error: Road retrieved. Returned address Hougang Avenue 3, Hougang, Northeast, 534412, Singapore"
750 PASIR RIS STREET 71,750,PASIR RIS ST 71,"1.3781773, 103.93482084002602"
234 SIMEI STREET 4,234,SIMEI ST 4,"1.34341695, 103.95543532186488"
490 JURONG WEST AVENUE 1,490,JURONG WEST AVE 1,"1.34958635, 103.72726919881327"
9 JOO SENG ROAD,9,JOO SENG RD,"1.3349051, 103.87943952124174"
166 WOODLANDS STREET 13,166,WOODLANDS ST 13,"1.4333057, 103.7753925"
285 CHOA CHU KANG AVENUE 3,285,CHOA CHU KANG AVE 3,"1.3801142, 103.7419151640001"
107 PASIR RIS STREET 12,107,PASIR RIS ST 12,"1.36747735, 103.95750900493758"
890A WOODLANDS DRIVE 50,890A,WOODLANDS DR 50,"1.4381955, 103.79294775"
623 ANG MO KIO AVENUE 9,623,ANG MO KIO AVE 9,"Error: Road retrieved. Returned address Ang Mo Kio Avenue 9, Ang Mo Kio, Singapore, Central, 569845, Singapore"
704 BEDOK RESERVOIR ROAD,704,BEDOK RESERVOIR RD,"1.3368673, 103.9204745"
761 BEDOK RESERVOIR VIEW,761,BEDOK RESERVOIR VIEW,"1.33625185, 103.93382933163517"
52 HAVELOCK ROAD,52,HAVELOCK RD,"Error: Not Singapore. Returned address 52, Havelock Road, Sidley, Bexhill-on-Sea, Rother, East Sussex, South East, England, TN39 4AH, United Kingdom"
62 TELOK BLANGAH HEIGHTS,62,TELOK BLANGAH HTS,"Error: Road retrieved. Returned address Telok Blangah Heights, Bukit Merah, Singapore, Central, 100059, Singapore"
261A PUNGGOL WAY,261A,PUNGGOL WAY,"1.4059853, 103.89693148881402"
419 SERANGOON CENTRAL,419,SERANGOON CTRL,"1.3493449, 103.8760730567331"
523D TAMPINES CENTRAL 7,523D,TAMPINES CTRL 7,"1.3594290500000001, 103.93883970829694"
306 WOODLANDS STREET 31,306,WOODLANDS ST 31,"1.4301161, 103.77444812323347"
690A WOODLANDS DRIVE 75,690A,WOODLANDS DR 75,NONE
76 BEDOK NORTH ROAD,76,BEDOK NTH RD,"1.3282924500000002, 103.94212954414277"
57 HAVELOCK ROAD,57,HAVELOCK RD,"Error: Not Singapore. Returned address 57, Havelock Road, Havelock, Richmond County, Virginia, 22572, United States"
328 HOUGANG AVENUE 5,328,HOUGANG AVE 5,"Error: Road retrieved. Returned address Hougang Avenue 5, Hougang, Northeast, 530334, Singapore"
264 JURONG EAST STREET 24,264,JURONG EAST ST 24,"1.3438561, 103.74171378599813"
667B JURONG WEST STREET 65,667B,JURONG WEST ST 65,"1.3410233, 103.70182224286995"
760 PASIR RIS STREET 71,760,PASIR RIS ST 71,"1.37648345, 103.93334227957239"
271A PUNGGOL WALK,271A,PUNGGOL WALK,"1.4037359999999999, 103.90033243078156"
511 WOODLANDS DRIVE 14,511,WOODLANDS DR 14,"Error: Road retrieved. Returned address Woodlands Drive 14, Fragrant Woods, Woodlands, Northwest, 738079, Singapore"
899B WOODLANDS DRIVE 50,899B,WOODLANDS DR 50,"Error: Road retrieved. Returned address Woodlands Drive 50, Woodlands, Northwest, 738853, Singapore"
183 BEDOK NORTH ROAD,183,BEDOK NTH RD,"1.3264195, 103.94183590455033"
512 CHOA CHU KANG STREET 51,512,CHOA CHU KANG ST 51,"Error: Road retrieved. Returned address Choa Chu Kang Street 51, Northwest, 689333, Singapore"
303D PUNGGOL PLACE,303D,PUNGGOL PL,"Error: Road retrieved. Returned address Punggol Place, Punggol, Northeast, 828845, Singapore"
924 TAMPINES STREET 91,924,TAMPINES ST 91,"1.3467498500000001, 103.94075921622748"
389 YISHUN AVENUE 6,389,YISHUN AVE 6,"1.4295900000000001, 103.8482866"
170 YISHUN AVENUE 7,170,YISHUN AVE 7,"Error: Road retrieved. Returned address Yishun Avenue 7, Yishun, Northwest, 760175, Singapore"
3 DOVER ROAD,3,DOVER RD,"1.3037236, 103.78244529759806"
441 SIN MING AVENUE,441,SIN MING AVE,"Error: Road retrieved. Returned address Sin Ming Avenue, Bishan, Singapore, Central, 570441, Singapore"
440 JURONG WEST AVENUE 1,440,JURONG WEST AVE 1,"1.35151905, 103.72253373820078"
670C EDGEFIELD PLAINS,670C,EDGEFIELD PLAINS,"1.4054115999999999, 103.91409311046698"
404 ADMIRALTY LINK,404,ADMIRALTY LINK,"Error: Road retrieved. Returned address Admiralty Link, Sembawang, Northwest, 757521, Singapore"
427 TAMPINES STREET 41,427,TAMPINES ST 41,"1.3595077, 103.94858053866267"
332 WOODLANDS AVENUE 1,332,WOODLANDS AVE 1,"1.4297460000000002, 103.77912895"
101A PUNGGOL FIELD,101A,PUNGGOL FIELD,"Error: Road retrieved. Returned address Punggol Field, Punggol Cove, Punggol, Northeast, 820198, Singapore"
118 SERANGOON NORTH AVENUE 1,118,SERANGOON NTH AVE 1,"1.3676129499999998, 103.87092158189421"
125 LORONG 1 TOA PAYOH,125,LOR 1 TOA PAYOH,"Error: Road retrieved. Returned address Lorong 1 Toa Payoh, Toa Payoh, Singapore, Central, 313130, Singapore"
186 TOA PAYOH CENTRAL,186,TOA PAYOH CTRL,"1.3319249, 103.8502122"
221 BUKIT BATOK EAST AVENUE 3,221,BT BATOK EAST AVE 3,"1.347467, 103.75360430077282"
57 TELOK BLANGAH HEIGHTS,57,TELOK BLANGAH HTS,"1.2746403499999999, 103.81262896125003"
234A SERANGOON AVENUE 2,234A,SERANGOON AVE 2,"1.35437345, 103.8690572777148"
497J TAMPINES STREET 45,497J,TAMPINES ST 45,"1.3592344, 103.95961312155515"
363 WOODLANDS AVENUE 5,363,WOODLANDS AVE 5,"Error: Road retrieved. Returned address Woodlands Avenue 5, Woodlands, Northwest, 730900, Singapore"
564 CHOA CHU KANG STREET 52,564,CHOA CHU KANG ST 52,"Error: Road retrieved. Returned address Choa Chu Kang Street 52, Northwest, 689286, Singapore"
350 WOODLANDS AVENUE 3,350,WOODLANDS AVE 3,"1.43367935, 103.7821600954806"
75 BEDOK NORTH ROAD,75,BEDOK NTH RD,"1.3278894, 103.94211844583151"
41 CHAI CHEE STREET,41,CHAI CHEE ST,"1.3273225, 103.92606491281293"
503 BUKIT BATOK STREET 52,503,BT BATOK ST 52,"1.3515693, 103.75344883706056"
232 HOUGANG AVENUE 1,232,HOUGANG AVE 1,"1.3586213, 103.88851881732721"
689 HOUGANG STREET 61,689,HOUGANG ST 61,"Error: Road retrieved. Returned address Hougang Street 61, Hougang, Northeast, 538793, Singapore"
143 LORONG AH SOO,143,LOR AH SOO,"1.3522994, 103.88301203553672"
664A JURONG WEST STREET 64,664A,JURONG WEST ST 64,"1.3390965000000001, 103.70314139856748"
667A JURONG WEST STREET 65,667A,JURONG WEST ST 65,"1.34168005, 103.70126994331319"
756 JURONG WEST STREET 74,756,JURONG WEST ST 74,"1.3492019, 103.70061291687763"
810 JURONG WEST STREET 81,810,JURONG WEST ST 81,"1.3466519, 103.69568921360298"
939 TAMPINES AVENUE 5,939,TAMPINES AVE 5,"1.348228, 103.94122204751214"
886D WOODLANDS DRIVE 50,886D,WOODLANDS DR 50,"Error: Road retrieved. Returned address Woodlands Drive 50, Woodlands, Northwest, 738853, Singapore"
61 NEW UPPER CHANGI ROAD,61,NEW UPP CHANGI RD,"1.32275645, 103.94085246886004"
128 BUKIT MERAH VIEW,128,BT MERAH VIEW,"1.28274565, 103.82367844369632"
281A SENGKANG EAST AVENUE,281A,SENGKANG EAST AVE,"1.3861189, 103.89156944333334"
145 TAMPINES STREET 12,145,TAMPINES ST 12,"1.34885565, 103.94366885976937"
248 TAMPINES STREET 21,248,TAMPINES ST 21,"1.3518667, 103.94711710194164"
876 TAMPINES STREET 84,876,TAMPINES ST 84,"1.3530175500000001, 103.93140317323534"
5 MARSILING DRIVE,5,MARSILING DR,"Error: Road retrieved. Returned address Marsiling Drive, Woodlands, Northwest, 731007, Singapore"
240 YISHUN RING ROAD,240,YISHUN RING RD,"Error: Road retrieved. Returned address Yishun Ring Road, Yishun, Northwest, 760413, Singapore"
685A CHOA CHU KANG CRESCENT,685A,CHOA CHU KANG CRES,"1.4039796500000001, 103.74767316829914"
195E PUNGGOL ROAD,195E,PUNGGOL RD,"Error: Road retrieved. Returned address Punggol Road, Punggol, Northeast, 820198, Singapore"
22 DOVER CRESCENT,22,DOVER CRES,"1.3071047999999998, 103.78360274213586"
101 YISHUN AVENUE 5,101,YISHUN AVE 5,"1.4308527999999998, 103.82709270959464"
524 HOUGANG AVENUE 6,524,HOUGANG AVE 6,"Error: Road retrieved. Returned address Hougang Avenue 6, Hougang, Northeast, 538787, Singapore"
234 HOUGANG AVENUE 1,234,HOUGANG AVE 1,"1.35816305, 103.8886748560665"
260 TAMPINES STREET 21,260,TAMPINES ST 21,"1.35459335, 103.95010885670364"
371 WOODLANDS AVENUE 1,371,WOODLANDS AVE 1,"1.4323489999999999, 103.78685828205397"
19 SAINT GEORGE'S ROAD,19,ST. GEORGE'S RD,"Error: Not Singapore. Returned address 19, St George's Road, Chestnut Hills, Etobicoke Centre, Etobicoke, Toronto, Golden Horseshoe, Ontario, M8X 2A3, Canada"
178 EDGEFIELD PLAINS,178,EDGEFIELD PLAINS,"Error: Road retrieved. Returned address Edgefield Plains, Punggol, Northeast, 828850, Singapore"
184B RIVERVALE CRESCENT,184B,RIVERVALE CRES,Error: geocode failed on input 184B RIVERVALE CRESCENT
434 ANG MO KIO AVENUE 10,434,ANG MO KIO AVE 10,"Error: Road retrieved. Returned address Ang Mo Kio Avenue 10, Ang Mo Kio, Singapore, Central, 560449, Singapore"
747 WOODLANDS CIRCLE,747,WOODLANDS CIRCLE,"Error: Not Singapore. Returned address 747, Woodlands Circle, Woodlands, Cumberland County, Tennessee, 38571, United States"
20 JALAN MEMBINA,20,JLN MEMBINA,"1.2855981, 103.8256617"
815A CHOA CHU KANG AVENUE 7,815A,CHOA CHU KANG AVE 7,"1.3761348500000001, 103.74697113240842"
540 HOUGANG AVENUE 8,540,HOUGANG AVE 8,"Error: Road retrieved. Returned address Hougang Avenue 8, Hougang, Northeast, 530631, Singapore"
124 TAMPINES STREET 11,124,TAMPINES ST 11,"1.34555415, 103.94944249989042"
122 SENGKANG EAST WAY,122,SENGKANG EAST WAY,"1.38668105, 103.90687199326692"
33 MARSILING DRIVE,33,MARSILING DR,"Error: Road retrieved. Returned address Marsiling Drive, Woodlands, Northwest, 731007, Singapore"
587 ANG MO KIO AVENUE 3,587,ANG MO KIO AVE 3,"1.3701783, 103.85246795073925"
32 BEDOK SOUTH AVENUE 2,32,BEDOK STH AVE 2,"1.32262995, 103.93784152697935"
28 JALAN BUKIT MERAH,28,JLN BT MERAH,"Error: Road retrieved. Returned address Jalan Bukit Merah, Bukit Merah, Singapore, Central, 150128, Singapore"
430 BUKIT PANJANG RING ROAD,430,BT PANJANG RING RD,"Error: Road retrieved. Returned address Bukit Panjang Ring Road, Bukit Panjang, Northwest, 679910, Singapore"
659A JURONG WEST STREET 65,659A,JURONG WEST ST 65,"1.3368419999999999, 103.70244539757105"
537 SERANGOON NORTH AVENUE 4,537,SERANGOON NTH AVE 4,"1.3740383, 103.87320760936032"
832 WOODLANDS STREET 83,832,WOODLANDS ST 83,"Error: Road retrieved. Returned address Woodlands Street 83, Woodlands, Northwest, 738489, Singapore"
571 CHOA CHU KANG STREET 52,571,CHOA CHU KANG ST 52,"1.3940483000000001, 103.74491811049538"
768 CHOA CHU KANG STREET 54,768,CHOA CHU KANG ST 54,"Error: Road retrieved. Returned address Choa Chu Kang Street 54, Zhenghua, Northwest, 689577, Singapore"
55 PIPIT ROAD,55,PIPIT RD,"1.32375015, 103.88827116201534"
23 HOUGANG AVENUE 3,23,HOUGANG AVE 3,"1.3647831, 103.8907794784371"
655A JURONG WEST STREET 61,655A,JURONG WEST ST 61,"1.33552305, 103.69850236155173"
272A SENGKANG CENTRAL,272A,SENGKANG CTRL,"1.3853841, 103.89396725220806"
148 RIVERVALE CRESCENT,148,RIVERVALE CRES,"1.39091325, 103.90508216841155"
177 TOA PAYOH CENTRAL,177,TOA PAYOH CTRL,"1.3339105, 103.8498131"
427 BEDOK NORTH ROAD,427,BEDOK NTH RD,"1.3290823, 103.9276922326568"
158 JALAN TECK WHYE,158,JLN TECK WHYE,"1.3798463, 103.75722861260996"
119 HOUGANG AVENUE 1,119,HOUGANG AVE 1,"Error: Road retrieved. Returned address Hougang Avenue 1, Hougang, Northeast, 530110, Singapore"
3 JALAN BATU,3,JLN BATU,"Error: Not Singapore. Returned address Jalan Batu, Sukaramai, Medan Area, Kota Medan, Sumatera Utara, 20143, Indonesia"
121 MCNAIR ROAD,121,MCNAIR RD,"1.31896765, 103.85638494389988"
265C PUNGGOL WAY,265C,PUNGGOL WAY,"Error: Road retrieved. Returned address Punggol Way, Punggol, Northeast, 820221, Singapore"
732 WOODLANDS CIRCLE,732,WOODLANDS CIRCLE,"1.4432749999999999, 103.7981415556072"
415 HOUGANG AVENUE 10,415,HOUGANG AVE 10,"Error: Road retrieved. Returned address Hougang Avenue 10, Hougang, Northeast, 538766, Singapore"
678A JURONG WEST STREET 64,678A,JURONG WEST ST 64,"1.34511395, 103.70418265398385"
288B JURONG EAST STREET 21,288B,JURONG EAST ST 21,"1.33914785, 103.7427461882235"
524 BUKIT BATOK STREET 52,524,BT BATOK ST 52,"1.3571886499999999, 103.75274909339107"
271 QUEEN STREET,271,QUEEN ST,"Error: Not Singapore. Returned address Queen Caroline Street, Brook Green, London Borough of Hammersmith and Fulham, London, Greater London, England, W6 9RE, United Kingdom"
673A CHOA CHU KANG CRESCENT,673A,CHOA CHU KANG CRES,"Error: Road retrieved. Returned address Choa Chu Kang Crescent, Northwest, 689097, Singapore"
517C JURONG WEST STREET 52,517C,JURONG WEST ST 52,"1.34495245, 103.72003516163814"
425 TAMPINES STREET 41,425,TAMPINES ST 41,"1.35903605, 103.94818620000001"
173 YISHUN AVENUE 7,173,YISHUN AVE 7,"1.4369098, 103.83138944077648"
134 LORONG AH SOO,134,LOR AH SOO,"Error: Road retrieved. Returned address Lorong Ah Soo, Hougang, Northeast, 530129, Singapore"
231 ANG MO KIO AVENUE 3,231,ANG MO KIO AVE 3,"Error: Road retrieved. Returned address Ang Mo Kio Avenue 3, Ang Mo Kio, Singapore, Central, 560564, Singapore"
580 HOUGANG AVENUE 4,580,HOUGANG AVE 4,"Error: Road retrieved. Returned address Hougang Avenue 4, Hougang, Northeast, 530682, Singapore"
362 YUNG AN ROAD,362,YUNG AN RD,"1.3362325, 103.71983752727209"
131 PASIR RIS STREET 11,131,PASIR RIS ST 11,"1.3657750000000002, 103.95653871628758"
527 JURONG WEST STREET 52,527,JURONG WEST ST 52,"1.347792, 103.71609619889392"
308 SERANGOON AVENUE 2,308,SERANGOON AVE 2,"Error: Road retrieved. Returned address Serangoon Avenue 2, Serangoon, Southeast, 556138, Singapore"
145 JALAN BUKIT MERAH,145,JLN BT MERAH,"Error: Road retrieved. Returned address Jalan Bukit Merah, Radin Mas, Bukit Merah, Singapore, Central, 169545, Singapore"
163 JALAN TECK WHYE,163,JLN TECK WHYE,"1.38102205, 103.75705915209434"
839 YISHUN STREET 81,839,YISHUN ST 81,"Error: Road retrieved. Returned address Yishun Street 81, Yishun, Northwest, 760873, Singapore"
851 YISHUN STREET 81,851,YISHUN ST 81,"1.4156369999999998, 103.8366929264328"
80 BEDOK NORTH ROAD,80,BEDOK NTH RD,"1.328459, 103.9405280216913"
702 BEDOK RESERVOIR ROAD,702,BEDOK RESERVOIR RD,"1.33718775, 103.91890683065095"
230 JURONG EAST STREET 21,230,JURONG EAST ST 21,"1.3415132, 103.73753324026549"
430A FERNVALE LINK,430A,FERNVALE LINK,"1.3938736999999999, 103.87852543728043"
691 JURONG WEST CENTRAL 1,691,JURONG WEST CTRL 1,"1.34190255, 103.70639136176948"
106 RIVERVALE WALK,106,RIVERVALE WALK,"1.3825767, 103.90005704240298"
780B WOODLANDS CRESCENT,780B,WOODLANDS CRES,"1.44902, 103.80102017255734"
135 JALAN BUKIT MERAH,135,JLN BT MERAH,"Error: Road retrieved. Returned address Jalan Bukit Merah, Radin Mas, Bukit Merah, Singapore, Central, 169545, Singapore"
137 SERANGOON NORTH AVENUE 2,137,SERANGOON NTH AVE 2,"Error: Road retrieved. Returned address Serangoon North Avenue 2, Serangoon, Southeast, 550151, Singapore"
236 TAMPINES STREET 21,236,TAMPINES ST 21,"1.3558873500000002, 103.94719713882334"
140 PETIR ROAD,140,PETIR RD,"Error: Road retrieved. Returned address Petir Road, Bukit Panjang, Northwest, 678272, Singapore"
71 BEDOK SOUTH ROAD,71,BEDOK STH RD,"1.3204087, 103.94270349832749"
491 ADMIRALTY LINK,491,ADMIRALTY LINK,"1.45623235, 103.81746765083015"
201E TAMPINES STREET 23,201E,TAMPINES ST 23,"1.3530736, 103.95423218555948"
8 CANTONMENT CLOSE,8,CANTONMENT CL,"1.2758331, 103.83901794252134"
634 CHOA CHU KANG NORTH 6,634,CHOA CHU KANG NTH 6,"Error: Road retrieved. Returned address Choa Chu Kang North 6, Northwest, 689579, Singapore"
446 JURONG WEST STREET 42,446,JURONG WEST ST 42,"1.3523017, 103.71979770992561"
798 WOODLANDS DRIVE 72,798,WOODLANDS DR 72,"1.44372005, 103.80379187205337"
224C COMPASSVALE WALK,224C,COMPASSVALE WALK,"1.38862645, 103.89823212066308"
142 RIVERVALE CRESCENT,142,RIVERVALE CRES,"1.390259, 103.90489870375413"
6 JALAN BUKIT HO SWEE,6,JLN BT HO SWEE,"1.2876180000000002, 103.83144603012914"
255 BANGKIT ROAD,255,BANGKIT RD,"1.3797856, 103.77285763897106"
305 TAMPINES STREET 32,305,TAMPINES ST 32,"1.3525684, 103.9555787417477"
860 YISHUN AVENUE 4,860,YISHUN AVE 4,"1.41756495, 103.84001618723437"
214 BUKIT BATOK STREET 21,214,BT BATOK ST 21,"1.3473242, 103.75292058070869"
424 ANG MO KIO AVENUE 3,424,ANG MO KIO AVE 3,"Error: Road retrieved. Returned address Ang Mo Kio Avenue 3, Ang Mo Kio, Singapore, Central, 560564, Singapore"
540 PASIR RIS STREET 51,540,PASIR RIS ST 51,"1.3693677, 103.95073800933028"
299A COMPASSVALE STREET,299A,COMPASSVALE ST,"Error: Road retrieved. Returned address Compassvale Street, Seng Kang, Northeast, 540294, Singapore"
218 TAMPINES STREET 24,218,TAMPINES ST 24,"1.3543792, 103.95251703996152"
333C YISHUN STREET 31,333C,YISHUN ST 31,"1.4318961, 103.84579636256123"
149 BEDOK RESERVOIR ROAD,149,BEDOK RESERVOIR RD,"1.3357412, 103.91273053977886"
979B BUANGKOK CRESCENT,979B,BUANGKOK CRES,"Error: Road retrieved. Returned address Buangkok Crescent, Hougang, Northeast, 536980, Singapore"
184 STIRLING ROAD,184,STIRLING RD,"Error: Not Singapore. Returned address Stirling Road, Berea, Buffalo City Ward 18, East London, Buffalo City Metropolitan Municipality, Eastern Cape, 5241, South Africa"
470 ANG MO KIO AVENUE 10,470,ANG MO KIO AVE 10,"Error: Road retrieved. Returned address Ang Mo Kio Avenue 10, Ang Mo Kio, Singapore, Central, 560449, Singapore"
308B PUNGGOL WALK,308B,PUNGGOL WALK,"1.40770155, 103.89981713215607"
127 RIVERVALE STREET,127,RIVERVALE ST,"1.3905096000000001, 103.90240847297922"
318D ANCHORVALE LINK,318D,ANCHORVALE LINK,"1.39310675, 103.88952716487412"
642 BUKIT BATOK CENTRAL,642,BT BATOK CTRL,"1.3489141, 103.75181402713223"
115 BUKIT MERAH CENTRAL,115,BT MERAH CTRL,"Error: Road retrieved. Returned address Bukit Merah Central, Bukit Merah, Singapore, Central, 150166, Singapore"
44 CHAI CHEE STREET,44,CHAI CHEE ST,"1.32900105, 103.92572373290868"
217 CHOA CHU KANG CENTRAL,217,CHOA CHU KANG CTRL,"1.3832, 103.74637005480943"
168A PUNGGOL EAST,168A,PUNGGOL EAST,"1.39462075, 103.91425026165342"
324 SEMBAWANG CLOSE,324,SEMBAWANG CL,"Error: Road retrieved. Returned address Sembawang Close, Sun Trellis, Sembawang, Northwest, 750333, Singapore"
893 TAMPINES AVENUE 8,893,TAMPINES AVE 8,"1.34856795, 103.9301111746772"
325 WOODLANDS STREET 32,325,WOODLANDS ST 32,"1.4308033, 103.77924257664475"
470 SEGAR ROAD,470,SEGAR RD,"Error: Road retrieved. Returned address Segar Road, Bukit Panjang, Northwest, 677738, Singapore"
163 STIRLING ROAD,163,STIRLING RD,"Error: Not Singapore. Returned address Stirling Road, Berea, Buffalo City Ward 18, East London, Buffalo City Metropolitan Municipality, Eastern Cape, 5241, South Africa"
91 COMMONWEALTH DRIVE,91,C'WEALTH DR,"1.3058242999999998, 103.79972818191033"
36 MOH GUAN TERRACE,36,MOH GUAN TER,"Error: Road retrieved. Returned address Moh Guan Terrace, Tiong Bahru Estate, Bukit Merah, Singapore, Central, 169715, Singapore"
475 SEMBAWANG DRIVE,475,SEMBAWANG DR,"1.45109195, 103.81712870323912"
203 BISHAN STREET 23,203,BISHAN ST 23,"1.3546121, 103.84735022096199"
167 STIRLING ROAD,167,STIRLING RD,"Error: Not Singapore. Returned address Stirling Road, Berea, Buffalo City Ward 18, East London, Buffalo City Metropolitan Municipality, Eastern Cape, 5241, South Africa"
502 SERANGOON NORTH AVENUE 4,502,SERANGOON NTH AVE 4,"Error: Road retrieved. Returned address Serangoon North Avenue 4, Ang Mo Kio Industrial Park 2, Serangoon North, Singapore, Central, 555859, Singapore"
1 CHANGI VILLAGE ROAD,1,CHANGI VILLAGE RD,"1.3885279, 103.9876314"
202 CHOA CHU KANG AVENUE 1,202,CHOA CHU KANG AVE 1,"1.3819332, 103.74924236953562"
254 SIMEI STREET 1,254,SIMEI ST 1,"1.34189855, 103.95197453173336"
101 BISHAN STREET 12,101,BISHAN ST 12,"Error: Road retrieved. Returned address Bishan Street 12, Bishan, Singapore, Central, 570139, Singapore"
846 SIMS AVENUE,846,SIMS AVE,"1.3174807, 103.90154749445695"
155 RIVERVALE CRESCENT,155,RIVERVALE CRES,"1.39071715, 103.90736646969444"
407B FERNVALE ROAD,407B,FERNVALE RD,"1.3889425000000002, 103.87521398587918"
874 TAMPINES STREET 84,874,TAMPINES ST 84,"1.3536584, 103.93199301734761"
122 YISHUN STREET 11,122,YISHUN ST 11,"Error: Road retrieved. Returned address Yishun Street 11, Yishun, Northwest, 768643, Singapore"
275 BANGKIT ROAD,275,BANGKIT RD,"1.37684845, 103.77481623371139"
32 JALAN BAHAGIA,32,JLN BAHAGIA,"1.3260908, 103.85826130493585"
437 WOODLANDS STREET 41,437,WOODLANDS ST 41,"1.4269858, 103.77474179863995"
125 BUKIT MERAH VIEW,125,BT MERAH VIEW,"1.2850406, 103.82379973622159"
358 CLEMENTI AVENUE 2,358,CLEMENTI AVE 2,"1.3135568, 103.76914406286508"
271 PASIR RIS STREET 21,271,PASIR RIS ST 21,"1.36576245, 103.96436835211462"
7 LORONG LEW LIAN,7,LOR LEW LIAN,"1.3492038499999999, 103.87701555000001"
130 MARSILING RISE,130,MARSILING RISE,"Error: Road retrieved. Returned address Marsiling Rise, Woodlands, Northwest, 738099, Singapore"
9 MARSILING DRIVE,9,MARSILING DR,"1.4412761500000002, 103.77646132582522"
320D ANCHORVALE DRIVE,320D,ANCHORVALE DR,"1.3909340000000001, 103.89179247662011"
121 POTONG PASIR AVENUE 1,121,POTONG PASIR AVE 1,"1.3356302, 103.86584107878771"
101 JALAN RAJAH,101,JLN RAJAH,"1.3287151, 103.850545"
121 SERANGOON NORTH AVENUE 1,121,SERANGOON NTH AVE 1,"1.36694285, 103.87129194050152"
625B WOODLANDS DRIVE 52,625B,WOODLANDS DR 52,"Error: Road retrieved. Returned address Woodlands Drive 52, Woodlands, Northwest, 739022, Singapore"
533 UPPER CROSS STREET,533,UPP CROSS ST,"1.2846009, 103.84530280596127"
289 CHOA CHU KANG AVENUE 3,289,CHOA CHU KANG AVE 3,"1.379353, 103.74080472896782"
186C RIVERVALE DRIVE,186C,RIVERVALE DR,"1.39287195, 103.90510360216167"
647 YISHUN STREET 61,647,YISHUN ST 61,"1.4221566, 103.83703255781691"
313A ANCHORVALE ROAD,313A,ANCHORVALE RD,"1.3916766, 103.88766402219576"
821 WOODLANDS STREET 82,821,WOODLANDS ST 82,"Error: Road retrieved. Returned address Woodlands Street 82, Woodlands, Northwest, 738954, Singapore"
541 CHOA CHU KANG STREET 52,541,CHOA CHU KANG ST 52,"Error: Road retrieved. Returned address Choa Chu Kang Street 52, Northwest, 689286, Singapore"
937 TAMPINES AVENUE 5,937,TAMPINES AVE 5,"1.34721705, 103.94162396036451"
548B SEGAR ROAD,548B,SEGAR RD,"1.3895197000000001, 103.76866019486388"
451 FAJAR ROAD,451,FAJAR RD,"Error: Road retrieved. Returned address Fajar Road, Bukit Panjang, Northwest, 673443, Singapore"
526A PASIR RIS STREET 51,526A,PASIR RIS ST 51,"1.3675823999999999, 103.94706515191436"
272C PUNGGOL WALK,272C,PUNGGOL WALK,"1.4029169, 103.9000407488618"
748A BEDOK RESERVOIR CRESCENT,748A,BEDOK RESERVOIR CRES,"1.3364314, 103.92104417325812"
503 HOUGANG AVENUE 8,503,HOUGANG AVE 8,"1.3735373499999999, 103.88751983946604"
535 BEDOK NORTH STREET 3,535,BEDOK NTH ST 3,"1.33270015, 103.9234368523769"
684A JURONG WEST STREET 64,684A,JURONG WEST ST 64,"1.3439993000000001, 103.70394676747311"
4 HAIG ROAD,4,HAIG RD,"1.31208845, 103.89717015311447"
420 BEDOK NORTH STREET 1,420,BEDOK NTH ST 1,"Error: Road retrieved. Returned address Bedok North Street 1, Bedok, Southeast, 469659, Singapore"
278 BISHAN STREET 24,278,BISHAN ST 24,"1.3574062, 103.84353077762069"
625 CHOA CHU KANG STREET 62,625,CHOA CHU KANG ST 62,"Error: Road retrieved. Returned address Choa Chu Kang Street 62, Northwest, 680627, Singapore"
916 HOUGANG AVENUE 9,916,HOUGANG AVE 9,"Error: Road retrieved. Returned address Hougang Avenue 9, Hougang, Northeast, 538692, Singapore"
989C JURONG WEST STREET 93,989C,JURONG WEST ST 93,"1.3357747, 103.6951736166711"
499A TAMPINES AVENUE 9,499A,TAMPINES AVE 9,"Error: Road retrieved. Returned address Tampines Avenue 9, Tampines, Northeast, 522523, Singapore"
701 WOODLANDS DRIVE 40,701,WOODLANDS DR 40,"1.44168535, 103.79585191147135"
153 YISHUN STREET 11,153,YISHUN ST 11,"1.4311717499999999, 103.83422470085681"
72 CIRCUIT ROAD,72,CIRCUIT RD,"1.3245323999999998, 103.88796880606495"
427 JURONG WEST AVENUE 1,427,JURONG WEST AVE 1,"1.3511595, 103.72596028260597"
263 TAMPINES STREET 21,263,TAMPINES ST 21,"1.3533064, 103.951144"
18 HOUGANG AVENUE 3,18,HOUGANG AVE 3,"1.36330075, 103.89192715234967"
120 SIMEI STREET 1,120,SIMEI ST 1,"1.3447996, 103.9531707008611"
155 SIMEI ROAD,155,SIMEI RD,"1.3447125999999998, 103.95822587882556"
123 BISHAN STREET 12,123,BISHAN ST 12,"1.3464918, 103.85047442096774"
355 CHOA CHU KANG CENTRAL,355,CHOA CHU KANG CTRL,"1.38307915, 103.74377940876593"
145 MEI LING STREET,145,MEI LING ST,"1.2939463999999998, 103.80518451382703"
652 WOODLANDS RING ROAD,652,WOODLANDS RING RD,"1.4379184, 103.79981543408465"
367A TAMPINES STREET 34,367A,TAMPINES ST 34,"1.3576651499999999, 103.95994643000142"
216B COMPASSVALE DRIVE,216B,COMPASSVALE DR,"1.39059295, 103.89370028585176"
720 WOODLANDS AVENUE 6,720,WOODLANDS AVE 6,Error: geocode failed on input 720 WOODLANDS AVENUE 6
22 HAVELOCK ROAD,22,HAVELOCK RD,"Error: Not Singapore. Returned address 22, Havelock Road, Sidley, Bexhill-on-Sea, Rother, East Sussex, South East, England, TN39 4AH, United Kingdom"
408 FAJAR ROAD,408,FAJAR RD,"Error: Road retrieved. Returned address Fajar Road, Bukit Panjang, Northwest, 673443, Singapore"
513 JURONG WEST STREET 52,513,JURONG WEST ST 52,"1.3474958, 103.7201522939439"
14 GHIM MOH ROAD,14,GHIM MOH RD,"1.30885435, 103.78916645000001"
840 TAMPINES STREET 82,840,TAMPINES ST 82,"1.3510198, 103.93587087570637"
60 TELOK BLANGAH HEIGHTS,60,TELOK BLANGAH HTS,"1.2760851999999998, 103.81220033292615"
979C BUANGKOK CRESCENT,979C,BUANGKOK CRES,"Error: Road retrieved. Returned address Buangkok Crescent, Hougang, Northeast, 536980, Singapore"
603B PUNGGOL ROAD,603B,PUNGGOL RD,"Error: Road retrieved. Returned address Punggol Road, Punggol, Northeast, 820198, Singapore"
12 HOLLAND AVENUE,12,HOLLAND AVE,"Error: Not Singapore. Returned address 12, Holland Avenue, Buffalo, Erie County, New York, 14224, United States"
45 CHAI CHEE STREET,45,CHAI CHEE ST,"1.3287316, 103.92471467445067"
138 BISHAN STREET 12,138,BISHAN ST 12,"1.34436505, 103.85252172043438"
771 CHOA CHU KANG STREET 54,771,CHOA CHU KANG ST 54,"Error: Road retrieved. Returned address Choa Chu Kang Street 54, Zhenghua, Northwest, 689577, Singapore"
717 CLEMENTI WEST STREET 2,717,CLEMENTI WEST ST 2,"1.30320085, 103.7625796509987"
95 COMMONWEALTH DRIVE,95,C'WEALTH DR,"1.3054122000000001, 103.80111332790224"
468C ADMIRALTY DRIVE,468C,ADMIRALTY DR,"1.4504504, 103.81476931818239"
96 LORONG 3 TOA PAYOH,96,LOR 3 TOA PAYOH,"1.3386312500000002, 103.84839265"
241 BUKIT BATOK EAST AVENUE 5,241,BT BATOK EAST AVE 5,"1.3506933, 103.75497250025359"
411 CHOA CHU KANG AVENUE 3,411,CHOA CHU KANG AVE 3,"1.3808858000000002, 103.7411072482195"
713 PASIR RIS STREET 72,713,PASIR RIS ST 72,"1.38236535, 103.93805790672835"
610 YISHUN STREET 61,610,YISHUN ST 61,"1.42055045, 103.83611559363915"
252 HOUGANG AVENUE 3,252,HOUGANG AVE 3,"1.3602797999999998, 103.89274851394939"
289 TAMPINES STREET 22,289,TAMPINES ST 22,"1.3496296, 103.95530774708013"
4 UPPER ALJUNIED LANE,4,UPP ALJUNIED LANE,"1.3335547, 103.87909264999999"
256 YISHUN RING ROAD,256,YISHUN RING RD,"1.434102, 103.840005"
236 CHOA CHU KANG CENTRAL,236,CHOA CHU KANG CTRL,"1.37979675, 103.74819670575044"
604 CLEMENTI WEST STREET 1,604,CLEMENTI WEST ST 1,"1.3054092499999999, 103.76758007622576"
831 TAMPINES STREET 83,831,TAMPINES ST 83,"1.3502467, 103.93412515047571"
138 SIMEI STREET 1,138,SIMEI ST 1,"1.3473307, 103.95706436393743"
687A CHOA CHU KANG DRIVE,687A,CHOA CHU KANG DR,"1.4044538, 103.75034070673311"
247 HOUGANG AVENUE 3,247,HOUGANG AVE 3,"Error: Road retrieved. Returned address Hougang Avenue 3, Hougang, Northeast, 534412, Singapore"
2B UPPER BOON KENG ROAD,2B,UPP BOON KENG RD,"1.3135914, 103.8715855510774"
899A TAMPINES STREET 81,899A,TAMPINES ST 81,"1.3462008, 103.93526097814035"
764 YISHUN STREET 72,764,YISHUN ST 72,"Error: Road retrieved. Returned address Yishun Street 72, Yishun, Northwest, 760731, Singapore"
142 JALAN BUKIT MERAH,142,JLN BT MERAH,"Error: Road retrieved. Returned address Jalan Bukit Merah, Radin Mas, Bukit Merah, Singapore, Central, 169545, Singapore"
151 WOODLANDS STREET 13,151,WOODLANDS ST 13,"Error: Road retrieved. Returned address Woodlands Street 13, Woodlands, Northwest, 738623, Singapore"
247 BISHAN STREET 22,247,BISHAN ST 22,"1.3611422, 103.84316359607789"
130 CHOA CHU KANG AVENUE 1,130,CHOA CHU KANG AVE 1,"1.381482, 103.75040654518139"
134 BISHAN STREET 12,134,BISHAN ST 12,"1.3455005999999998, 103.85214372908314"
229 PENDING ROAD,229,PENDING RD,"Error: Road retrieved. Returned address Pending Road, Bukit Panjang, Northwest, 670129, Singapore"
605 SENJA ROAD,605,SENJA RD,"Error: Road retrieved. Returned address Senja Road, Bukit Panjang, Northwest, 677741, Singapore"
710 JURONG WEST STREET 71,710,JURONG WEST ST 71,"1.34279525, 103.69486818310483"
269B PUNGGOL FIELD,269B,PUNGGOL FIELD,"1.4034122, 103.89868316256097"
331B ANCHORVALE STREET,331B,ANCHORVALE ST,"1.3956053499999999, 103.89016188195825"
444 TAMPINES STREET 42,444,TAMPINES ST 42,"1.358295, 103.95141426176934"
305 YISHUN CENTRAL,305,YISHUN CTRL,"Error: Road retrieved. Returned address Yishun Central, Yishun, Northwest, 760935, Singapore"
546A SEGAR ROAD,546A,SEGAR RD,"1.388547, 103.77017470933347"
576 PASIR RIS STREET 53,576,PASIR RIS ST 53,"1.37300815, 103.94688910515146"
415A FERNVALE LINK,415A,FERNVALE LINK,"1.3889914, 103.87973030584415"
367 TAMPINES STREET 34,367,TAMPINES ST 34,"1.35838645, 103.960518426277"
283 CHOA CHU KANG AVENUE 3,283,CHOA CHU KANG AVE 3,"1.3798354, 103.74278073095978"
85 WHAMPOA DRIVE,85,WHAMPOA DR,"1.3228973000000002, 103.85652821742619"
543 ANG MO KIO AVENUE 10,543,ANG MO KIO AVE 10,"1.37431195, 103.85629298131309"
381 CLEMENTI AVENUE 5,381,CLEMENTI AVE 5,"1.3185422999999998, 103.76802021693018"
215 JURONG EAST STREET 21,215,JURONG EAST ST 21,"1.3399805, 103.738516"
224D COMPASSVALE WALK,224D,COMPASSVALE WALK,"1.388643, 103.8985854631463"
436B FERNVALE ROAD,436B,FERNVALE RD,"1.39283015, 103.87686562982182"
339 WOODLANDS AVENUE 1,339,WOODLANDS AVE 1,"Error: Road retrieved. Returned address Woodlands Avenue 1, Woodlands, Northwest, 739069, Singapore"
260 BISHAN STREET 22,260,BISHAN ST 22,"Error: Road retrieved. Returned address Bishan Street 22, Bishan, Singapore, Central, 570282, Singapore"
643 CHOA CHU KANG STREET 64,643,CHOA CHU KANG ST 64,"Error: Road retrieved. Returned address Choa Chu Kang Street 64, Zhenghua, Northwest, 689097, Singapore"
367 CLEMENTI AVENUE 2,367,CLEMENTI AVE 2,"1.3129058, 103.771750730825"
370 HOUGANG STREET 31,370,HOUGANG ST 31,"Error: Road retrieved. Returned address Hougang Street 31, Hougang, Northeast, 530371, Singapore"
13 DOVER CLOSE EAST,13,DOVER CL EAST,"1.30536655, 103.78610482483799"
492 JURONG WEST STREET 41,492,JURONG WEST ST 41,"1.3498597, 103.7252886"
149 TAMPINES STREET 12,149,TAMPINES ST 12,"1.3511881, 103.94238674436559"
851 WOODLANDS STREET 83,851,WOODLANDS ST 83,"1.4402115, 103.79231305844075"
642 ANG MO KIO AVENUE 5,642,ANG MO KIO AVE 5,"Error: Road retrieved. Returned address Ang Mo Kio Avenue 5, Ang Mo Kio, Singapore, Central, 569948, Singapore"
126 SERANGOON NORTH AVENUE 1,126,SERANGOON NTH AVE 1,"1.3660218, 103.87190670000001"
703 CHOA CHU KANG STREET 53,703,CHOA CHU KANG ST 53,"Error: Road retrieved. Returned address Choa Chu Kang Street 53, Northwest, 689189, Singapore"
308A ANCHORVALE ROAD,308A,ANCHORVALE RD,"1.3898655, 103.88594497777778"
516 SERANGOON NORTH AVENUE 4,516,SERANGOON NTH AVE 4,"Error: Road retrieved. Returned address Serangoon North Avenue 4, Ang Mo Kio Industrial Park 2, Serangoon North, Singapore, Central, 555859, Singapore"
474 TAMPINES STREET 43,474,TAMPINES ST 43,"1.3599918500000001, 103.95299634473014"
466 ANG MO KIO AVENUE 10,466,ANG MO KIO AVE 10,"1.36584095, 103.85703129999999"
207 ANG MO KIO AVENUE 1,207,ANG MO KIO AVE 1,"Error: Road retrieved. Returned address Ang Mo Kio Avenue 1, Ang Mo Kio, Singapore, Central, 560218, Singapore"
771 BEDOK RESERVOIR VIEW,771,BEDOK RESERVOIR VIEW,"1.3359523, 103.93893626089579"
108 BUKIT BATOK WEST AVENUE 6,108,BT BATOK WEST AVE 6,"1.3473442, 103.74692070406533"
2 JALAN BUKIT HO SWEE,2,JLN BT HO SWEE,"1.28727415, 103.83189585888229"
118D JALAN MEMBINA,118D,JLN MEMBINA,"1.2825316, 103.82691063542373"
508 CHOA CHU KANG STREET 51,508,CHOA CHU KANG ST 51,"Error: Road retrieved. Returned address Choa Chu Kang Street 51, Northwest, 689333, Singapore"
31 BALAM ROAD,31,BALAM RD,"1.3298436, 103.88578875690979"
302 JURONG EAST STREET 32,302,JURONG EAST ST 32,"Error: Road retrieved. Returned address Jurong East Street 32, Jurong East, Southwest, 600371, Singapore"
313C SUMANG LINK,313C,SUMANG LINK,"1.4105842499999999, 103.9015444566178"
164 STIRLING ROAD,164,STIRLING RD,"Error: Not Singapore. Returned address Stirling Road, Berea, Buffalo City Ward 18, East London, Buffalo City Metropolitan Municipality, Eastern Cape, 5241, South Africa"
291D COMPASSVALE STREET,291D,COMPASSVALE ST,"Error: Road retrieved. Returned address Compassvale Street, Seng Kang, Northeast, 540294, Singapore"
524A TAMPINES CENTRAL 7,524A,TAMPINES CTRL 7,"1.35843285, 103.93914019966084"
161 YISHUN STREET 11,161,YISHUN ST 11,"1.4324699, 103.83281910305469"
331 ANG MO KIO AVENUE 1,331,ANG MO KIO AVE 1,"1.3621124, 103.85075727097299"
423 BEDOK NORTH AVENUE 1,423,BEDOK NTH AVE 1,"1.3279521, 103.92755085858656"
757 CHOA CHU KANG NORTH 5,757,CHOA CHU KANG NTH 5,"Error: Road retrieved. Returned address Choa Chu Kang North 5, Northwest, 680533, Singapore"
490 ADMIRALTY LINK,490,ADMIRALTY LINK,"1.4553484, 103.8172466685044"
256 COMPASSVALE ROAD,256,COMPASSVALE RD,"1.3939979500000002, 103.89911425016027"
234 YISHUN STREET 21,234,YISHUN ST 21,"Error: Road retrieved. Returned address Yishun Street 21, Yishun, Northwest, 768610, Singapore"
987C JURONG WEST STREET 93,987C,JURONG WEST ST 93,"1.3366199, 103.69512641809648"
82 WHAMPOA DRIVE,82,WHAMPOA DR,"1.32400065, 103.85663024137793"
170A PUNGGOL FIELD,170A,PUNGGOL FIELD,"Error: Road retrieved. Returned address Punggol Field, Punggol Cove, Punggol, Northeast, 820198, Singapore"
335C YISHUN STREET 31,335C,YISHUN ST 31,"1.4324237499999999, 103.8443890919747"
485 CHOA CHU KANG AVENUE 5,485,CHOA CHU KANG AVE 5,"1.37481965, 103.7380477960102"
117 HOUGANG AVENUE 1,117,HOUGANG AVE 1,"Error: Road retrieved. Returned address Hougang Avenue 1, Hougang, Northeast, 530110, Singapore"
662 HOUGANG AVENUE 4,662,HOUGANG AVE 4,"1.3744431499999998, 103.88262693445816"
622A PUNGGOL CENTRAL,622A,PUNGGOL CTRL,"1.4000371999999999, 103.91108558650943"
682B WOODLANDS DRIVE 62,682B,WOODLANDS DR 62,"Error: Road retrieved. Returned address Woodlands Drive 62, Woodlands, Northwest, 737942, Singapore"
857 WOODLANDS STREET 83,857,WOODLANDS ST 83,"1.4404240000000001, 103.79385905690353"
676A JURONG WEST STREET 64,676A,JURONG WEST ST 64,"1.3459412, 103.70458604622927"
841 TAMPINES STREET 83,841,TAMPINES ST 83,"1.35147035, 103.9347458471558"
899A WOODLANDS DRIVE 50,899A,WOODLANDS DR 50,"Error: Road retrieved. Returned address Woodlands Drive 50, Woodlands, Northwest, 738853, Singapore"
630 ANG MO KIO AVENUE 4,630,ANG MO KIO AVE 4,"Error: Road retrieved. Returned address Ang Mo Kio Avenue 4, Ang Mo Kio, Singapore, Central, 568987, Singapore"
975 HOUGANG STREET 91,975,HOUGANG ST 91,"1.37720245, 103.8796006831178"
339B KANG CHING ROAD,339B,KANG CHING RD,"1.338166, 103.72106510715685"
7 MARINE TERRACE,7,MARINE TER,"1.30411215, 103.91727211344238"
192A RIVERVALE DRIVE,192A,RIVERVALE DR,"1.3943104499999999, 103.90356065094517"
5 LORONG LEW LIAN,5,LOR LEW LIAN,"1.3499806, 103.87684640215231"
8 BEDOK SOUTH AVENUE 2,8,BEDOK STH AVE 2,"1.3228277, 103.93616721822953"
514 JELAPANG ROAD,514,JELAPANG RD,"Error: Road retrieved. Returned address Jelapang Road, Bukit Panjang, Northwest, 671524, Singapore"
293 CHOA CHU KANG AVENUE 3,293,CHOA CHU KANG AVE 3,"1.3782183, 103.7403519181915"
897A WOODLANDS DRIVE 50,897A,WOODLANDS DR 50,"1.43649915, 103.79392650269048"
838 WOODLANDS STREET 82,838,WOODLANDS ST 82,"1.44186625, 103.7912136952587"
8C UPPER BOON KENG ROAD,8C,UPP BOON KENG RD,"1.3131533, 103.87084208097025"
743 YISHUN AVENUE 5,743,YISHUN AVE 5,"1.4299222999999999, 103.83369079783873"
388 BUKIT BATOK WEST AVENUE 5,388,BT BATOK WEST AVE 5,"1.3648231499999999, 103.75222604233974"
483 SEGAR ROAD,483,SEGAR RD,"Error: Road retrieved. Returned address Segar Road, Bukit Panjang, Northwest, 677738, Singapore"
99 WHAMPOA DRIVE,99,WHAMPOA DR,"1.32083755, 103.85386860992884"
156 PASIR RIS STREET 13,156,PASIR RIS ST 13,"Error: Road retrieved. Returned address Pasir Ris Street 13, Pasir Ris, Northeast, 510145, Singapore"
298 PUNGGOL CENTRAL,298,PUNGGOL CTRL,"Error: Road retrieved. Returned address Punggol Central, Punggol, Northeast, 821256, Singapore"
786C WOODLANDS DRIVE 60,786C,WOODLANDS DR 60,"Error: Road retrieved. Returned address Woodlands Drive 60, Woodlands, Northwest, 731799, Singapore"
115 YISHUN RING ROAD,115,YISHUN RING RD,"1.43434815, 103.82829319015218"
286 YISHUN AVENUE 6,286,YISHUN AVE 6,"Error: Road retrieved. Returned address Yishun Avenue 6, Yishun, Northwest, 760406, Singapore"
505B YISHUN STREET 51,505B,YISHUN ST 51,"Error: Road retrieved. Returned address Yishun Street 51, Yishun, Northwest, 762511, Singapore"
125 PENDING ROAD,125,PENDING RD,"Error: Road retrieved. Returned address Pending Road, Bukit Panjang, Northwest, 670129, Singapore"
636C SENJA ROAD,636C,SENJA RD,"1.38737135, 103.75909738217678"
954 HOUGANG AVENUE 9,954,HOUGANG AVE 9,"Error: Road retrieved. Returned address Hougang Avenue 9, Hougang, Northeast, 538692, Singapore"
690 HOUGANG STREET 61,690,HOUGANG ST 61,"Error: Road retrieved. Returned address Hougang Street 61, Hougang, Northeast, 538793, Singapore"
920 HOUGANG STREET 91,920,HOUGANG ST 91,"1.3768284999999998, 103.88405128204359"
165 TAMPINES STREET 12,165,TAMPINES ST 12,"1.3492288499999998, 103.94612908917875"
637 ANG MO KIO AVENUE 6,637,ANG MO KIO AVE 6,"Error: Road retrieved. Returned address Ang Mo Kio Avenue 6, Ang Mo Kio, Singapore, Central, 569845, Singapore"
309 CLEMENTI AVENUE 4,309,CLEMENTI AVE 4,"1.3209119, 103.7664305897355"
110 HOUGANG AVENUE 1,110,HOUGANG AVE 1,"1.3548845, 103.889667"
467 ADMIRALTY DRIVE,467,ADMIRALTY DR,"Error: Not Singapore. Returned address Admiralty Drive, Sunset Beach, Huntington Beach, Orange County, California, 92649, United States"
247 KIM KEAT LINK,247,KIM KEAT LINK,"1.3312865500000002, 103.8552540361016"
365 WOODLANDS AVENUE 5,365,WOODLANDS AVE 5,"Error: Road retrieved. Returned address Woodlands Avenue 5, Woodlands, Northwest, 730900, Singapore"
416 SERANGOON CENTRAL,416,SERANGOON CTRL,"1.3502102, 103.874855649039"
15 HOUGANG AVENUE 3,15,HOUGANG AVE 3,"Error: Road retrieved. Returned address Hougang Avenue 3, Hougang, Northeast, 534412, Singapore"
59B GEYLANG BAHRU,59B,GEYLANG BAHRU,"1.3221921, 103.86809506678205"
30 TELOK BLANGAH RISE,30,TELOK BLANGAH RISE,"1.2728779000000001, 103.82030817535494"
102 JURONG EAST STREET 13,102,JURONG EAST ST 13,"1.3361294, 103.73852089719625"
568 CHOA CHU KANG STREET 52,568,CHOA CHU KANG ST 52,"Error: Road retrieved. Returned address Choa Chu Kang Street 52, Northwest, 689286, Singapore"
22 SAINT GEORGE'S ROAD,22,ST. GEORGE'S RD,"1.325186, 103.8624858771168"
105D EDGEFIELD PLAINS,105D,EDGEFIELD PLAINS,"1.3973066, 103.90527102987552"
863 YISHUN AVENUE 4,863,YISHUN AVE 4,"Error: Road retrieved. Returned address Yishun Avenue 4, Yishun, Northwest, 761672, Singapore"
30 BALAM ROAD,30,BALAM RD,"1.3296381, 103.88722630661765"
360 YISHUN RING ROAD,360,YISHUN RING RD,"1.4277126, 103.84569596407226"
531 BUKIT BATOK STREET 51,531,BT BATOK ST 51,"1.3562601, 103.7503122"
21 BEDOK SOUTH ROAD,21,BEDOK STH RD,"1.3201250500000001, 103.93315476822492"
981B BUANGKOK CRESCENT,981B,BUANGKOK CRES,"Error: Road retrieved. Returned address Buangkok Crescent, Hougang, Northeast, 536980, Singapore"
137 BEDOK NORTH AVENUE 3,137,BEDOK NTH AVE 3,"1.3287985500000001, 103.9354149454637"
129 RIVERVALE STREET,129,RIVERVALE ST,"1.3900321500000001, 103.902582421928"
646 JALAN TENAGA,646,JLN TENAGA,"1.33125165, 103.90614048185193"
408 PASIR RIS DRIVE 6,408,PASIR RIS DR 6,"1.3733683499999998, 103.95356975520875"
43 BEDOK SOUTH ROAD,43,BEDOK STH RD,"1.3215387, 103.94164494283507"
456 CHOA CHU KANG AVENUE 4,456,CHOA CHU KANG AVE 4,"1.3790442, 103.73521630829525"
987B BUANGKOK GREEN,987B,BUANGKOK GREEN,"1.3795614999999999, 103.87810724884898"
819 JURONG WEST STREET 81,819,JURONG WEST ST 81,"1.3456209000000001, 103.69511828799074"
312B SUMANG LINK,312B,SUMANG LINK,"1.4113202, 103.9005232"
441B FERNVALE ROAD,441B,FERNVALE RD,"1.3912318, 103.87466216864996"
255 YISHUN RING ROAD,255,YISHUN RING RD,"1.434385, 103.8406769966295"
24 BALAM ROAD,24,BALAM RD,"1.3302447499999999, 103.88756665741059"
477C UPPER SERANGOON VIEW,477C,UPP SERANGOON VIEW,"Error: Road retrieved. Returned address Upper Serangoon View, Hougang, Northeast, 530476, Singapore"
192 PASIR RIS STREET 12,192,PASIR RIS ST 12,"1.3664084, 103.95899216574938"
121D SENGKANG EAST WAY,121D,SENGKANG EAST WAY,"Error: Road retrieved. Returned address Sengkang East Way, Seng Kang, Northeast, 540143, Singapore"
845 WOODLANDS STREET 82,845,WOODLANDS ST 82,"1.44277615, 103.7928181615091"
501 CHOA CHU KANG STREET 51,501,CHOA CHU KANG ST 51,"Error: Road retrieved. Returned address Choa Chu Kang Street 51, Northwest, 689333, Singapore"
320 UBI AVENUE 1,320,UBI AVE 1,"1.32875065, 103.90423372040766"
332 YISHUN RING ROAD,332,YISHUN RING RD,"Error: Road retrieved. Returned address Yishun Ring Road, Yishun, Northwest, 760413, Singapore"
658 CHOA CHU KANG CRESCENT,658,CHOA CHU KANG CRES,"Error: Road retrieved. Returned address Choa Chu Kang Crescent, Northwest, 689097, Singapore"
258 JURONG EAST STREET 24,258,JURONG EAST ST 24,"1.3437483000000001, 103.73926235277892"
107 JALAN BUKIT MERAH,107,JLN BT MERAH,"Error: Road retrieved. Returned address Jalan Bukit Merah, Radin Mas, Bukit Merah, Singapore, Central, 169545, Singapore"
436 FAJAR ROAD,436,FAJAR RD,"1.3822513, 103.77014800291971"
316 UBI AVENUE 1,316,UBI AVE 1,"1.3292865, 103.90267732032973"
354 HOUGANG AVENUE 7,354,HOUGANG AVE 7,"Error: Road retrieved. Returned address Hougang Avenue 7, Hougang, Northeast, 530377, Singapore"
419 TAMPINES STREET 41,419,TAMPINES ST 41,"1.3580366499999998, 103.9464941785362"
126 TAMPINES STREET 11,126,TAMPINES ST 11,"1.3457710999999999, 103.95034915"
683D WOODLANDS DRIVE 62,683D,WOODLANDS DR 62,"Error: Road retrieved. Returned address Woodlands Drive 62, Woodlands, Northwest, 737942, Singapore"
312C SUMANG LINK,312C,SUMANG LINK,"1.41090365, 103.9013029230459"
337 TAMPINES STREET 32,337,TAMPINES ST 32,"1.3525862499999999, 103.95982620316778"
111A DEPOT ROAD,111A,DEPOT RD,"1.2810624000000002, 103.80886507051585"
735 JURONG WEST STREET 75,735,JURONG WEST ST 75,"1.3458874, 103.7008018"
253 BANGKIT ROAD,253,BANGKIT RD,"1.3800086500000002, 103.77487807963254"
918 JURONG WEST STREET 91,918,JURONG WEST ST 91,"1.34053315, 103.68715760723464"
353A ADMIRALTY DRIVE,353A,ADMIRALTY DR,"Error: Not Singapore. Returned address Admiralty Drive, Sunset Beach, Huntington Beach, Orange County, California, 92649, United States"
296A COMPASSVALE CRESCENT,296A,COMPASSVALE CRES,"1.39721165, 103.89932571664848"
513 PASIR RIS STREET 52,513,PASIR RIS ST 52,"1.3749875999999999, 103.94348041798517"
272A PUNGGOL WALK,272A,PUNGGOL WALK,"1.4031478, 103.90065814671061"
135 SERANGOON NORTH AVENUE 2,135,SERANGOON NTH AVE 2,"Error: Road retrieved. Returned address Serangoon North Avenue 2, Serangoon, Southeast, 550151, Singapore"
226 TAMPINES STREET 23,226,TAMPINES ST 23,"1.35547125, 103.95404821737183"
672 JALAN DAMAI,672,JLN DAMAI,"1.3321624, 103.90846524387754"
106 POTONG PASIR AVENUE 1,106,POTONG PASIR AVE 1,"1.3340806, 103.86820461311706"
154 ANG MO KIO AVENUE 5,154,ANG MO KIO AVE 5,"1.3762767, 103.84123954963235"
110 BEDOK RESERVOIR ROAD,110,BEDOK RESERVOIR RD,"1.33019585, 103.91031734471434"
236 BISHAN STREET 22,236,BISHAN ST 22,"Error: Road retrieved. Returned address Bishan Street 22, Bishan, Singapore, Central, 570282, Singapore"
486 SEGAR ROAD,486,SEGAR RD,"1.3891068500000001, 103.77188246340792"
47 CIRCUIT ROAD,47,CIRCUIT RD,"1.3257588999999999, 103.88576154933332"
265 BOON LAY DRIVE,265,BOON LAY DR,"1.34575255, 103.70656413225976"
613 JURONG WEST STREET 62,613,JURONG WEST ST 62,"1.3398836, 103.70064754870702"
93 WHAMPOA DRIVE,93,WHAMPOA DR,"1.32220735, 103.85495476023728"
176C EDGEFIELD PLAINS,176C,EDGEFIELD PLAINS,"Error: Road retrieved. Returned address Edgefield Plains, Punggol, Northeast, 828850, Singapore"
770 BEDOK RESERVOIR VIEW,770,BEDOK RESERVOIR VIEW,"1.33602935, 103.93816452359518"
570 HOUGANG STREET 51,570,HOUGANG ST 51,"1.3779664999999999, 103.88820692509594"
658D JURONG WEST STREET 65,658D,JURONG WEST ST 65,"1.3371771, 103.70078134916379"
325 SEMBAWANG CRESCENT,325,SEMBAWANG CRES,"1.44454965, 103.81883359538914"
266B COMPASSVALE BOW,266B,COMPASSVALE BOW,"Error: Road retrieved. Returned address Compassvale Bow, Seng Kang, Northeast, 544275, Singapore"
203A COMPASSVALE ROAD,203A,COMPASSVALE RD,"Error: Road retrieved. Returned address Compassvale Road, Seng Kang, Northeast, 544757, Singapore"
107 SIMEI STREET 1,107,SIMEI ST 1,"1.3420120999999998, 103.9503272738157"
748C BEDOK RESERVOIR CRESCENT,748C,BEDOK RESERVOIR CRES,"1.3361694, 103.92156196790305"
26B JALAN MEMBINA,26B,JLN MEMBINA,"1.28306385, 103.82560967167316"
110 SPOTTISWOODE PARK ROAD,110,SPOTTISWOODE PK RD,"1.2737159, 103.83655780000001"
469 CHOA CHU KANG AVENUE 3,469,CHOA CHU KANG AVE 3,"1.37786275, 103.73753437647883"
557 JURONG WEST STREET 42,557,JURONG WEST ST 42,"1.3540027, 103.7187528"
858 JURONG WEST STREET 81,858,JURONG WEST ST 81,"1.34822335, 103.69644686762298"
34 MARINE CRESCENT,34,MARINE CRES,"1.303802, 103.9124606"
167B PUNGGOL EAST,167B,PUNGGOL EAST,"1.3942487, 103.91500824757193"
546 WOODLANDS DRIVE 16,546,WOODLANDS DR 16,"1.429721, 103.79403553126377"
288D BUKIT BATOK STREET 25,288D,BT BATOK ST 25,"1.34587595, 103.75907280120583"
694 JURONG WEST CENTRAL 1,694,JURONG WEST CTRL 1,"1.3432602999999999, 103.7066670106021"
335 SERANGOON AVENUE 3,335,SERANGOON AVE 3,"Error: Road retrieved. Returned address Serangoon Avenue 3, The Scala, Serangoon, Southeast, 556112, Singapore"
110 TAMPINES STREET 11,110,TAMPINES ST 11,"1.34698875, 103.94936166995527"
239 LORONG 1 TOA PAYOH,239,LOR 1 TOA PAYOH,"1.3405054, 103.85122912678064"
443C FAJAR ROAD,443C,FAJAR RD,"1.3805013499999998, 103.76972324509418"
5 TG PAGAR PLAZA,5,TG PAGAR PLAZA,"Error: Not Singapore. Returned address Tg Alam, Pagar Alam, Sumatera Selatan, Indonesia"
8 MARINE TERRACE,8,MARINE TER,"1.3043906, 103.91612003098889"
107A EDGEFIELD PLAINS,107A,EDGEFIELD PLAINS,"1.3972565000000001, 103.90689556106511"
36 LORONG 5 TOA PAYOH,36,LOR 5 TOA PAYOH,"1.33485395, 103.85518346050858"
218 YISHUN STREET 21,218,YISHUN ST 21,"1.4329465, 103.83625226614811"
66 TELOK BLANGAH DRIVE,66,TELOK BLANGAH DR,"1.2741438999999999, 103.80972190225873"
346 UBI AVENUE 1,346,UBI AVE 1,"1.32598955, 103.89968910027814"
96 GEYLANG BAHRU,96,GEYLANG BAHRU,"Error: Road retrieved. Returned address Geylang Bahru, Kallang, Singapore, Central, 339686, Singapore"
312A ANCHORVALE LANE,312A,ANCHORVALE LANE,"1.39170235, 103.8852732399148"
515 SERANGOON NORTH AVENUE 4,515,SERANGOON NTH AVE 4,"Error: Road retrieved. Returned address Serangoon North Avenue 4, Serangoon North, Singapore, Central, 551535, Singapore"
114 LENGKONG TIGA,114,LENGKONG TIGA,"1.3232742499999999, 103.91198621526975"
652 HOUGANG AVENUE 8,652,HOUGANG AVE 8,"Error: Road retrieved. Returned address Hougang Avenue 8, Hougang, Northeast, 530631, Singapore"
28 BENDEMEER ROAD,28,BENDEMEER RD,"1.31869605, 103.8632538476834"
498E TAMPINES STREET 45,498E,TAMPINES ST 45,"1.36158075, 103.95915591656592"
164 BEDOK SOUTH ROAD,164,BEDOK STH RD,"1.3200734, 103.9465222519834"
641 HOUGANG AVENUE 8,641,HOUGANG AVE 8,"1.37127605, 103.8800799543403"
9 GLOUCESTER ROAD,9,GLOUCESTER RD,"Error: Not Singapore. Returned address 9, Gloucester Road, Higham Hill, London Borough of Waltham Forest, London, Greater London, England, E17, United Kingdom"
610 SENJA ROAD,610,SENJA RD,"Error: Road retrieved. Returned address Senja Road, Bukit Panjang, Northwest, 677741, Singapore"
313 TAMPINES STREET 33,313,TAMPINES ST 33,"1.35219665, 103.95674939774504"
107 POTONG PASIR AVENUE 1,107,POTONG PASIR AVE 1,"1.3345569, 103.86840194561256"
322 YISHUN CENTRAL,322,YISHUN CTRL,"1.42874645, 103.84086783708607"
177 LOMPANG ROAD,177,LOMPANG RD,"Error: Road retrieved. Returned address Lompang Road, Bukit Panjang, Northwest, 677743, Singapore"
555 JURONG WEST STREET 42,555,JURONG WEST ST 42,"1.35353025, 103.71857592288043"
306B PUNGGOL PLACE,306B,PUNGGOL PL,"1.4058546, 103.90579158046026"
264A COMPASSVALE BOW,264A,COMPASSVALE BOW,"1.3812474, 103.89680610266996"
250D COMPASSVALE STREET,250D,COMPASSVALE ST,"Error: Road retrieved. Returned address Compassvale Street, Seng Kang, Northeast, 540294, Singapore"
627 WOODLANDS AVENUE 6,627,WOODLANDS AVE 6,"Error: Road retrieved. Returned address Woodlands Avenue 6, Woodlands, Northwest, 737858, Singapore"
729 YISHUN STREET 71,729,YISHUN ST 71,"1.4260582, 103.83186634657447"
103 BEDOK RESERVOIR ROAD,103,BEDOK RESERVOIR RD,"1.32876035, 103.90960513283085"
343 CLEMENTI AVENUE 5,343,CLEMENTI AVE 5,"1.3179189, 103.7709822562311"
124 HOUGANG AVENUE 1,124,HOUGANG AVE 1,"Error: Road retrieved. Returned address Hougang Avenue 1, Hougang, Northeast, 530110, Singapore"
5 DOVER CRESCENT,5,DOVER CRES,"1.3041405, 103.7825227"
350 TAMPINES STREET 33,350,TAMPINES ST 33,"1.35375665, 103.96275731144416"
249 BUKIT BATOK EAST AVENUE 5,249,BT BATOK EAST AVE 5,"1.35057875, 103.75660177732769"
122 LORONG 2 TOA PAYOH,122,LOR 2 TOA PAYOH,"1.3397885999999999, 103.84637098418239"
143 POTONG PASIR AVENUE 2,143,POTONG PASIR AVE 2,"1.33278875, 103.86657816547768"
211 YISHUN STREET 21,211,YISHUN ST 21,"1.4317852, 103.83828635066314"
439 YISHUN AVENUE 11,439,YISHUN AVE 11,"1.4219602, 103.84640457881281"
325 YISHUN CENTRAL,325,YISHUN CTRL,"1.42934505, 103.84202991342582"
231 SIMEI STREET 4,231,SIMEI ST 4,"1.3436496999999998, 103.95688239517042"
667 WOODLANDS RING ROAD,667,WOODLANDS RING RD,"1.43864205, 103.79797419252255"
425 FAJAR ROAD,425,FAJAR RD,"Error: Road retrieved. Returned address Fajar Road, Bukit Panjang, Northwest, 673443, Singapore"
706 CHOA CHU KANG STREET 53,706,CHOA CHU KANG ST 53,"Error: Road retrieved. Returned address Choa Chu Kang Street 53, Northwest, 689189, Singapore"
33 EUNOS CRESCENT,33,EUNOS CRES,"1.3203596499999999, 103.90086595164726"
762 PASIR RIS STREET 71,762,PASIR RIS ST 71,"1.3757595, 103.93380542550393"
136 PASIR RIS STREET 11,136,PASIR RIS ST 11,"1.36484725, 103.95805029257042"
722 YISHUN STREET 71,722,YISHUN ST 71,"1.42551825, 103.82853192562834"
245 YISHUN AVENUE 9,245,YISHUN AVE 9,"1.4345571000000001, 103.84202420358723"
130 YISHUN STREET 11,130,YISHUN ST 11,"1.43351655, 103.83128200531286"
65 TEBAN GARDENS ROAD,65,TEBAN GDNS RD,"1.3219999, 103.73903320950777"
748 PASIR RIS STREET 71,748,PASIR RIS ST 71,"1.3784302, 103.93491848485087"
625 BEDOK RESERVOIR ROAD,625,BEDOK RESERVOIR RD,"1.33396245, 103.91612216800318"
418 CANBERRA ROAD,418,CANBERRA RD,"1.4524045, 103.81925093611089"
63 CHAI CHEE ROAD,63,CHAI CHEE RD,"1.3260239999999999, 103.9215356367647"
648 JALAN TENAGA,648,JLN TENAGA,"1.33237745, 103.9054893714113"
271 TOH GUAN ROAD,271,TOH GUAN RD,"1.34167905, 103.74627917998913"
103 HENDERSON CRESCENT,103,HENDERSON CRES,"Error: Not Singapore. Returned address 103, Henderson Crescent, Alliston, New Tecumseth, Simcoe County, Central Ontario, Ontario, L9R 0E9, Canada"
708 PASIR RIS DRIVE 10,708,PASIR RIS DR 10,"1.3812703, 103.93909009303404"
536 SERANGOON NORTH AVENUE 4,536,SERANGOON NTH AVE 4,"1.3739348, 103.87520015484832"
545 BEDOK NORTH STREET 3,545,BEDOK NTH ST 3,"1.3299811, 103.92392410902852"
690D CHOA CHU KANG CRESCENT,690D,CHOA CHU KANG CRES,"Error: Road retrieved. Returned address Choa Chu Kang Crescent, Northwest, 689097, Singapore"
1 HOUGANG AVENUE 3,1,HOUGANG AVE 3,"1.3641729, 103.89298276610907"
632 HOUGANG AVENUE 8,632,HOUGANG AVE 8,"1.3705157, 103.88057469568966"
87 COMMONWEALTH CLOSE,87,C'WEALTH CL,"1.30463195, 103.7994678731338"
401 ADMIRALTY LINK,401,ADMIRALTY LINK,"1.4542236000000002, 103.81580921409662"
209A COMPASSVALE LANE,209A,COMPASSVALE LANE,"1.38358115, 103.8986181295556"
436D FERNVALE ROAD,436D,FERNVALE RD,"1.39215945, 103.8765123533851"
137 SIMEI STREET 1,137,SIMEI ST 1,"1.34758395, 103.95635758201803"
399 YISHUN AVENUE 6,399,YISHUN AVE 6,"Error: Road retrieved. Returned address Yishun Avenue 6, Yishun, Northwest, 760406, Singapore"
162 BEDOK SOUTH ROAD,162,BEDOK STH RD,"1.3196482999999999, 103.94607919437942"
644 HOUGANG AVENUE 8,644,HOUGANG AVE 8,"1.3714257, 103.88129108283363"
111 HO CHING ROAD,111,HO CHING RD,"1.33388255, 103.72331618260563"
895C WOODLANDS DRIVE 50,895C,WOODLANDS DR 50,"Error: Road retrieved. Returned address Woodlands Drive 50, Woodlands, Northwest, 738853, Singapore"
109 BEDOK NORTH ROAD,109,BEDOK NTH RD,"1.3320433999999999, 103.93493259216314"
281 TOH GUAN ROAD,281,TOH GUAN RD,"1.3398940499999998, 103.74656587422113"
319 TAMPINES STREET 33,319,TAMPINES ST 33,"1.35102535, 103.95632353356534"
700A ANG MO KIO AVENUE 6,700A,ANG MO KIO AVE 6,"1.3698728999999998, 103.84591113731156"
897B WOODLANDS DRIVE 50,897B,WOODLANDS DR 50,"1.4360705500000002, 103.79395978129145"
815 TAMPINES AVENUE 4,815,TAMPINES AVE 4,"1.34733145, 103.93744552280681"
114 BEDOK NORTH STREET 2,114,BEDOK NTH ST 2,"1.3304845, 103.93578019520368"
12 JOO SENG ROAD,12,JOO SENG RD,"1.33588, 103.87896214391017"
284 YISHUN AVENUE 6,284,YISHUN AVE 6,"1.4396844500000001, 103.83884445"
350 CORPORATION DRIVE,350,CORPORATION DR,"1.33891155, 103.71929370132958"
606 BEDOK RESERVOIR ROAD,606,BEDOK RESERVOIR RD,"1.33127965, 103.91380625939289"
650 SENJA LINK,650,SENJA LINK,"Error: Road retrieved. Returned address Senja Link, Bukit Panjang, Northwest, 670631, Singapore"
430 JURONG WEST AVENUE 1,430,JURONG WEST AVE 1,"1.35183395, 103.72573699944908"
896A TAMPINES STREET 81,896A,TAMPINES ST 81,"1.3485344000000001, 103.93267005248518"
161 SIMEI ROAD,161,SIMEI RD,"1.34558675, 103.96034585597728"
673C JURONG WEST STREET 65,673C,JURONG WEST ST 65,"1.34472155, 103.70127682229793"
101 AH HOOD ROAD,101,AH HOOD RD,"1.327386, 103.8444686"
258D COMPASSVALE ROAD,258D,COMPASSVALE RD,"1.3935361, 103.89697478344524"
236 LORONG 1 TOA PAYOH,236,LOR 1 TOA PAYOH,"1.3403364999999998, 103.8520144558447"
356C ADMIRALTY DRIVE,356C,ADMIRALTY DR,"Error: Not Singapore. Returned address Admiralty Drive, Sunset Beach, Huntington Beach, Orange County, California, 92649, United States"
230 BISHAN STREET 23,230,BISHAN ST 23,"Error: Road retrieved. Returned address Bishan Street 23, Bishan, Singapore, Central, 570213, Singapore"
623 BUKIT BATOK CENTRAL,623,BT BATOK CTRL,"1.35091475, 103.7493085786633"
763 CHOA CHU KANG NORTH 5,763,CHOA CHU KANG NTH 5,"Error: Road retrieved. Returned address Choa Chu Kang North 5, Northwest, 680533, Singapore"
47 JALAN TIGA,47,JLN TIGA,"1.30879045, 103.88492033112355"
371 JURONG EAST STREET 32,371,JURONG EAST ST 32,"Error: Road retrieved. Returned address Jurong East Street 32, Jurong East, Southwest, 600371, Singapore"
445 JURONG WEST STREET 42,445,JURONG WEST ST 42,"1.35215005, 103.72080522332008"
258B PUNGGOL FIELD,258B,PUNGGOL FIELD,"1.4037609, 103.89652908821138"
291A BUKIT BATOK STREET 24,291A,BT BATOK ST 24,"1.34350805, 103.75634433709104"
216 PASIR RIS STREET 21,216,PASIR RIS ST 21,"1.36891615, 103.96062024699435"
687B WOODLANDS DRIVE 75,687B,WOODLANDS DR 75,NONE
781 YISHUN RING ROAD,781,YISHUN RING RD,"1.42228825, 103.83234239080988"
103A EDGEFIELD PLAINS,103A,EDGEFIELD PLAINS,"Error: Road retrieved. Returned address Edgefield Plains, Punggol, Northeast, 828850, Singapore"
41 BEDOK SOUTH ROAD,41,BEDOK STH RD,"1.3210293499999999, 103.94074842191765"
547B SEGAR ROAD,547B,SEGAR RD,"1.3884474, 103.76909337652543"
552 HOUGANG STREET 51,552,HOUGANG ST 51,"1.37875875, 103.8903942"
671C JURONG WEST STREET 65,671C,JURONG WEST ST 65,"1.3439149499999998, 103.70159103585402"
30 JALAN BAHAGIA,30,JLN BAHAGIA,"1.3257138, 103.85822188168369"
204 PASIR RIS STREET 21,204,PASIR RIS ST 21,"1.3673518, 103.962681735226"
12 LORONG 7 TOA PAYOH,12,LOR 7 TOA PAYOH,"1.3365295, 103.85788716641272"
703 YISHUN AVENUE 5,703,YISHUN AVE 5,"1.4295936, 103.82888738373816"
208 NEW UPPER CHANGI ROAD,208,NEW UPP CHANGI RD,"1.3253100500000001, 103.93131440214175"
529 CHOA CHU KANG STREET 51,529,CHOA CHU KANG ST 51,"Error: Road retrieved. Returned address Choa Chu Kang Street 51, Northwest, 689333, Singapore"
72 MARINE DRIVE,72,MARINE DR,"1.3042909, 103.90836363264225"
579 WOODLANDS DRIVE 16,579,WOODLANDS DR 16,"1.4307994, 103.7958539217411"
163A PUNGGOL CENTRAL,163A,PUNGGOL CTRL,"1.3956695, 103.91406630717688"
147 TAMPINES AVENUE 5,147,TAMPINES AVE 5,"1.3492309, 103.94211537927882"
825 YISHUN STREET 81,825,YISHUN ST 81,"Error: Road retrieved. Returned address Yishun Street 81, Yishun, Northwest, 760873, Singapore"
427 HOUGANG AVENUE 6,427,HOUGANG AVE 6,"1.3744939500000002, 103.8930907997979"
235 TAMPINES STREET 21,235,TAMPINES ST 21,"1.3554954000000001, 103.94830065"
403 FAJAR ROAD,403,FAJAR RD,"Error: Road retrieved. Returned address Fajar Road, Bukit Panjang, Northwest, 673443, Singapore"
251 HOUGANG AVENUE 3,251,HOUGANG AVE 3,"Error: Road retrieved. Returned address Hougang Avenue 3, Hougang, Northeast, 534412, Singapore"
123 PENDING ROAD,123,PENDING RD,"1.3775331, 103.77070545000001"
559 ANG MO KIO AVENUE 10,559,ANG MO KIO AVE 10,"Error: Road retrieved. Returned address Ang Mo Kio Avenue 10, Ang Mo Kio, Singapore, Central, 560449, Singapore"
275 BUKIT BATOK EAST AVENUE 4,275,BT BATOK EAST AVE 4,"1.3481162, 103.75834969399295"
249 BANGKIT ROAD,249,BANGKIT RD,"Error: Road retrieved. Returned address Bangkit Road, Bukit Panjang, Northwest, 670260, Singapore"
4 GHIM MOH ROAD,4,GHIM MOH RD,"1.31319965, 103.78826971342082"
453C FERNVALE ROAD,453C,FERNVALE RD,"1.39351855, 103.8751890203441"
209 SERANGOON CENTRAL,209,SERANGOON CTRL,"Error: Road retrieved. Returned address Serangoon Central, Serangoon, Southeast, 550409, Singapore"
523C TAMPINES CENTRAL 7,523C,TAMPINES CTRL 7,"1.3599502, 103.93882711882101"
168 LORONG 1 TOA PAYOH,168,LOR 1 TOA PAYOH,"Error: Road retrieved. Returned address Lorong 1 Toa Payoh, Toa Payoh, Singapore, Central, 313130, Singapore"
344 WOODLANDS STREET 32,344,WOODLANDS ST 32,"Error: Road retrieved. Returned address Woodlands Street 32, Woodlands, Northwest, 739065, Singapore"
429B YISHUN AVENUE 11,429B,YISHUN AVE 11,"Error: Road retrieved. Returned address Yishun Avenue 11, Yishun, Northwest, 760413, Singapore"
426A YISHUN AVENUE 11,426A,YISHUN AVE 11,"Error: Road retrieved. Returned address Yishun Avenue 11, Yishun, Northwest, 760413, Singapore"
649 ANG MO KIO AVENUE 5,649,ANG MO KIO AVE 5,"Error: Road retrieved. Returned address Ang Mo Kio Avenue 5, Ang Mo Kio, Singapore, Central, 569948, Singapore"
539 ANG MO KIO AVENUE 10,539,ANG MO KIO AVE 10,"1.3753780999999998, 103.85426467285905"
206 BUKIT BATOK STREET 21,206,BT BATOK ST 21,"1.34665765, 103.74940821124362"
511 BUKIT BATOK STREET 52,511,BT BATOK ST 52,"1.35251665, 103.75360894426123"
