address,block,street_name,lat_long
163 SIMEI ROAD,163,SIMEI RD,"1.3459104499999999, 103.95938543128159"
489B TAMPINES STREET 45,489B,TAMPINES ST 45,"1.3612348, 103.95753390502699"
314 YISHUN RING ROAD,314,YISHUN RING RD,"1.4316665999999998, 103.84185670459254"
564 ANG MO KIO AVENUE 3,564,ANG MO KIO AVE 3,"Error: Road retrieved. Returned address Ang Mo Kio Avenue 3, Ang Mo Kio, Singapore, Central, 560564, Singapore"
338 BUKIT BATOK STREET 34,338,BT BATOK ST 34,"1.36312835, 103.75119760000001"
212 JURONG EAST STREET 21,212,JURONG EAST ST 21,"1.33907745, 103.74041497897491"
205 TOA PAYOH NORTH,205,TOA PAYOH NTH,"1.3420139, 103.84820662971964"
420 FAJAR ROAD,420,FAJAR RD,"Error: Road retrieved. Returned address Fajar Road, Bukit Panjang, Northwest, 673443, Singapore"
765 JURONG WEST STREET 74,765,JURONG WEST ST 74,"1.3500622500000001, 103.69834636700881"
244 KIM KEAT LINK,244,KIM KEAT LINK,"1.3307810999999998, 103.85640769970729"
875 WOODLANDS STREET 82,875,WOODLANDS ST 82,"Error: Road retrieved. Returned address Woodlands Street 82, Woodlands, Northwest, 738954, Singapore"
225 ANG MO KIO AVENUE 1,225,ANG MO KIO AVE 1,"Error: Road retrieved. Returned address Ang Mo Kio Avenue 1, Ang Mo Kio, Singapore, Central, 560218, Singapore"
121 PAYA LEBAR WAY,121,PAYA LEBAR WAY,"1.3221721, 103.88363377517376"
231 HOUGANG STREET 21,231,HOUGANG ST 21,"1.3583002999999998, 103.88795189037666"
273D JURONG WEST AVENUE 3,273D,JURONG WEST AVE 3,"1.35226935, 103.70308854521645"
305B PUNGGOL ROAD,305B,PUNGGOL RD,"Error: Road retrieved. Returned address Punggol Road, Punggol, Northeast, 820198, Singapore"
506 PASIR RIS STREET 52,506,PASIR RIS ST 52,"1.3768774499999998, 103.94500414103697"
669B EDGEFIELD PLAINS,669B,EDGEFIELD PLAINS,"1.4048129500000002, 103.9142489232469"
1 LORONG 7 TOA PAYOH,1,LOR 7 TOA PAYOH,"1.33961615, 103.85337222704908"
273 YISHUN STREET 22,273,YISHUN ST 22,"Error: Road retrieved. Returned address Yishun Street 22, Yishun, Northwest, 760264, Singapore"
406 YISHUN AVENUE 6,406,YISHUN AVE 6,"1.4260438, 103.84930301398045"
558 ANG MO KIO AVENUE 10,558,ANG MO KIO AVE 10,"Error: Road retrieved. Returned address Ang Mo Kio Avenue 10, Ang Mo Kio, Singapore, Central, 560449, Singapore"
179 LOMPANG ROAD,179,LOMPANG RD,"Error: Road retrieved. Returned address Lompang Road, Bukit Panjang, Northwest, 677743, Singapore"
14 SAINT GEORGE'S ROAD,14,ST. GEORGE'S RD,"1.3237549, 103.86204749272082"
532 SERANGOON NORTH AVENUE 4,532,SERANGOON NTH AVE 4,"Error: Road retrieved. Returned address Serangoon North Avenue 4, Ang Mo Kio Industrial Park 2, Serangoon North, Singapore, Central, 555859, Singapore"
291C BUKIT BATOK STREET 24,291C,BT BATOK ST 24,"1.3430023, 103.75524028613205"
440B CLEMENTI AVENUE 3,440B,CLEMENTI AVE 3,"Error: Road retrieved. Returned address Clementi Avenue 3, Clementi, Southwest, 120443, Singapore"
644 JURONG WEST STREET 61,644,JURONG WEST ST 61,"1.33943125, 103.69609250938775"
619 BUKIT PANJANG RING ROAD,619,BT PANJANG RING RD,"Error: Road retrieved. Returned address Bukit Panjang Ring Road, Bukit Panjang, Northwest, 679910, Singapore"
369 TAMPINES STREET 34,369,TAMPINES ST 34,"1.3586809, 103.96026712801508"
46 TEBAN GARDENS ROAD,46,TEBAN GDNS RD,"1.3201938, 103.74056408846442"
15 BEACH ROAD,15,BEACH RD,"Error: Not Singapore. Returned address 15, Beach Road, Town of Beekman, Dutchess County, New York, 12570, United States"
111 HOUGANG AVENUE 1,111,HOUGANG AVE 1,"Error: Road retrieved. Returned address Hougang Avenue 1, Hougang, Northeast, 530110, Singapore"
80C TELOK BLANGAH STREET 31,80C,TELOK BLANGAH ST 31,"1.2735167, 103.8072500075511"
528B PASIR RIS STREET 51,528B,PASIR RIS ST 51,"1.3706511, 103.94812842330498"
175D PUNGGOL FIELD,175D,PUNGGOL FIELD,"Error: Road retrieved. Returned address Punggol Field, Punggol Cove, Punggol, Northeast, 820198, Singapore"
49 CIRCUIT ROAD,49,CIRCUIT RD,"1.3251176500000001, 103.88568784167661"
657A JURONG WEST STREET 65,657A,JURONG WEST ST 65,"1.3354216, 103.70029253560725"
842B TAMPINES STREET 82,842B,TAMPINES ST 82,"1.3511437, 103.93712477701777"
818 WOODLANDS STREET 82,818,WOODLANDS ST 82,"1.4416703499999999, 103.7901776853478"
423 BUKIT BATOK WEST AVENUE 2,423,BT BATOK WEST AVE 2,"1.3621339, 103.74497709600439"
303 CLEMENTI AVENUE 4,303,CLEMENTI AVE 4,"1.3213542999999999, 103.76486146560785"
283 TOH GUAN ROAD,283,TOH GUAN RD,"1.3391573499999998, 103.74670722020048"
643 PUNGGOL CENTRAL,643,PUNGGOL CTRL,"1.3973033, 103.91600154504417"
868 WOODLANDS STREET 83,868,WOODLANDS ST 83,"Error: Road retrieved. Returned address Woodlands Street 83, Woodlands, Northwest, 738489, Singapore"
205 BEDOK NORTH STREET 1,205,BEDOK NTH ST 1,"1.32600805, 103.93111635808668"
133 EDGEDALE PLAINS,133,EDGEDALE PLAINS,"Error: Road retrieved. Returned address Edgedale Plains, Punggol, Northeast, 828867, Singapore"
921 TAMPINES STREET 91,921,TAMPINES ST 91,"1.34804015, 103.94090658143301"
527 WOODLANDS DRIVE 14,527,WOODLANDS DR 14,"1.43180055, 103.79214524080027"
685C WOODLANDS DRIVE 73,685C,WOODLANDS DR 73,"1.4418057, 103.80600850221238"
219A JURONG EAST STREET 21,219A,JURONG EAST ST 21,"1.3405954, 103.7374613210572"
406 JURONG WEST STREET 42,406,JURONG WEST ST 42,"1.35430215, 103.72245365567183"
159 LORONG 1 TOA PAYOH,159,LOR 1 TOA PAYOH,"Error: Road retrieved. Returned address Lorong 1 Toa Payoh, Toa Payoh, Singapore, Central, 313130, Singapore"
225 BUKIT BATOK CENTRAL,225,BT BATOK CTRL,"1.34830185, 103.75295473332142"
728 CLEMENTI WEST STREET 2,728,CLEMENTI WEST ST 2,"1.3056131, 103.7636023"
144 PASIR RIS STREET 11,144,PASIR RIS ST 11,"1.3628258500000001, 103.96057225066278"
543 PASIR RIS STREET 51,543,PASIR RIS ST 51,"1.3691938000000001, 103.95153256684429"
291C COMPASSVALE STREET,291C,COMPASSVALE ST,"1.39634535, 103.89857076363637"
520 JELAPANG ROAD,520,JELAPANG RD,"Error: Road retrieved. Returned address Jelapang Road, Bukit Panjang, Northwest, 671524, Singapore"
256 KIM KEAT AVENUE,256,KIM KEAT AVE,"1.3321904999999998, 103.85831738600017"
124 POTONG PASIR AVENUE 1,124,POTONG PASIR AVE 1,"1.3353046, 103.86549585"
259 BUKIT PANJANG RING ROAD,259,BT PANJANG RING RD,"1.3770581, 103.7730258"
135 BISHAN STREET 12,135,BISHAN ST 12,"1.3445520499999999, 103.85130345"
124 BUKIT BATOK CENTRAL,124,BT BATOK CTRL,"1.3511357, 103.74724558735657"
491H TAMPINES STREET 45,491H,TAMPINES ST 45,"1.3628624999999999, 103.95454724647871"
402 FAJAR ROAD,402,FAJAR RD,"Error: Road retrieved. Returned address Fajar Road, Bukit Panjang, Northwest, 673443, Singapore"
665 CHOA CHU KANG CRESCENT,665,CHOA CHU KANG CRES,"Error: Road retrieved. Returned address Choa Chu Kang Crescent, Northwest, 689097, Singapore"
70A TELOK BLANGAH HEIGHTS,70A,TELOK BLANGAH HTS,"1.27641495, 103.81143909219794"
165 BISHAN STREET 13,165,BISHAN ST 13,"1.3490844, 103.85631549608578"
476B UPPER SERANGOON VIEW,476B,UPP SERANGOON VIEW,"Error: Road retrieved. Returned address Upper Serangoon View, Hougang, Northeast, 530476, Singapore"
668A JURONG WEST STREET 64,668A,JURONG WEST ST 64,"Error: Road retrieved. Returned address Jurong West Street 64, Jurong West, Southwest, 643685, Singapore"
602B PUNGGOL CENTRAL,602B,PUNGGOL CTRL,"1.4030367, 103.90685169192979"
154 MEI LING STREET,154,MEI LING ST,"1.2938177, 103.80366482948419"
28C DOVER CRESCENT,28C,DOVER CRES,"1.3057329, 103.7823707565637"
759 YISHUN STREET 72,759,YISHUN ST 72,"Error: Road retrieved. Returned address Yishun Street 72, Yishun, Northwest, 760731, Singapore"
854 YISHUN RING ROAD,854,YISHUN RING RD,"1.41665755, 103.83740224941548"
67 BEDOK SOUTH AVENUE 3,67,BEDOK STH AVE 3,"1.3189737, 103.94405685"
690A CHOA CHU KANG CRESCENT,690A,CHOA CHU KANG CRES,"1.4028937, 103.7516951254775"
377 CLEMENTI AVENUE 5,377,CLEMENTI AVE 5,"1.31753575, 103.768044584412"
327 UBI AVENUE 1,327,UBI AVE 1,"1.3269813, 103.90412244523307"
416 PANDAN GARDENS,416,PANDAN GDNS,"1.3209847, 103.748386736056"
416 CHOA CHU KANG AVENUE 4,416,CHOA CHU KANG AVE 4,"1.3833031, 103.7420326096174"
139 YISHUN RING ROAD,139,YISHUN RING RD,"Error: Road retrieved. Returned address Yishun Ring Road, Yishun, Northwest, 760413, Singapore"
112 EDGEFIELD PLAINS,112,EDGEFIELD PLAINS,"1.3963763, 103.90716207638461"
12B MARSILING LANE,12B,MARSILING LANE,"1.44108305, 103.7781339"
271 BUKIT BATOK EAST AVENUE 4,271,BT BATOK EAST AVE 4,"1.3483124000000002, 103.75865524541743"
172C EDGEDALE PLAINS,172C,EDGEDALE PLAINS,"1.39554445, 103.91245337964625"
470A FERNVALE LINK,470A,FERNVALE LINK,"1.3965353500000002, 103.87952437645512"
801 TAMPINES AVENUE 4,801,TAMPINES AVE 4,"1.347181, 103.93804307158788"
427 WOODLANDS STREET 41,427,WOODLANDS ST 41,"1.4272923, 103.77253936215487"
647 JALAN TENAGA,647,JLN TENAGA,"1.33179975, 103.90574647191076"
63 TELOK BLANGAH HEIGHTS,63,TELOK BLANGAH HTS,"Error: Road retrieved. Returned address Telok Blangah Heights, Bukit Merah, Singapore, Central, 100059, Singapore"
601 SENJA ROAD,601,SENJA RD,"Error: Road retrieved. Returned address Senja Road, Bukit Panjang, Northwest, 677741, Singapore"
686B JURONG WEST CENTRAL 1,686B,JURONG WEST CTRL 1,"1.3419560499999998, 103.70457756630282"
28 GHIM MOH LINK,28,GHIM MOH LINK,"1.30893615, 103.7850542325032"
421 ANG MO KIO AVENUE 10,421,ANG MO KIO AVE 10,"1.3653871, 103.85297569954668"
221 ANG MO KIO AVENUE 1,221,ANG MO KIO AVE 1,"1.3663796499999998, 103.83947084202947"
352 KANG CHING ROAD,352,KANG CHING RD,"1.3394087, 103.72017855307902"
550 PASIR RIS STREET 51,550,PASIR RIS ST 51,"1.36734595, 103.95350013140725"
387 YISHUN RING ROAD,387,YISHUN RING RD,"1.429503, 103.84716897258937"
91 LORONG 3 TOA PAYOH,91,LOR 3 TOA PAYOH,"1.33823605, 103.84858627485326"
135 YISHUN STREET 11,135,YISHUN ST 11,"1.43224665, 103.83191165"
268C BOON LAY DRIVE,268C,BOON LAY DR,"1.34724375, 103.70826295125224"
113 TAMPINES STREET 11,113,TAMPINES ST 11,"1.34645275, 103.94617452422588"
42 CHAI CHEE STREET,42,CHAI CHEE ST,"1.32792105, 103.92576412895514"
26C JALAN MEMBINA,26C,JLN MEMBINA,"1.2827182499999998, 103.82524533872012"
423 CHOA CHU KANG AVENUE 4,423,CHOA CHU KANG AVE 4,"1.3820039, 103.74034618023342"
671 CHOA CHU KANG CRESCENT,671,CHOA CHU KANG CRES,"Error: Road retrieved. Returned address Choa Chu Kang Crescent, Northwest, 689097, Singapore"
838 HOUGANG CENTRAL,838,HOUGANG CTRL,"1.37013915, 103.89135337373165"
926 JURONG WEST STREET 92,926,JURONG WEST ST 92,"1.3404980499999999, 103.68919640444932"
301B ANCHORVALE DRIVE,301B,ANCHORVALE DR,"1.3893534, 103.89148447884617"
292B COMPASSVALE STREET,292B,COMPASSVALE ST,"1.3955935, 103.8990262464462"
260B SENGKANG EAST WAY,260B,SENGKANG EAST WAY,"1.39360465, 103.89543374809415"
202A COMPASSVALE DRIVE,202A,COMPASSVALE DR,"1.38832855, 103.89306565634311"
82A LORONG 4 TOA PAYOH,82A,LOR 4 TOA PAYOH,"1.33592035, 103.84896043702669"
555 WOODLANDS DRIVE 53,555,WOODLANDS DR 53,"Error: Road retrieved. Returned address Woodlands Drive 53, Woodlands, Northwest, 738240, Singapore"
316C YISHUN AVENUE 9,316C,YISHUN AVE 9,"Error: Road retrieved. Returned address Yishun Avenue 9, Yishun, Northwest, 760246, Singapore"
233 ANG MO KIO AVENUE 3,233,ANG MO KIO AVE 3,"Error: Road retrieved. Returned address Ang Mo Kio Avenue 3, Ang Mo Kio, Singapore, Central, 560233, Singapore"
272 BISHAN STREET 24,272,BISHAN ST 24,"1.35644755, 103.84281325907892"
113 CLEMENTI STREET 13,113,CLEMENTI ST 13,"1.3236284999999999, 103.77027818574402"
269D COMPASSVALE LINK,269D,COMPASSVALE LINK,"Error: Road retrieved. Returned address Compassvale Link, Seng Kang, Northeast, 541275, Singapore"
145 POTONG PASIR AVENUE 2,145,POTONG PASIR AVE 2,"1.3322994499999998, 103.86634345428465"
219 YISHUN STREET 21,219,YISHUN ST 21,"1.4332822, 103.83617085"
114 BUKIT PURMEI ROAD,114,BT PURMEI RD,"Error: Road retrieved. Returned address Bukit Purmei Road, Bukit Purmei Ville, Bukit Merah, Singapore, Central, 90112, Singapore"
630 SENJA ROAD,630,SENJA RD,"1.3866922, 103.7598352977561"
109 HOUGANG AVENUE 1,109,HOUGANG AVE 1,"Error: Road retrieved. Returned address Hougang Avenue 1, Hougang, Northeast, 530110, Singapore"
731 JURONG WEST STREET 72,731,JURONG WEST ST 72,"1.3457127, 103.69846231493001"
314A ANCHORVALE LINK,314A,ANCHORVALE LINK,"1.3909882, 103.88917682361111"
261B SENGKANG EAST WAY,261B,SENGKANG EAST WAY,"1.39365075, 103.89415064978525"
507A WELLINGTON CIRCLE,507A,WELLINGTON CIRCLE,"Error: Not Singapore. Returned address 507, Wellington Circle, Rochester Hills, Oakland County, Michigan, 48309, United States"
10 JALAN RUMAH TINGGI,10,JLN RUMAH TINGGI,"1.2881296, 103.80840452771074"
544 JELAPANG ROAD,544,JELAPANG RD,"Error: Road retrieved. Returned address Jelapang Road, Bukit Panjang, Northwest, 671524, Singapore"
851 TAMPINES STREET 83,851,TAMPINES ST 83,"1.3529114999999998, 103.93499113571428"
242 BISHAN STREET 22,242,BISHAN ST 22,"1.36140805, 103.84477382653319"
985B BUANGKOK CRESCENT,985B,BUANGKOK CRES,"1.38126795, 103.87975166015605"
647 HOUGANG AVENUE 8,647,HOUGANG AVE 8,"1.37194775, 103.880454"
670B EDGEFIELD PLAINS,670B,EDGEFIELD PLAINS,"1.4053051, 103.91336797387751"
183B RIVERVALE CRESCENT,183B,RIVERVALE CRES,"1.39131415, 103.90828251409408"
30 MARSILING DRIVE,30,MARSILING DR,"Error: Road retrieved. Returned address Marsiling Drive, Woodlands, Northwest, 730009, Singapore"
786F WOODLANDS DRIVE 60,786F,WOODLANDS DR 60,"Error: Road retrieved. Returned address Woodlands Drive 60, Woodlands, Northwest, 731799, Singapore"
611 ANG MO KIO AVENUE 5,611,ANG MO KIO AVE 5,"1.3783059999999998, 103.83725604606919"
432 ANG MO KIO AVENUE 10,432,ANG MO KIO AVE 10,"Error: Road retrieved. Returned address Ang Mo Kio Avenue 10, Ang Mo Kio, Singapore, Central, 560449, Singapore"
596D ANG MO KIO STREET 52,596D,ANG MO KIO ST 52,"Error: Road retrieved. Returned address Ang Mo Kio Street 52, Ang Mo Kio, Singapore, Central, 560525, Singapore"
248 PASIR RIS STREET 21,248,PASIR RIS ST 21,"1.37067065, 103.96292114089596"
318 SEMBAWANG VISTA,318,SEMBAWANG VISTA,"Error: Road retrieved. Returned address Sembawang Vista, Sembawang, Northwest, 757715, Singapore"
268C COMPASSVALE LINK,268C,COMPASSVALE LINK,"Error: Road retrieved. Returned address Compassvale Link, Seng Kang, Northeast, 541275, Singapore"
755 YISHUN STREET 72,755,YISHUN ST 72,"1.42683795, 103.83241227564815"
522 BEDOK NORTH AVENUE 1,522,BEDOK NTH AVE 1,"Error: Road retrieved. Returned address Bedok North Avenue 1, Bedok, Southeast, 462035, Singapore"
18 CANTONMENT CLOSE,18,CANTONMENT CL,"1.27387105, 103.8394329424888"
834 HOUGANG CENTRAL,834,HOUGANG CTRL,"1.3700252000000002, 103.89001678421756"
220 LORONG 8 TOA PAYOH,220,LOR 8 TOA PAYOH,"Error: Road retrieved. Returned address Lorong 8 Toa Payoh, Toa Payoh, Singapore, Central, 310229, Singapore"
763 BEDOK RESERVOIR VIEW,763,BEDOK RESERVOIR VIEW,"1.33615585, 103.93496395732669"
351 UBI AVENUE 1,351,UBI AVE 1,"1.3254681000000001, 103.90071470279554"
539 HOUGANG STREET 52,539,HOUGANG ST 52,"Error: Road retrieved. Returned address Hougang Street 52, Hougang, Northeast, 530699, Singapore"
119D RIVERVALE DRIVE,119D,RIVERVALE DR,"1.3860045, 103.9035893"
409 SERANGOON CENTRAL,409,SERANGOON CTRL,"1.3481535, 103.87449456152429"
310B ANG MO KIO AVENUE 1,310B,ANG MO KIO AVE 1,"Error: Road retrieved. Returned address Ang Mo Kio Avenue 1, Ang Mo Kio, Singapore, Central, 560218, Singapore"
412 ANG MO KIO AVENUE 10,412,ANG MO KIO AVE 10,"1.3638542, 103.85528989596983"
272 BANGKIT ROAD,272,BANGKIT RD,"1.37741925, 103.77422644743677"
5 FARRER ROAD,5,FARRER RD,"Error: Not Singapore. Returned address 5, Farrer Road, Polk County, Florida, 33843, United States"
617 CHOA CHU KANG NORTH 7,617,CHOA CHU KANG NTH 7,"Error: Road retrieved. Returned address Choa Chu Kang North 7, Northwest, 681672, Singapore"
708 CLEMENTI WEST STREET 2,708,CLEMENTI WEST ST 2,"1.30565785, 103.76224036496689"
669 HOUGANG AVENUE 8,669,HOUGANG AVE 8,"Error: Road retrieved. Returned address Hougang Avenue 8, Hougang, Northeast, 530631, Singapore"
686 HOUGANG STREET 61,686,HOUGANG ST 61,"Error: Road retrieved. Returned address Hougang Street 61, Hougang, Northeast, 538793, Singapore"
272B JURONG WEST STREET 24,272B,JURONG WEST ST 24,"1.3505787, 103.70496384586535"
297 PUNGGOL CENTRAL,297,PUNGGOL CTRL,"Error: Road retrieved. Returned address Punggol Central, Punggol, Northeast, 821256, Singapore"
436A FERNVALE ROAD,436A,FERNVALE RD,"1.3928393, 103.87641635061297"
231 BUKIT BATOK EAST AVENUE 5,231,BT BATOK EAST AVE 5,"1.3490027, 103.7547637"
151 JALAN TECK WHYE,151,JLN TECK WHYE,"1.3783886, 103.75718235420871"
601 JURONG WEST STREET 62,601,JURONG WEST ST 62,"1.3398018, 103.70033796615097"
469 JURONG WEST STREET 41,469,JURONG WEST ST 41,"1.3486202999999999, 103.72098459252948"
457 PASIR RIS DRIVE 4,457,PASIR RIS DR 4,"1.3719664, 103.95955702189778"
128 PASIR RIS STREET 11,128,PASIR RIS ST 11,"1.36598605, 103.95572762456567"
150 PETIR ROAD,150,PETIR RD,"Error: Road retrieved. Returned address Petir Road, Bukit Panjang, Northwest, 678272, Singapore"
677A JURONG WEST STREET 64,677A,JURONG WEST ST 64,"1.34573085, 103.70484844350179"
617D PUNGGOL DRIVE,617D,PUNGGOL DR,"1.40169935, 103.91283341535987"
251 COMPASSVALE STREET,251,COMPASSVALE ST,"Error: Road retrieved. Returned address Compassvale Street, Seng Kang, Northeast, 540294, Singapore"
361 TAMPINES STREET 34,361,TAMPINES ST 34,"1.3557844000000001, 103.9626695157531"
661A JURONG WEST STREET 64,661A,JURONG WEST ST 64,"1.33565935, 103.705069615166"
853 TAMPINES STREET 83,853,TAMPINES ST 83,"1.35325535, 103.9350316776864"
801 WOODLANDS STREET 81,801,WOODLANDS ST 81,"Error: Road retrieved. Returned address Woodlands St 81, Woodlands, Northwest, 738525, Singapore"
305 ANG MO KIO AVENUE 1,305,ANG MO KIO AVE 1,"Error: Road retrieved. Returned address Ang Mo Kio Avenue 1, Ang Mo Kio, Singapore, Central, 560218, Singapore"
928 HOUGANG STREET 91,928,HOUGANG ST 91,"1.37659785, 103.88151620924077"
288 TAMPINES STREET 22,288,TAMPINES ST 22,"1.34876075, 103.95466055177093"
168 BUKIT BATOK WEST AVENUE 8,168,BT BATOK WEST AVE 8,"1.3471761, 103.74126185888107"
161 MEI LING STREET,161,MEI LING ST,"1.29154095, 103.80354496361406"
687 JURONG WEST CENTRAL 1,687,JURONG WEST CTRL 1,"1.3416378, 103.70553212628354"
230 SIMEI STREET 4,230,SIMEI ST 4,"1.3433028, 103.95585492687529"
795 WOODLANDS DRIVE 72,795,WOODLANDS DR 72,"Error: Road retrieved. Returned address Woodlands Drive 72, Woodlands, Northwest, 730789, Singapore"
121 YISHUN STREET 11,121,YISHUN ST 11,"Error: Road retrieved. Returned address Yishun Street 11, Yishun, Northwest, 768643, Singapore"
104 HENDERSON CRESCENT,104,HENDERSON CRES,"Error: Not Singapore. Returned address 104, Henderson Crescent, Alliston, New Tecumseth, Simcoe County, Central Ontario, Ontario, L9R 0E9, Canada"
18 LORONG 7 TOA PAYOH,18,LOR 7 TOA PAYOH,"1.33573895, 103.85682132260615"
274 BANGKIT ROAD,274,BANGKIT RD,"1.3771425499999999, 103.77484437499999"
649 PASIR RIS DRIVE 10,649,PASIR RIS DR 10,"1.3784492, 103.93847129345474"
119A RIVERVALE DRIVE,119A,RIVERVALE DR,"Error: Not Singapore. Returned address Rivervale Drive, Santa Cruz County, California, 95073, United States"
803B KEAT HONG CLOSE,803B,KEAT HONG CL,"1.3738223999999999, 103.74333117269055"
122A EDGEDALE PLAINS,122A,EDGEDALE PLAINS,"Error: Road retrieved. Returned address Edgedale Plains, Punggol, Northeast, 828867, Singapore"
152 MEI LING STREET,152,MEI LING ST,"1.29382885, 103.80266982557023"
352 ANG MO KIO STREET 32,352,ANG MO KIO ST 32,"1.3643903000000002, 103.85089539566314"
111 BEDOK NORTH ROAD,111,BEDOK NTH RD,"1.3314359, 103.93553973694651"
235 BISHAN STREET 22,235,BISHAN ST 22,"Error: Road retrieved. Returned address Bishan Street 22, Bishan, Singapore, Central, 570282, Singapore"
393 BUKIT BATOK WEST AVENUE 5,393,BT BATOK WEST AVE 5,"1.3664334, 103.75327447040452"
112 TECK WHYE LANE,112,TECK WHYE LANE,"1.3775653499999998, 103.75169549185327"
276B JURONG WEST AVENUE 3,276B,JURONG WEST AVE 3,"1.35273385, 103.70432556727947"
405 PASIR RIS DRIVE 6,405,PASIR RIS DR 6,"1.3737216, 103.95596814276401"
124B RIVERVALE DRIVE,124B,RIVERVALE DR,"1.38829785, 103.90320861664134"
898A WOODLANDS DRIVE 50,898A,WOODLANDS DR 50,"Error: Road retrieved. Returned address Woodlands Drive 50, Woodlands, Northwest, 738853, Singapore"
418 WOODLANDS STREET 41,418,WOODLANDS ST 41,"1.4287726, 103.77463218893197"
420 WOODLANDS STREET 41,420,WOODLANDS ST 41,"1.42810055, 103.7745958732959"
424C YISHUN AVENUE 11,424C,YISHUN AVE 11,"1.4232429500000001, 103.84912907823653"
218 BUKIT BATOK STREET 21,218,BT BATOK ST 21,"1.3470642, 103.75448399374761"
204D COMPASSVALE DRIVE,204D,COMPASSVALE DR,"1.3875964, 103.89533144638943"
820 YISHUN STREET 81,820,YISHUN ST 81,"1.4130338999999998, 103.83397879791801"
389 BUKIT BATOK WEST AVENUE 5,389,BT BATOK WEST AVE 5,"1.3653357000000002, 103.75219951236262"
427 CLEMENTI AVENUE 3,427,CLEMENTI AVE 3,"1.311971, 103.7638027"
61A STRATHMORE AVENUE,61A,STRATHMORE AVE,"Error: Not Singapore. Returned address 61, Strathmore Avenue, Buffalo, Erie County, New York, 14220, United States"
17 JOO SENG ROAD,17,JOO SENG RD,"1.3363668, 103.88090441756592"
556 HOUGANG STREET 51,556,HOUGANG ST 51,"Error: Road retrieved. Returned address Hougang Street 51, Hougang, Northeast, 530699, Singapore"
530 JURONG WEST STREET 52,530,JURONG WEST ST 52,"1.3485307, 103.71549764977479"
641B PUNGGOL DRIVE,641B,PUNGGOL DR,"1.3988843000000002, 103.91680694045505"
509 JELAPANG ROAD,509,JELAPANG RD,"Error: Road retrieved. Returned address Jelapang Road, Bukit Panjang, Northwest, 671524, Singapore"
8 HAIG ROAD,8,HAIG RD,"1.31370335, 103.89606731775888"
194 PASIR RIS STREET 12,194,PASIR RIS ST 12,"1.3661589, 103.95983434339558"
806 TAMPINES AVENUE 4,806,TAMPINES AVE 4,"1.34552915, 103.93685755498223"
508 ANG MO KIO AVENUE 8,508,ANG MO KIO AVE 8,"Error: Road retrieved. Returned address Ang Mo Kio Avenue 8, Ang Mo Kio, Singapore, Central, 569843, Singapore"
93 DAWSON ROAD,93,DAWSON RD,"Error: Not Singapore. Returned address Dawson Road, Dawson, Shelby County, Ohio, 45845, United States"
257 KIM KEAT AVENUE,257,KIM KEAT AVE,"1.33260935, 103.85731470410815"
787 YISHUN RING ROAD,787,YISHUN RING RD,"1.42103915, 103.83231993980462"
107 BEDOK NORTH ROAD,107,BEDOK NTH RD,"1.3323064, 103.93628138277913"
96A HENDERSON ROAD,96A,HENDERSON RD,"Error: Not Singapore. Returned address 96, Henderson Road, Henderson, Webster County, Missouri, 65742, United States"
81A LORONG 4 TOA PAYOH,81A,LOR 4 TOA PAYOH,"1.3356469, 103.85007291933127"
211 PETIR ROAD,211,PETIR RD,"Error: Road retrieved. Returned address Petir Road, Bukit Panjang, Northwest, 678272, Singapore"
411 SEMBAWANG DRIVE,411,SEMBAWANG DR,"1.4523077, 103.81804634478466"
31 MARSILING DRIVE,31,MARSILING DR,"Error: Road retrieved. Returned address Marsiling Drive, Woodlands, Northwest, 731007, Singapore"
213 YISHUN STREET 21,213,YISHUN ST 21,"1.4317577, 103.83684255969916"
450 HOUGANG AVENUE 10,450,HOUGANG AVE 10,"Error: Road retrieved. Returned address Hougang Avenue 10, Hougang, Northeast, 538766, Singapore"
231 COMPASSVALE WALK,231,COMPASSVALE WALK,"1.3895066, 103.9014781194297"
334 UBI AVENUE 1,334,UBI AVE 1,"1.32638315, 103.9030432480179"
76A REDHILL ROAD,76A,REDHILL RD,"Error: Not Singapore. Returned address Redhill Road, Redhill, Arnold, Gedling, Nottinghamshire, East Midlands, England, NG5 8HB, United Kingdom"
613 CHOA CHU KANG STREET 62,613,CHOA CHU KANG ST 62,"Error: Road retrieved. Returned address Choa Chu Kang Street 62, Northwest, 680627, Singapore"
525 JURONG WEST STREET 52,525,JURONG WEST ST 52,"1.3472747, 103.7163630006595"
942 JURONG WEST STREET 91,942,JURONG WEST ST 91,"1.34356195, 103.68952925869533"
720 JURONG WEST AVENUE 5,720,JURONG WEST AVE 5,"1.3443390499999999, 103.69752774829644"
852 JURONG WEST STREET 81,852,JURONG WEST ST 81,"1.3473187, 103.69270939416317"
737 PASIR RIS DRIVE 10,737,PASIR RIS DR 10,"1.37961405, 103.93690055846338"
672D EDGEFIELD PLAINS,672D,EDGEFIELD PLAINS,"1.40767045, 103.91080039445961"
430C FERNVALE LINK,430C,FERNVALE LINK,"Error: Road retrieved. Returned address Fernvale Link, Fernvale, Central, 790470, Singapore"
265A COMPASSVALE LINK,265A,COMPASSVALE LINK,"1.3823253, 103.89533817838151"
407A FERNVALE ROAD,407A,FERNVALE RD,"1.3884585, 103.8752595856565"
864A TAMPINES STREET 83,864A,TAMPINES ST 83,"1.3546740499999999, 103.93571712565343"
131 MARSILING RISE,131,MARSILING RISE,"Error: Road retrieved. Returned address Marsiling Rise, Woodlands, Northwest, 738099, Singapore"
638 ANG MO KIO AVENUE 6,638,ANG MO KIO AVE 6,"Error: Road retrieved. Returned address Ang Mo Kio Avenue 6, Ang Mo Kio, Singapore, Central, 569845, Singapore"
301 CLEMENTI AVENUE 4,301,CLEMENTI AVE 4,"1.3221629, 103.76494734149549"
514 JURONG WEST STREET 52,514,JURONG WEST ST 52,"1.347003, 103.72049093414475"
305A ANCHORVALE LINK,305A,ANCHORVALE LINK,"1.3885516, 103.88799067815523"
530 SERANGOON NORTH AVENUE 4,530,SERANGOON NTH AVE 4,"1.3732725499999998, 103.87228885809589"
289A BUKIT BATOK STREET 25,289A,BT BATOK ST 25,"1.3446019, 103.76067726025718"
48 CIRCUIT ROAD,48,CIRCUIT RD,"1.3254157000000002, 103.88558505131579"
336C ANCHORVALE CRESCENT,336C,ANCHORVALE CRES,"1.39769835, 103.88844061602002"
292 YISHUN STREET 22,292,YISHUN ST 22,"1.4368258, 103.83753800409055"
88 REDHILL CLOSE,88,REDHILL CL,"Error: Road retrieved. Returned address Redhill Close, Bukit Merah, Singapore, Central, 150088, Singapore"
231 BISHAN STREET 23,231,BISHAN ST 23,"1.35731545, 103.84581315505883"
217 BUKIT BATOK STREET 21,217,BT BATOK ST 21,"1.3467716, 103.7549926"
129 BUKIT MERAH VIEW,129,BT MERAH VIEW,"1.2836888000000002, 103.82413307196705"
842D TAMPINES STREET 82,842D,TAMPINES ST 82,"1.35063265, 103.93744424135534"
311 WOODLANDS STREET 31,311,WOODLANDS ST 31,"1.4304244499999998, 103.77618634999999"
628 BUKIT BATOK CENTRAL,628,BT BATOK CTRL,"1.35147215, 103.74984764952636"
344 BUKIT BATOK STREET 34,344,BT BATOK ST 34,"1.36249695, 103.74988561274623"
304 HOUGANG AVENUE 5,304,HOUGANG AVE 5,"1.3677934999999999, 103.89496018931628"
649 HOUGANG AVENUE 8,649,HOUGANG AVE 8,"Error: Road retrieved. Returned address Hougang Avenue 8, Hougang, Northeast, 530631, Singapore"
498 JURONG WEST STREET 41,498,JURONG WEST ST 41,"1.3486841, 103.7241023"
327A ANCHORVALE ROAD,327A,ANCHORVALE RD,"1.39530025, 103.88877794990267"
486C TAMPINES AVENUE 9,486C,TAMPINES AVE 9,"1.3589931499999999, 103.95742321836326"
938 TAMPINES AVENUE 5,938,TAMPINES AVE 5,"1.34779425, 103.94176813148232"
170 GANGSA ROAD,170,GANGSA RD,"Error: Road retrieved. Returned address Gangsa Road, Bukit Panjang, Northwest, 679002, Singapore"
837 WOODLANDS STREET 82,837,WOODLANDS ST 82,"Error: Road retrieved. Returned address Woodlands Street 82, Woodlands, Northwest, 738954, Singapore"
327 CLEMENTI AVENUE 5,327,CLEMENTI AVE 5,"Error: Road retrieved. Returned address Clementi Avenue 5, Clementi, Southwest, 120335, Singapore"
158 TAMPINES STREET 12,158,TAMPINES ST 12,"1.3513685500000001, 103.94588103348227"
353B ADMIRALTY DRIVE,353B,ADMIRALTY DR,"Error: Not Singapore. Returned address Admiralty Drive, Sunset Beach, Huntington Beach, Orange County, California, 92649, United States"
132 CLARENCE LANE,132,CLARENCE LANE,"1.2922213999999999, 103.81497048804914"
156 TAMPINES STREET 12,156,TAMPINES ST 12,"1.3515389, 103.9448923164841"
210 PETIR ROAD,210,PETIR RD,"1.3718548, 103.7770068"
419 HOUGANG AVENUE 8,419,HOUGANG AVE 8,"1.3760439999999998, 103.89509902120652"
576 ANG MO KIO AVENUE 10,576,ANG MO KIO AVE 10,"Error: Road retrieved. Returned address Ang Mo Kio Avenue 10, Ang Mo Kio, Singapore, Central, 560449, Singapore"
643 BEDOK RESERVOIR ROAD,643,BEDOK RESERVOIR RD,"1.3309521, 103.90583427823313"
30 JALAN KLINIK,30,JLN KLINIK,"Error: Not Singapore. Returned address Jalan Klinik, Pasir Puteh, ڤاسير ڤوتيه / Pasir Puteh, Kelantan, 16800, Malaysia"
537 BUKIT PANJANG RING ROAD,537,BT PANJANG RING RD,"Error: Road retrieved. Returned address Bukit Panjang Ring Road, Bukit Panjang, Northwest, 679910, Singapore"
1B CANTONMENT ROAD,1B,CANTONMENT RD,"1.2777916500000002, 103.84140360852476"
1 HAIG ROAD,1,HAIG RD,"1.31127845, 103.89770005155283"
642C PUNGGOL DRIVE,642C,PUNGGOL DR,"1.3985658, 103.91595525622091"
206A COMPASSVALE LANE,206A,COMPASSVALE LANE,"1.3866920500000002, 103.89652971590436"
425 YISHUN AVENUE 11,425,YISHUN AVE 11,"1.4224023, 103.84829564911942"
904 JURONG WEST STREET 91,904,JURONG WEST ST 91,"1.3402348000000002, 103.68597394288096"
467 JURONG WEST STREET 41,467,JURONG WEST ST 41,"1.34947985, 103.72257340205616"
10 JALAN BATU,10,JLN BATU,"Error: Not Singapore. Returned address Jalan Batu, RW 01, Gambir, Jakarta Pusat, Daerah Khusus Ibukota Jakarta, 10110, Indonesia"
340 TAMPINES STREET 33,340,TAMPINES ST 33,"1.3513685, 103.95999678433108"
110 LORONG 1 TOA PAYOH,110,LOR 1 TOA PAYOH,"1.3415213000000001, 103.84635205328536"
353 YISHUN RING ROAD,353,YISHUN RING RD,"1.4261561, 103.84525600065001"
73 GEYLANG BAHRU,73,GEYLANG BAHRU,"1.3226294, 103.87065550977246"
247 TAMPINES STREET 21,247,TAMPINES ST 21,"1.35218615, 103.94690439346832"
648 ANG MO KIO AVENUE 5,648,ANG MO KIO AVE 5,"Error: Road retrieved. Returned address Ang Mo Kio Avenue 5, Ang Mo Kio, Singapore, Central, 569948, Singapore"
1 TOH YI DRIVE,1,TOH YI DR,"1.3394912, 103.7749404114488"
687C CHOA CHU KANG DRIVE,687C,CHOA CHU KANG DR,"Error: Road retrieved. Returned address Choa Chu Kang Drive, Choa Chu Kang, Southwest, 689717, Singapore"
699 HOUGANG STREET 52,699,HOUGANG ST 52,"1.3761368, 103.8892811"
259 JURONG EAST STREET 24,259,JURONG EAST ST 24,"1.3441751499999999, 103.73988718175968"
650B JURONG WEST STREET 61,650B,JURONG WEST ST 61,"1.3382444, 103.6961616956534"
330 SERANGOON AVENUE 3,330,SERANGOON AVE 3,"1.3500410999999999, 103.86946626069472"
168D SIMEI LANE,168D,SIMEI LANE,"1.34293005, 103.9582550199915"
55 STIRLING ROAD,55,STIRLING RD,"Error: Not Singapore. Returned address 55, Stirling Road, Longstanton, Northstowe, Cambridge, Cambridgeshire, East of England, England, CB24 1AL, United Kingdom"
114 SIMEI STREET 1,114,SIMEI ST 1,"1.3437063, 103.9503227002204"
178 WOODLANDS STREET 13,178,WOODLANDS ST 13,"1.43460945, 103.77767781118041"
251 BUKIT BATOK EAST AVENUE 5,251,BT BATOK EAST AVE 5,"1.3507687000000002, 103.75757269063746"
603 HOUGANG AVENUE 4,603,HOUGANG AVE 4,"Error: Road retrieved. Returned address Hougang Avenue 4, Hougang, Northeast, 530682, Singapore"
107 JALAN RAJAH,107,JLN RAJAH,"1.3278628499999998, 103.85508375937603"
405 TAMPINES STREET 41,405,TAMPINES ST 41,"1.3578346, 103.9449039"
931 JURONG WEST STREET 92,931,JURONG WEST ST 92,"1.3415393, 103.68996326170421"
184C RIVERVALE CRESCENT,184C,RIVERVALE CRES,"Error: Road retrieved. Returned address Rivervale Crescent, Seng Kang, Northeast, 540151, Singapore"
488A TAMPINES AVENUE 9,488A,TAMPINES AVE 9,"1.3601998000000002, 103.95632685000001"
249 YISHUN AVENUE 9,249,YISHUN AVE 9,"Error: Road retrieved. Returned address Yishun Avenue 9, Yishun, Northwest, 760246, Singapore"
417 BEDOK NORTH AVENUE 2,417,BEDOK NTH AVE 2,"1.3276265, 103.93053684507463"
242 BUKIT BATOK EAST AVENUE 5,242,BT BATOK EAST AVE 5,"1.35072035, 103.75596925632863"
335 CLEMENTI AVENUE 2,335,CLEMENTI AVE 2,"1.3169821000000002, 103.76858008467407"
256 JURONG EAST STREET 24,256,JURONG EAST ST 24,"1.3439551, 103.7382039"
103B EDGEFIELD PLAINS,103B,EDGEFIELD PLAINS,"Error: Road retrieved. Returned address Edgefield Plains, Punggol, Northeast, 828850, Singapore"
34 CASSIA CRESCENT,34,CASSIA CRES,"1.3094250500000002, 103.88461869253882"
950 HOUGANG STREET 91,950,HOUGANG ST 91,"Error: Road retrieved. Returned address Hougang Street 91, Hougang, Northeast, 530920, Singapore"
192 PUNGGOL CENTRAL,192,PUNGGOL CTRL,"Error: Road retrieved. Returned address Punggol Central, Punggol, Northeast, 821256, Singapore"
19 QUEEN'S CLOSE,19,QUEEN'S CL,"Error: Not Singapore. Returned address 19, Queens Close, Freshwater, Isle of Wight, South East, England, PO40 9EU, United Kingdom"
588A ANG MO KIO STREET 52,588A,ANG MO KIO ST 52,"1.3720898, 103.85269347839707"
125 BEDOK NORTH ROAD,125,BEDOK NTH RD,"1.3288278, 103.93905302272728"
668 CHANDER ROAD,668,CHANDER RD,"1.3076707, 103.85130962088175"
414 COMMONWEALTH AVENUE WEST,414,C'WEALTH AVE WEST,"1.3115881, 103.77172965487843"
813 JURONG WEST STREET 81,813,JURONG WEST ST 81,"1.3459202000000001, 103.69604673140424"
246 PASIR RIS STREET 21,246,PASIR RIS ST 21,"1.37129755, 103.96241361148626"
90 COMMONWEALTH DRIVE,90,C'WEALTH DR,"1.3053797, 103.79973441666667"
448B SENGKANG WEST WAY,448B,SENGKANG WEST WAY,"1.3934400500000002, 103.87325533921606"
447B JALAN KAYU,447B,JLN KAYU,"1.39243935, 103.87300817957322"
546 SERANGOON NORTH AVENUE 3,546,SERANGOON NTH AVE 3,"Error: Road retrieved. Returned address Serangoon North Avenue 3, Serangoon North, Singapore, Central, 550102, Singapore"
133 JALAN BUKIT MERAH,133,JLN BT MERAH,"Error: Road retrieved. Returned address Jalan Bukit Merah, Radin Mas, Bukit Merah, Singapore, Central, 169545, Singapore"
636A SENJA ROAD,636A,SENJA RD,"1.3869535000000002, 103.75849855018834"
70 CIRCUIT ROAD,70,CIRCUIT RD,"1.3251650499999998, 103.88812302305743"
169 STIRLING ROAD,169,STIRLING RD,"Error: Not Singapore. Returned address Stirling Road, Berea, Buffalo City Ward 18, East London, Buffalo City Metropolitan Municipality, Eastern Cape, 5241, South Africa"
327C ANCHORVALE ROAD,327C,ANCHORVALE RD,"1.39607565, 103.88864036364961"
150 RIVERVALE CRESCENT,150,RIVERVALE CRES,"1.3923343, 103.90639941004139"
990C JURONG WEST STREET 93,990C,JURONG WEST ST 93,"1.3354751500000002, 103.69460161629283"
387 TAMPINES STREET 32,387,TAMPINES ST 32,"1.3551901, 103.95865201691177"
145 LORONG 2 TOA PAYOH,145,LOR 2 TOA PAYOH,"Error: Road retrieved. Returned address Lorong 2 Toa Payoh, Toa Payoh, Singapore, Central, 319640, Singapore"
929 HOUGANG STREET 91,929,HOUGANG ST 91,"Error: Road retrieved. Returned address Hougang Street 91, Hougang, Northeast, 530920, Singapore"
871 YISHUN STREET 81,871,YISHUN ST 81,"Error: Road retrieved. Returned address Yishun Street 81, Yishun, Northwest, 760873, Singapore"
469A SENGKANG WEST WAY,469A,SENGKANG WEST WAY,"1.3960081500000001, 103.87798694432337"
408 WOODLANDS STREET 41,408,WOODLANDS ST 41,"1.4287691, 103.77259064788507"
622 JURONG WEST STREET 61,622,JURONG WEST ST 61,"1.3407142, 103.69909806087195"
312B ANCHORVALE LANE,312B,ANCHORVALE LANE,"1.39169495, 103.88548615154639"
470 CHOA CHU KANG AVENUE 3,470,CHOA CHU KANG AVE 3,"1.37824535, 103.73735207309201"
759 CHOA CHU KANG NORTH 5,759,CHOA CHU KANG NTH 5,"Error: Road retrieved. Returned address Choa Chu Kang North 5, Northwest, 680533, Singapore"
49 JALAN TIGA,49,JLN TIGA,"1.3089032500000002, 103.88531879601618"
351D CANBERRA ROAD,351D,CANBERRA RD,"Error: Not Singapore. Returned address Canberra Road, London Borough of Newham, London, Greater London, England, E6 2RW, United Kingdom"
462 ANG MO KIO AVENUE 10,462,ANG MO KIO AVE 10,"Error: Road retrieved. Returned address Ang Mo Kio Avenue 10, Ang Mo Kio, Singapore, Central, 560449, Singapore"
102 BISHAN STREET 12,102,BISHAN ST 12,"Error: Road retrieved. Returned address Bishan Street 12, Bishan, Singapore, Central, 570139, Singapore"
60 MARINE DRIVE,60,MARINE DR,"1.3033918500000001, 103.9085174953997"
143 PASIR RIS STREET 11,143,PASIR RIS ST 11,"1.36219815, 103.9604788324109"
583 PASIR RIS STREET 53,583,PASIR RIS ST 53,"1.3756129000000001, 103.94701615307693"
882 WOODLANDS STREET 82,882,WOODLANDS ST 82,"1.44425985, 103.79073529263152"
476A UPPER SERANGOON VIEW,476A,UPP SERANGOON VIEW,"Error: Road retrieved. Returned address Upper Serangoon View, Hougang, Northeast, 530476, Singapore"
619D PUNGGOL DRIVE,619D,PUNGGOL DR,"1.4021949999999999, 103.91111034662886"
204B COMPASSVALE DRIVE,204B,COMPASSVALE DR,"Error: Road retrieved. Returned address Compassvale Drive, Seng Kang, Northeast, 544749, Singapore"
313 ANG MO KIO AVENUE 3,313,ANG MO KIO AVE 3,"Error: Road retrieved. Returned address Ang Mo Kio Avenue 3, Ang Mo Kio, Singapore, Central, 560564, Singapore"
306 CLEMENTI AVENUE 4,306,CLEMENTI AVE 4,"1.3214131, 103.76595706413028"
469B SENGKANG WEST WAY,469B,SENGKANG WEST WAY,"1.3958818, 103.87754923661993"
237 TAMPINES STREET 21,237,TAMPINES ST 21,"1.35550445, 103.94719104999999"
735 TAMPINES STREET 72,735,TAMPINES ST 72,"1.3593959500000001, 103.9338642"
934 TAMPINES STREET 91,934,TAMPINES ST 91,"1.34532755, 103.9400723474441"
535 WOODLANDS DRIVE 14,535,WOODLANDS DR 14,"1.43117025, 103.79208052765321"
661 WOODLANDS RING ROAD,661,WOODLANDS RING RD,"1.43541495, 103.79873595374833"
613 BUKIT PANJANG RING ROAD,613,BT PANJANG RING RD,"Error: Road retrieved. Returned address Bukit Panjang Ring Road, Bukit Panjang, Northwest, 679910, Singapore"
45 CIRCUIT ROAD,45,CIRCUIT RD,"1.32636925, 103.8861788473796"
844 YISHUN STREET 81,844,YISHUN ST 81,"1.4156853, 103.83548894228025"
329 ANG MO KIO AVENUE 3,329,ANG MO KIO AVE 3,"Error: Road retrieved. Returned address Ang Mo Kio Avenue 3, Ang Mo Kio, Singapore, Central, 560564, Singapore"
2 LORONG 7 TOA PAYOH,2,LOR 7 TOA PAYOH,"1.33880335, 103.8536601925122"
130 BEDOK RESERVOIR ROAD,130,BEDOK RESERVOIR RD,"1.33356705, 103.91240994835849"
950 JURONG WEST STREET 91,950,JURONG WEST ST 91,"1.3432863, 103.69076301039246"
457 TAMPINES STREET 42,457,TAMPINES ST 42,"1.35783275, 103.9536525"
509 WOODLANDS DRIVE 14,509,WOODLANDS DR 14,"1.4327040000000002, 103.78905843498276"
69 TELOK BLANGAH HEIGHTS,69,TELOK BLANGAH HTS,"Error: Road retrieved. Returned address Telok Blangah Heights, Bukit Merah, Singapore, Central, 100059, Singapore"
515A TAMPINES CENTRAL 7,515A,TAMPINES CTRL 7,"1.3569493499999998, 103.93839127533361"
803 WOODLANDS STREET 81,803,WOODLANDS ST 81,"Error: Road retrieved. Returned address Woodlands St 81, Woodlands, Northwest, 738525, Singapore"
103 BUKIT PURMEI ROAD,103,BT PURMEI RD,"1.2721113, 103.82568321958732"
601 CHOA CHU KANG STREET 62,601,CHOA CHU KANG ST 62,"Error: Road retrieved. Returned address Choa Chu Kang Street 62, Northwest, 680627, Singapore"
428 CLEMENTI AVENUE 3,428,CLEMENTI AVE 3,"1.3124914, 103.76330414154029"
605 BEDOK RESERVOIR ROAD,605,BEDOK RESERVOIR RD,"1.33034755, 103.91372670510742"
19 TECK WHYE LANE,19,TECK WHYE LANE,"1.37928375, 103.75286444789847"
557 HOUGANG STREET 51,557,HOUGANG ST 51,Error: geocode failed on input 557 HOUGANG STREET 51
59A GEYLANG BAHRU,59A,GEYLANG BAHRU,"1.3227177, 103.86834455625632"
649 PUNGGOL CENTRAL,649,PUNGGOL CTRL,"1.3972473, 103.91484940518245"
220 SERANGOON AVENUE 4,220,SERANGOON AVE 4,"Error: Road retrieved. Returned address Serangoon Avenue 4, Serangoon Green, Serangoon, Southeast, 551223, Singapore"
248 CHOA CHU KANG AVENUE 2,248,CHOA CHU KANG AVE 2,"1.3791581000000002, 103.74625400690891"
506A WELLINGTON CIRCLE,506A,WELLINGTON CIRCLE,"Error: Not Singapore. Returned address 506, Wellington Circle, Rochester Hills, Oakland County, Michigan, 48309, United States"
451 SIN MING AVENUE,451,SIN MING AVE,"Error: Road retrieved. Returned address Sin Ming Avenue, Bishan, Singapore, Central, 579646, Singapore"
274 CHOA CHU KANG AVENUE 2,274,CHOA CHU KANG AVE 2,"1.37915585, 103.7428095331434"
447 PASIR RIS DRIVE 6,447,PASIR RIS DR 6,Error: geocode failed on input 447 PASIR RIS DRIVE 6
212 ANG MO KIO AVENUE 3,212,ANG MO KIO AVE 3,"Error: Road retrieved. Returned address Ang Mo Kio Avenue 3, Ang Mo Kio, Singapore, Central, 560564, Singapore"
179 ANG MO KIO AVENUE 5,179,ANG MO KIO AVE 5,"Error: Road retrieved. Returned address Ang Mo Kio Avenue 5, Ang Mo Kio, Singapore, Central, 569948, Singapore"
439 FAJAR ROAD,439,FAJAR RD,"Error: Road retrieved. Returned address Fajar Road, Bukit Panjang, Northwest, 673443, Singapore"
629 SENJA ROAD,629,SENJA RD,"Error: Road retrieved. Returned address Senja Road, Bukit Panjang, Northwest, 677741, Singapore"
123 GEYLANG EAST CENTRAL,123,GEYLANG EAST CTRL,"Error: Road retrieved. Returned address Geylang East Central, Geylang, Southeast, 380123, Singapore"
285C TOH GUAN ROAD,285C,TOH GUAN RD,"1.3378836, 103.74662028591035"
525B PASIR RIS STREET 51,525B,PASIR RIS ST 51,"1.3696739999999998, 103.94742796229676"
100 COMMONWEALTH CRESCENT,100,C'WEALTH CRES,"1.3076618, 103.80133155"
856 TAMPINES STREET 82,856,TAMPINES ST 82,"1.35331075, 103.93681488575162"
670 WOODLANDS DRIVE 71,670,WOODLANDS DR 71,"Error: Road retrieved. Returned address Woodlands Drive 71, Woodlands, Northwest, 738344, Singapore"
715 YISHUN STREET 71,715,YISHUN ST 71,"1.4265688, 103.8268571594262"
791 YISHUN AVENUE 2,791,YISHUN AVE 2,"Error: Road retrieved. Returned address Yishun Avenue 2, Yishun, Northwest, 760175, Singapore"
60 CIRCUIT ROAD,60,CIRCUIT RD,"1.3255238, 103.88662512573913"
125 GEYLANG EAST AVENUE 1,125,GEYLANG EAST AVE 1,"1.3177378499999999, 103.88664869868518"
242 HOUGANG STREET 22,242,HOUGANG ST 22,"Error: Road retrieved. Returned address Hougang Street 22, Hougang, Northeast, 530110, Singapore"
484 PASIR RIS DRIVE 4,484,PASIR RIS DR 4,"1.3739139, 103.96077126445415"
515 WOODLANDS DRIVE 14,515,WOODLANDS DR 14,"Error: Road retrieved. Returned address Woodlands Drive 14, Fragrant Woods, Woodlands, Northwest, 738079, Singapore"
335 WOODLANDS STREET 32,335,WOODLANDS ST 32,"1.4297840000000002, 103.78061243494417"
56 HAVELOCK ROAD,56,HAVELOCK RD,"Error: Not Singapore. Returned address 56, Havelock Road, Sidley, Bexhill-on-Sea, Rother, East Sussex, South East, England, TN39 4AH, United Kingdom"
86 WHAMPOA DRIVE,86,WHAMPOA DR,"1.32307285, 103.8558395554053"
770 PASIR RIS STREET 71,770,PASIR RIS ST 71,"1.37503075, 103.9361123579327"
160 SIMEI ROAD,160,SIMEI RD,"1.3449273499999999, 103.95946366993464"
130 LORONG AH SOO,130,LOR AH SOO,"Error: Road retrieved. Returned address Lorong Ah Soo, Hougang, Northeast, 530129, Singapore"
488C CHOA CHU KANG AVENUE 5,488C,CHOA CHU KANG AVE 5,"1.3765947, 103.73993630561094"
971 HOUGANG STREET 91,971,HOUGANG ST 91,"Error: Road retrieved. Returned address Hougang Street 91, Hougang, Northeast, 530920, Singapore"
27 MARINE CRESCENT,27,MARINE CRES,"1.3040451499999999, 103.91350899939656"
4B BOON TIONG ROAD,4B,BOON TIONG RD,"Error: Road retrieved. Returned address Boon Tiong Road, Boon Tiong Aracadia, Bukit Merah, Singapore, Central, 163028, Singapore"
43 JALAN TIGA,43,JLN TIGA,"1.3081581500000001, 103.88474481087749"
326 TAH CHING ROAD,326,TAH CHING RD,"1.33573235, 103.72266523345945"
19 JALAN TENTERAM,19,JLN TENTERAM,"1.32762525, 103.8598685558642"
34 MARSILING DRIVE,34,MARSILING DR,"Error: Road retrieved. Returned address Marsiling Drive, Woodlands, Northwest, 731007, Singapore"
232 YISHUN STREET 21,232,YISHUN ST 21,"1.43467495, 103.83732413205846"
669A JURONG WEST STREET 64,669A,JURONG WEST ST 64,"1.3429992, 103.70332562594707"
72 GEYLANG BAHRU,72,GEYLANG BAHRU,"1.3219458, 103.8710313"
133 SIMEI STREET 1,133,SIMEI ST 1,"1.3474868500000001, 103.95559319430467"
54 CASSIA CRESCENT,54,CASSIA CRES,"1.3102011999999998, 103.88441796598327"
663D JURONG WEST STREET 65,663D,JURONG WEST ST 65,"1.3388205, 103.7023430490261"
98 COMMONWEALTH CRESCENT,98,C'WEALTH CRES,"1.3067809000000001, 103.80157650000001"
267 TOH GUAN ROAD,267,TOH GUAN RD,"1.3411099499999999, 103.74481964177912"
431 ANG MO KIO AVENUE 10,431,ANG MO KIO AVE 10,"Error: Road retrieved. Returned address Ang Mo Kio Avenue 10, Ang Mo Kio, Singapore, Central, 560449, Singapore"
164C RIVERVALE CRESCENT,164C,RIVERVALE CRES,"1.38982215, 103.90773669021854"
105 BISHAN STREET 12,105,BISHAN ST 12,"Error: Road retrieved. Returned address Bishan Street 12, Bishan, Singapore, Central, 570139, Singapore"
452 FAJAR ROAD,452,FAJAR RD,"Error: Road retrieved. Returned address Fajar Road, Bukit Panjang, Northwest, 673443, Singapore"
612C PUNGGOL DRIVE,612C,PUNGGOL DR,"1.40516565, 103.90783908384083"
329 SEMBAWANG CLOSE,329,SEMBAWANG CL,"1.4462537, 103.8175404319294"
62 LORONG 4 TOA PAYOH,62,LOR 4 TOA PAYOH,"Error: Road retrieved. Returned address Lorong 4 Toa Payoh, Toa Payoh, Singapore, Central, 319194, Singapore"
171 HOUGANG AVENUE 1,171,HOUGANG AVE 1,"Error: Block retrieved. Returned address 171, Hougang Ave 1, Hougang, Southeast, 530129, Singapore"
115 SERANGOON NORTH AVENUE 1,115,SERANGOON NTH AVE 1,"1.3682576000000002, 103.87077024317026"
710 BEDOK RESERVOIR ROAD,710,BEDOK RESERVOIR RD,"1.3355491, 103.92380117390078"
127C KIM TIAN ROAD,127C,KIM TIAN RD,"1.2815389, 103.8301769042574"
906 JURONG WEST STREET 91,906,JURONG WEST ST 91,"1.34120485, 103.68520627955671"
303B PUNGGOL CENTRAL,303B,PUNGGOL CTRL,"1.40393605, 103.90551354383746"
265D PUNGGOL WAY,265D,PUNGGOL WAY,"1.4048815000000001, 103.89840070153383"
24 MARSILING DRIVE,24,MARSILING DR,"Error: Road retrieved. Returned address Marsiling Drive, Woodlands, Northwest, 731007, Singapore"
14A TELOK BLANGAH CRESCENT,14A,TELOK BLANGAH CRES,"1.2778437500000002, 103.8208679049753"
776 PASIR RIS STREET 71,776,PASIR RIS ST 71,"1.3749201, 103.9369569"
190 PUNGGOL CENTRAL,190,PUNGGOL CTRL,Error: geocode failed on input 190 PUNGGOL CENTRAL
252 BISHAN STREET 22,252,BISHAN ST 22,"1.362025, 103.84380131797053"
638A PUNGGOL DRIVE,638A,PUNGGOL DR,"1.4001218500000001, 103.91488563911311"
318 SERANGOON AVENUE 2,318,SERANGOON AVE 2,"1.3529683, 103.8675894"
12 TAMAN HO SWEE,12,TAMAN HO SWEE,"Error: Road retrieved. Returned address Taman Ho Swee, Bukit Ho Swee View, Bukit Merah, Singapore, Central, 161022, Singapore"
303 YISHUN CENTRAL,303,YISHUN CTRL,"1.43027375, 103.8401301"
324 HOUGANG AVENUE 5,324,HOUGANG AVE 5,"1.36748885, 103.89742175"
155 LORONG 1 TOA PAYOH,155,LOR 1 TOA PAYOH,"Error: Road retrieved. Returned address Lorong 1 Toa Payoh, Toa Payoh, Singapore, Central, 313130, Singapore"
105 BUKIT PURMEI ROAD,105,BT PURMEI RD,"1.2725955500000001, 103.8245715672677"
440C CLEMENTI AVENUE 3,440C,CLEMENTI AVE 3,"Error: Road retrieved. Returned address Clementi Avenue 3, Clementi, Southwest, 120443, Singapore"
112 ALJUNIED CRESCENT,112,ALJUNIED CRES,"1.3204111, 103.8851035508679"
225 PASIR RIS STREET 21,225,PASIR RIS ST 21,"1.3711722000000002, 103.96111873407813"
354B ADMIRALTY DRIVE,354B,ADMIRALTY DR,"Error: Not Singapore. Returned address Admiralty Drive, Sunset Beach, Huntington Beach, Orange County, California, 92649, United States"
320 TAMPINES STREET 33,320,TAMPINES ST 33,"1.3508453, 103.95687761306269"
113 BISHAN STREET 12,113,BISHAN ST 12,"1.34722365, 103.84882736215093"
68 BEDOK SOUTH AVENUE 3,68,BEDOK STH AVE 3,"1.3187484500000002, 103.94332730104321"
145 PASIR RIS STREET 11,145,PASIR RIS ST 11,"1.36329395, 103.9611044134873"
239 COMPASSVALE WALK,239,COMPASSVALE WALK,"1.3912282, 103.89852532171297"
228 SERANGOON AVENUE 4,228,SERANGOON AVE 4,"Error: Road retrieved. Returned address Serangoon Avenue 4, Serangoon Green, Serangoon, Southeast, 551223, Singapore"
18B CIRCUIT ROAD,18B,CIRCUIT RD,"1.3292654, 103.88833"
463 PASIR RIS STREET 41,463,PASIR RIS ST 41,"1.37262055, 103.9581631739301"
107C EDGEFIELD PLAINS,107C,EDGEFIELD PLAINS,"Error: Road retrieved. Returned address Edgefield Plains, Punggol, Northeast, 828850, Singapore"
667 HOUGANG AVENUE 4,667,HOUGANG AVE 4,"Error: Road retrieved. Returned address Hougang Avenue 4, Hougang, Northeast, 530682, Singapore"
325 TAH CHING ROAD,325,TAH CHING RD,"1.3360455500000001, 103.72310091127339"
780 PASIR RIS STREET 71,780,PASIR RIS ST 71,"1.3735873, 103.9377682"
48 TELOK BLANGAH DRIVE,48,TELOK BLANGAH DR,"1.2723789, 103.81066410657309"
273 BANGKIT ROAD,273,BANGKIT RD,"1.37723945, 103.77561002172155"
484D CHOA CHU KANG AVENUE 5,484D,CHOA CHU KANG AVE 5,"1.3752404999999999, 103.73748721142093"
183A BOON LAY AVENUE,183A,BOON LAY AVE,"1.3487098, 103.70965937751939"
47 JALAN BAHAGIA,47,JLN BAHAGIA,"Error: Road retrieved. Returned address Jalan Bahagia, Novena, Singapore, Central, 322019, Singapore"
48 STRATHMORE AVENUE,48,STRATHMORE AVE,"Error: Not Singapore. Returned address 48, Strathmore Avenue, Lower Stoke, Coventry, West Midlands Combined Authority, West Midlands, England, CV1 2AH, United Kingdom"
139 SERANGOON NORTH AVENUE 2,139,SERANGOON NTH AVE 2,"1.3687369999999999, 103.87555856937985"
15 MARSILING LANE,15,MARSILING LANE,"1.44199075, 103.77853185004115"
603 WOODLANDS DRIVE 42,603,WOODLANDS DR 42,"Error: Road retrieved. Returned address Woodlands Drive 42, Woodlands, Northwest, 730888, Singapore"
474 SEGAR ROAD,474,SEGAR RD,"Error: Road retrieved. Returned address Segar Road, Bukit Panjang, Northwest, 677738, Singapore"
1F CANTONMENT ROAD,1F,CANTONMENT RD,"1.2761582, 103.8411939"
641 CHOA CHU KANG STREET 64,641,CHOA CHU KANG ST 64,"Error: Road retrieved. Returned address Choa Chu Kang Street 64, Zhenghua, Northwest, 689097, Singapore"
433 CLEMENTI AVENUE 3,433,CLEMENTI AVE 3,"1.3139858, 103.76186458092509"
341 UBI AVENUE 1,341,UBI AVE 1,"1.3267661, 103.90181544757749"
431 JURONG WEST AVENUE 1,431,JURONG WEST AVE 1,"1.3522041, 103.72499876147309"
215 LORONG 8 TOA PAYOH,215,LOR 8 TOA PAYOH,"Error: Road retrieved. Returned address Lorong 8 Toa Payoh, Toa Payoh, Singapore, Central, 310229, Singapore"
471 ANG MO KIO AVENUE 10,471,ANG MO KIO AVE 10,"Error: Road retrieved. Returned address Ang Mo Kio Avenue 10, Ang Mo Kio, Singapore, Central, 560449, Singapore"
18 MARINE TERRACE,18,MARINE TER,"1.3032192500000002, 103.914297575"
401 TAMPINES STREET 41,401,TAMPINES ST 41,"1.3571648, 103.94490145"
354 CHOA CHU KANG CENTRAL,354,CHOA CHU KANG CTRL,"1.3826432, 103.74353247507875"
121A RIVERVALE DRIVE,121A,RIVERVALE DR,"1.3866808499999999, 103.90525079946724"
468 ANG MO KIO AVENUE 10,468,ANG MO KIO AVE 10,"1.36497495, 103.85634495326647"
2 TG PAGAR PLAZA,2,TG PAGAR PLAZA,"Error: Not Singapore. Returned address Tg Alam, Pagar Alam, Sumatera Selatan, Indonesia"
941 HOUGANG STREET 92,941,HOUGANG ST 92,"1.3735613500000001, 103.87909588018286"
724 JURONG WEST STREET 72,724,JURONG WEST ST 72,"1.3452221500000001, 103.69836001010495"
269B COMPASSVALE LINK,269B,COMPASSVALE LINK,"1.3837028500000002, 103.89605358807134"
426 SERANGOON AVENUE 1,426,SERANGOON AVE 1,"1.3478027, 103.87595816259898"
680 WOODLANDS AVENUE 6,680,WOODLANDS AVE 6,"Error: Road retrieved. Returned address Woodlands Avenue 6, Woodlands, Northwest, 737858, Singapore"
613 BEDOK RESERVOIR ROAD,613,BEDOK RESERVOIR RD,"1.33204135, 103.917298667062"
14 TAMAN HO SWEE,14,TAMAN HO SWEE,"Error: Road retrieved. Returned address Taman Ho Swee, Bukit Ho Swee View, Bukit Merah, Singapore, Central, 161022, Singapore"
436 JURONG WEST AVENUE 1,436,JURONG WEST AVE 1,"1.35197585, 103.72324705443873"
575 WOODLANDS DRIVE 16,575,WOODLANDS DR 16,"1.43115595, 103.7972473918959"
94 HAVELOCK ROAD,94,HAVELOCK RD,"Error: Not Singapore. Returned address 94, Havelock Road, Havelock, Richmond County, Virginia, 22572, United States"
240 LORONG 1 TOA PAYOH,240,LOR 1 TOA PAYOH,"1.3407337, 103.85069330007363"
132 YISHUN STREET 11,132,YISHUN ST 11,"1.4327611999999998, 103.83143655"
130 CASHEW ROAD,130,CASHEW RD,"Error: Not Singapore. Returned address 130, Cashew Road, Greensboro, Hale County, Alabama, 36744, United States"
538 HOUGANG STREET 52,538,HOUGANG ST 52,"Error: Road retrieved. Returned address Hougang Street 52, Hougang, Northeast, 530699, Singapore"
62 TEBAN GARDENS ROAD,62,TEBAN GDNS RD,"Error: Road retrieved. Returned address Teban Gardens Road, Jurong East, Southwest, 600062, Singapore"
922 JURONG WEST STREET 92,922,JURONG WEST ST 92,"1.3394780000000002, 103.68934777251516"
126 YISHUN STREET 11,126,YISHUN ST 11,"Error: Road retrieved. Returned address Yishun Street 11, Yishun, Northwest, 768643, Singapore"
108 BEDOK RESERVOIR ROAD,108,BEDOK RESERVOIR RD,"1.33022785, 103.90953740519927"
293B COMPASSVALE CRESCENT,293B,COMPASSVALE CRES,"1.39690085, 103.8962975841642"
304 WOODLANDS STREET 31,304,WOODLANDS ST 31,"Error: Road retrieved. Returned address Woodlands Street 31, Woodlands, Northwest, 31, Singapore"
455 SEGAR ROAD,455,SEGAR RD,"Error: Road retrieved. Returned address Segar Road, Bukit Panjang, Northwest, 677738, Singapore"
156 HOUGANG STREET 11,156,HOUGANG ST 11,"1.3526489499999999, 103.87977330799944"
472 JURONG WEST STREET 41,472,JURONG WEST ST 41,"1.3481029, 103.72230441219398"
524B PASIR RIS STREET 51,524B,PASIR RIS ST 51,"1.37099675, 103.94747409761905"
90 TANGLIN HALT ROAD,90,TANGLIN HALT RD,"1.3005035, 103.7989774479849"
589A MONTREAL DRIVE,589A,MONTREAL DR,"1.4498144, 103.82592673024772"
319 SEMBAWANG CLOSE,319,SEMBAWANG CL,"Error: Road retrieved. Returned address Sembawang Close, Sun Trellis, Sembawang, Northwest, 750333, Singapore"
402 ADMIRALTY LINK,402,ADMIRALTY LINK,"Error: Road retrieved. Returned address Admiralty Link, Sembawang, Northwest, 757521, Singapore"
589C MONTREAL DRIVE,589C,MONTREAL DR,"Error: Not Singapore. Returned address Montreal Drive, San Jose, Santa Clara County, California, 95130, United States"
467A ADMIRALTY DRIVE,467A,ADMIRALTY DR,"Error: Not Singapore. Returned address Admiralty Drive, Sunset Beach, Huntington Beach, Orange County, California, 92649, United States"
703 TAMPINES STREET 71,703,TAMPINES ST 71,"1.3568703, 103.93774854920417"
27 TOA PAYOH EAST,27,TOA PAYOH EAST,"1.3324197500000001, 103.85673859527482"
764 WOODLANDS CIRCLE,764,WOODLANDS CIRCLE,"1.4452585500000001, 103.7967183334476"
520 BEDOK NORTH AVENUE 1,520,BEDOK NTH AVE 1,"1.3304485, 103.92820469232494"
650A JURONG WEST STREET 61,650A,JURONG WEST ST 61,"1.3380570999999999, 103.69657434885107"
684C JURONG WEST STREET 64,684C,JURONG WEST ST 64,"1.3435925499999999, 103.70451911809519"
877 TAMPINES STREET 84,877,TAMPINES ST 84,"1.35251995, 103.93149299164713"
79E TOA PAYOH CENTRAL,79E,TOA PAYOH CTRL,"1.33466455, 103.8497284030403"
506 BUKIT BATOK STREET 52,506,BT BATOK ST 52,"1.3522452999999999, 103.75468635029046"
418 FAJAR ROAD,418,FAJAR RD,"1.3842796000000002, 103.76893771996002"
373 HOUGANG STREET 31,373,HOUGANG ST 31,"1.36261725, 103.89060347228995"
723 JURONG WEST AVENUE 5,723,JURONG WEST AVE 5,"1.34432425, 103.698304371934"
229 PASIR RIS STREET 21,229,PASIR RIS ST 21,"1.3724501, 103.96194765190614"
2 GHIM MOH ROAD,2,GHIM MOH RD,"1.3123423, 103.78694809993421"
752 WOODLANDS CIRCLE,752,WOODLANDS CIRCLE,"1.4455056000000002, 103.7946937677853"
97 ALJUNIED CRESCENT,97,ALJUNIED CRES,"1.32129825, 103.88568485079735"
61 CIRCUIT ROAD,61,CIRCUIT RD,"1.3257159, 103.88712133970589"
19 HOUGANG AVENUE 3,19,HOUGANG AVE 3,"1.36381345, 103.89181772523762"
274D JURONG WEST AVENUE 3,274D,JURONG WEST AVE 3,"1.35227625, 103.7043143352376"
841 YISHUN STREET 81,841,YISHUN ST 81,"1.4159351, 103.83452580187753"
404 BUKIT BATOK WEST AVENUE 7,404,BT BATOK WEST AVE 7,"1.3654937999999999, 103.74514481673036"
211 PASIR RIS STREET 21,211,PASIR RIS ST 21,"1.3673451, 103.96126270244702"
536 PASIR RIS DRIVE 1,536,PASIR RIS DR 1,"1.3707185000000002, 103.94992348101457"
165A PUNGGOL CENTRAL,165A,PUNGGOL CTRL,"1.39517225, 103.91473861023438"
276D JURONG WEST STREET 25,276D,JURONG WEST ST 25,"Error: Road retrieved. Returned address Jurong West Street 25, Jurong West, Southwest, 644276, Singapore"
621 BUKIT BATOK CENTRAL,621,BT BATOK CTRL,"1.3502152, 103.74833644262115"
346 CLEMENTI AVENUE 5,346,CLEMENTI AVE 5,"1.31699755, 103.77016231851425"
5 HAIG ROAD,5,HAIG RD,"1.31262065, 103.89660746775887"
637 JURONG WEST STREET 61,637,JURONG WEST ST 61,"1.34158555, 103.69801523640731"
560 PASIR RIS STREET 51,560,PASIR RIS ST 51,"1.36682435, 103.95028824260945"
675B JURONG WEST STREET 64,675B,JURONG WEST ST 64,"1.34581915, 103.70373842328422"
561 PASIR RIS STREET 51,561,PASIR RIS ST 51,"1.36724655, 103.95069864716467"
216 ANG MO KIO AVENUE 1,216,ANG MO KIO AVE 1,"Error: Road retrieved. Returned address Ang Mo Kio Avenue 1, Ang Mo Kio, Singapore, Central, 560218, Singapore"
141 BUKIT BATOK STREET 11,141,BT BATOK ST 11,"1.35037275, 103.74339059383058"
140 BUKIT BATOK STREET 11,140,BT BATOK ST 11,"1.35081015, 103.74375565712667"
17 CANTONMENT CLOSE,17,CANTONMENT CL,"1.2738203000000001, 103.83988319110367"
118B JALAN MEMBINA,118B,JLN MEMBINA,"1.2818998000000001, 103.82594841199878"
363 HOUGANG AVENUE 5,363,HOUGANG AVE 5,"Error: Road retrieved. Returned address Hougang Avenue 5, Hougang, Northeast, 530334, Singapore"
265A PUNGGOL WAY,265A,PUNGGOL WAY,"Error: Road retrieved. Returned address Punggol Way, Punggol, Northeast, 820221, Singapore"
432B SENGKANG WEST WAY,432B,SENGKANG WEST WAY,"1.39398555, 103.87733928501484"
315C YISHUN AVENUE 9,315C,YISHUN AVE 9,"Error: Road retrieved. Returned address Yishun Avenue 9, Yishun, Northwest, 760246, Singapore"
610 BEDOK RESERVOIR ROAD,610,BEDOK RESERVOIR RD,"1.33084375, 103.91218413266674"
173 GANGSA ROAD,173,GANGSA RD,"Error: Road retrieved. Returned address Gangsa Road, Bukit Panjang, Northwest, 679002, Singapore"
108 YISHUN RING ROAD,108,YISHUN RING RD,"1.4327272500000001, 103.82929612193058"
204 YISHUN STREET 21,204,YISHUN ST 21,"Error: Road retrieved. Returned address Yishun Street 21, Yishun, Northwest, 768610, Singapore"
610 ANG MO KIO AVENUE 4,610,ANG MO KIO AVE 4,"Error: Road retrieved. Returned address Ang Mo Kio Avenue 4, Ang Mo Kio, Singapore, Central, 568987, Singapore"
177 BISHAN STREET 13,177,BISHAN ST 13,"1.34785895, 103.85358014239924"
1 JALAN BUKIT MERAH,1,JLN BT MERAH,"1.28650195, 103.80803500986833"
109 JURONG EAST STREET 13,109,JURONG EAST ST 13,"1.3383422500000002, 103.73594105233462"
115 POTONG PASIR AVENUE 1,115,POTONG PASIR AVE 1,"1.3374383, 103.86263809783416"
729 JURONG WEST AVENUE 5,729,JURONG WEST AVE 5,"1.3464543500000001, 103.69764786106443"
337 BUKIT BATOK STREET 34,337,BT BATOK ST 34,"1.36330525, 103.74907753530988"
169A PUNGGOL FIELD,169A,PUNGGOL FIELD,"1.3930894, 103.91430846498122"
44 BEDOK SOUTH ROAD,44,BEDOK STH RD,"1.32109455, 103.94163612279135"
981D BUANGKOK CRESCENT,981D,BUANGKOK CRES,"Error: Road retrieved. Returned address Buangkok Crescent, Hougang, Northeast, 536980, Singapore"
316 JURONG EAST STREET 32,316,JURONG EAST ST 32,"1.3460757, 103.73207399139883"
864 JURONG WEST STREET 81,864,JURONG WEST ST 81,"1.3496048, 103.69453499770995"
269 PASIR RIS STREET 21,269,PASIR RIS ST 21,"1.3653214999999999, 103.96365230237183"
115 PENDING ROAD,115,PENDING RD,"Error: Road retrieved. Returned address Pending Road, Bukit Panjang, Northwest, 670129, Singapore"
482 SEGAR ROAD,482,SEGAR RD,"Error: Road retrieved. Returned address Segar Road, Bukit Panjang, Northwest, 677738, Singapore"
112 MCNAIR ROAD,112,MCNAIR RD,"1.32104245, 103.85903800991453"
805 YISHUN RING ROAD,805,YISHUN RING RD,"Error: Road retrieved. Returned address Yishun Ring Road, Yishun, Northwest, 760413, Singapore"
867 YISHUN STREET 81,867,YISHUN ST 81,"1.41400815, 103.8377776299086"
435 CHOA CHU KANG AVENUE 4,435,CHOA CHU KANG AVE 4,"1.3850725, 103.74094476788272"
417 SERANGOON CENTRAL,417,SERANGOON CTRL,"1.3500698, 103.875052"
339 JURONG EAST AVENUE 1,339,JURONG EAST AVE 1,"1.3495119, 103.73156587378963"
711 PASIR RIS STREET 72,711,PASIR RIS ST 72,"1.38174695, 103.9379882600629"
329 TAMPINES STREET 32,329,TAMPINES ST 32,"1.3533290500000001, 103.95876498278449"
414 CHOA CHU KANG AVENUE 4,414,CHOA CHU KANG AVE 4,"1.38217335, 103.7423012679354"
816 YISHUN STREET 81,816,YISHUN ST 81,"Error: Road retrieved. Returned address Yishun Street 81, Yishun, Northwest, 760873, Singapore"
223 BUKIT BATOK EAST AVENUE 3,223,BT BATOK EAST AVE 3,"1.34795855, 103.75356443792937"
241 HOUGANG STREET 22,241,HOUGANG ST 22,"Error: Road retrieved. Returned address Hougang Street 22, Hougang, Northeast, 530110, Singapore"
116 SIMEI STREET 1,116,SIMEI ST 1,"1.34390025, 103.95150072347715"
621 ANG MO KIO AVENUE 9,621,ANG MO KIO AVE 9,"Error: Road retrieved. Returned address Ang Mo Kio Avenue 9, Ang Mo Kio, Singapore, Central, 569845, Singapore"
134 JALAN BUKIT MERAH,134,JLN BT MERAH,"Error: Road retrieved. Returned address Jalan Bukit Merah, Radin Mas, Bukit Merah, Singapore, Central, 169545, Singapore"
103 TAMPINES STREET 11,103,TAMPINES ST 11,"1.3476533499999999, 103.9463434868356"
108 WOODLANDS STREET 13,108,WOODLANDS ST 13,"Error: Road retrieved. Returned address Woodlands Street 13, Woodlands, Northwest, 738623, Singapore"
3A HOLLAND CLOSE,3A,HOLLAND CL,"1.30856785, 103.79693758944347"
760 WOODLANDS AVENUE 6,760,WOODLANDS AVE 6,"Error: Road retrieved. Returned address Woodlands Avenue 6, Woodlands, Northwest, 737858, Singapore"
109 COMMONWEALTH CRESCENT,109,C'WEALTH CRES,"1.3072348, 103.79899080000001"
115 BEDOK NORTH ROAD,115,BEDOK NTH RD,"1.3314691, 103.93702049920289"
636 HOUGANG AVENUE 8,636,HOUGANG AVE 8,"1.37061825, 103.87922704127308"
717 JURONG WEST STREET 71,717,JURONG WEST ST 71,"1.34329115, 103.69728761988245"
82 COMMONWEALTH CLOSE,82,C'WEALTH CL,"1.30421895, 103.8004107775848"
131 RIVERVALE STREET,131,RIVERVALE ST,"1.38954025, 103.90331133603658"
226 SERANGOON AVENUE 4,226,SERANGOON AVE 4,"1.35683695, 103.87085398119318"
817 TAMPINES STREET 81,817,TAMPINES ST 81,"1.34761895, 103.93676188413019"
485B TAMPINES AVENUE 9,485B,TAMPINES AVE 9,"Error: Road retrieved. Returned address Tampines Avenue 9, Tampines, Northeast, 522523, Singapore"
248 YISHUN AVENUE 9,248,YISHUN AVE 9,"1.43566255, 103.84238826171837"
303C PUNGGOL CENTRAL,303C,PUNGGOL CTRL,"1.4040793, 103.90529985288671"
534 WOODLANDS DRIVE 14,534,WOODLANDS DR 14,"Error: Road retrieved. Returned address Woodlands Drive 14, Fragrant Woods, Woodlands, Northwest, 738079, Singapore"
164A RIVERVALE CRESCENT,164A,RIVERVALE CRES,"1.39005585, 103.90752842913287"
496G TAMPINES AVENUE 9,496G,TAMPINES AVE 9,"1.3607531000000002, 103.95057464731326"
842H TAMPINES STREET 82,842H,TAMPINES ST 82,"1.3516511, 103.9372765"
230J TAMPINES STREET 21,230J,TAMPINES ST 21,"1.3563018, 103.94946535"
15 TOH YI DRIVE,15,TOH YI DR,"1.33557825, 103.77102419773473"
105 SIMEI STREET 1,105,SIMEI ST 1,"1.3411286, 103.95056641993845"
106 HENDERSON CRESCENT,106,HENDERSON CRES,"Error: Not Singapore. Returned address 106, Henderson Crescent, Alliston, New Tecumseth, Simcoe County, Central Ontario, Ontario, L9R 0E9, Canada"
698C JURONG WEST CENTRAL 3,698C,JURONG WEST CTRL 3,"1.3402981500000002, 103.70758527895124"
678C PUNGGOL DRIVE,678C,PUNGGOL DR,"1.40625155, 103.9096243248707"
106D PUNGGOL FIELD,106D,PUNGGOL FIELD,"1.39763635, 103.90719934442059"
509A WELLINGTON CIRCLE,509A,WELLINGTON CIRCLE,"1.45306495, 103.82072961104939"
6 BEDOK SOUTH AVENUE 2,6,BEDOK STH AVE 2,"1.32220445, 103.93503778560873"
137 PETIR ROAD,137,PETIR RD,"Error: Road retrieved. Returned address Petir Road, Bukit Panjang, Northwest, 678272, Singapore"
1 SAINT GEORGE'S ROAD,1,ST. GEORGE'S RD,"Error: Not Singapore. Returned address 1, St Georges Road, Saint Georges, Town of Three Rivers, Kings County, Prince Edward Island, Canada"
158D RIVERVALE CRESCENT,158D,RIVERVALE CRES,"1.3884919999999998, 103.9072383105478"
794 YISHUN RING ROAD,794,YISHUN RING RD,"1.4201846, 103.83196344330615"
262 YISHUN STREET 22,262,YISHUN ST 22,"1.435768, 103.83916479999999"
335B YISHUN STREET 31,335B,YISHUN ST 31,"1.43286905, 103.84433519364636"
715 BEDOK RESERVOIR ROAD,715,BEDOK RESERVOIR RD,"1.33741765, 103.92313909824175"
457 SEGAR ROAD,457,SEGAR RD,"1.388247, 103.77082551959404"
445 CHOA CHU KANG AVENUE 4,445,CHOA CHU KANG AVE 4,"1.3817913000000002, 103.73679658681348"
574 HOUGANG STREET 51,574,HOUGANG ST 51,"1.3774703499999998, 103.88698908151127"
757 PASIR RIS STREET 71,757,PASIR RIS ST 71,"1.3770563500000002, 103.93370824304597"
894 TAMPINES STREET 81,894,TAMPINES ST 81,"1.3486126999999999, 103.93190881345392"
414 WOODLANDS STREET 41,414,WOODLANDS ST 41,"1.4279383, 103.77341520566108"
451 YISHUN RING ROAD,451,YISHUN RING RD,"1.422088, 103.84462469996055"
273D COMPASSVALE LINK,273D,COMPASSVALE LINK,"1.3841131500000001, 103.8944165409768"
83 STRATHMORE AVENUE,83,STRATHMORE AVE,"Error: Not Singapore. Returned address 83, Strathmore Avenue, Lower Stoke, Coventry, West Midlands Combined Authority, West Midlands, England, CV1 2AG, United Kingdom"
