address,block,street_name,lat_long
121 PASIR RIS STREET 11,121,PASIR RIS ST 11,"1.3668819, 103.95456399229181"
171A EDGEDALE PLAINS,171A,EDGEDALE PLAINS,"Error: Road retrieved. Returned address Edgedale Plains, Punggol, Northeast, 828867, Singapore"
116B RIVERVALE DRIVE,116B,RIVERVALE DR,"1.3821894000000001, 103.90218138835422"
553 ANG MO KIO AVENUE 10,553,ANG MO KIO AVE 10,"Error: Road retrieved. Returned address Ang Mo Kio Avenue 10, Ang Mo Kio, Singapore, Central, 560449, Singapore"
619 JURONG WEST STREET 65,619,JURONG WEST ST 65,"1.34150755, 103.69982102200834"
51 KENT ROAD,51,KENT RD,"Error: Not Singapore. Returned address 51, Kent Road, Heeley, Sheffield, Yorkshire and the Humber, England, S8 9RH, United Kingdom"
140 BEDOK RESERVOIR ROAD,140,BEDOK RESERVOIR RD,"1.3348786000000001, 103.9133814795322"
536 JELAPANG ROAD,536,JELAPANG RD,"Error: Road retrieved. Returned address Jelapang Road, Bukit Panjang, Northwest, 671524, Singapore"
93 PAYA LEBAR WAY,93,PAYA LEBAR WAY,"Error: Road retrieved. Returned address Paya Lebar Way, Geylang, Southeast, 370089, Singapore"
239 BISHAN STREET 22,239,BISHAN ST 22,"1.3603922499999999, 103.84479566826298"
201 BOON LAY DRIVE,201,BOON LAY DR,"1.34327115, 103.71546089106498"
238 TAMPINES STREET 21,238,TAMPINES ST 21,"1.3557396000000002, 103.94661001463415"
388 YISHUN RING ROAD,388,YISHUN RING RD,"1.429157, 103.84720547632364"
138 LORONG AH SOO,138,LOR AH SOO,"1.35168925, 103.8844620875"
601 ANG MO KIO AVENUE 5,601,ANG MO KIO AVE 5,"1.3810333, 103.8351336785349"
268 BUKIT BATOK EAST AVENUE 4,268,BT BATOK EAST AVE 4,"1.3492383000000001, 103.75924029976471"
57 CIRCUIT ROAD,57,CIRCUIT RD,"1.3247059, 103.88673485840123"
22 EUNOS CRESCENT,22,EUNOS CRES,"1.32476135, 103.9021193492959"
52 TEBAN GARDENS ROAD,52,TEBAN GDNS RD,"1.3209992000000002, 103.73742511937886"
404 JURONG WEST STREET 42,404,JURONG WEST ST 42,"1.353822, 103.72216086533467"
110 PASIR RIS STREET 11,110,PASIR RIS ST 11,"1.36867275, 103.9565850545538"
288C PUNGGOL PLACE,288C,PUNGGOL PL,"1.4025212, 103.90368489547757"
212A PUNGGOL WALK,212A,PUNGGOL WALK,"1.39998565, 103.89920922323546"
466B SEMBAWANG DRIVE,466B,SEMBAWANG DR,"Error: Road retrieved. Returned address Sembawang Drive, Sembawang, Northwest, 757632, Singapore"
209 YISHUN STREET 21,209,YISHUN ST 21,"1.4313528500000001, 103.8376963"
255 BISHAN STREET 22,255,BISHAN ST 22,"1.3616456000000001, 103.8428558005391"
923 HOUGANG AVENUE 9,923,HOUGANG AVE 9,"Error: Road retrieved. Returned address Hougang Avenue 9, Hougang, Northeast, 538692, Singapore"
44 TEBAN GARDENS ROAD,44,TEBAN GDNS RD,"1.3207631000000002, 103.74156727990507"
296 YISHUN STREET 20,296,YISHUN ST 20,"Error: Road retrieved. Returned address Yishun Street 20, Yishun, Northwest, 760291, Singapore"
824 JURONG WEST STREET 81,824,JURONG WEST ST 81,"1.34641105, 103.69396087941712"
116 EDGEFIELD PLAINS,116,EDGEFIELD PLAINS,"Error: Road retrieved. Returned address Edgefield Plains, Punggol, Northeast, 828850, Singapore"
306 CANBERRA ROAD,306,CANBERRA RD,"1.44587185, 103.82244432769633"
323 YISHUN CENTRAL,323,YISHUN CTRL,"1.4282772499999998, 103.84159126497758"
153 RIVERVALE CRESCENT,153,RIVERVALE CRES,"1.3914469500000002, 103.90680911699718"
122 BUKIT MERAH LANE 1,122,BT MERAH LANE 1,"1.2865215, 103.8042249"
59 CIRCUIT ROAD,59,CIRCUIT RD,"1.3252225000000002, 103.88678294814756"
45 JALAN TIGA,45,JLN TIGA,"1.3086691, 103.88453241400994"
131 SIMEI STREET 1,131,SIMEI ST 1,"1.34562785, 103.95414006585239"
181 BISHAN STREET 13,181,BISHAN ST 13,"1.3488779499999999, 103.85308367802932"
544 HOUGANG AVENUE 8,544,HOUGANG AVE 8,"Error: Road retrieved. Returned address Hougang Avenue 8, Hougang, Northeast, 530631, Singapore"
240 JURONG EAST STREET 21,240,JURONG EAST ST 21,"1.34104275, 103.74163659999999"
104 BUKIT PURMEI ROAD,104,BT PURMEI RD,"1.2724582, 103.82553591415487"
215 TAMPINES STREET 23,215,TAMPINES ST 23,"1.35459025, 103.95318560940132"
748 JURONG WEST STREET 73,748,JURONG WEST ST 73,"Error: Road retrieved. Returned address Jurong West Street 73, Jurong West, Southwest, 640744, Singapore"
663B JURONG WEST STREET 65,663B,JURONG WEST ST 65,"1.33811255, 103.70160667866983"
461 TAMPINES STREET 44,461,TAMPINES ST 44,"1.3588399, 103.9543513"
322A ANCHORVALE DRIVE,322A,ANCHORVALE DR,"1.3916187, 103.89236564466998"
126 ANG MO KIO AVENUE 3,126,ANG MO KIO AVE 3,"Error: Road retrieved. Returned address Ang Mo Kio Avenue 3, Ang Mo Kio, Singapore, Central, 560564, Singapore"
450 SIN MING AVENUE,450,SIN MING AVE,"Error: Road retrieved. Returned address Sin Ming Avenue, Bishan, Singapore, Central, 579646, Singapore"
308C ANCHORVALE ROAD,308C,ANCHORVALE RD,"Error: Road retrieved. Returned address Anchorvale Road, Seng Kang, Northeast, 544336, Singapore"
144 POTONG PASIR AVENUE 2,144,POTONG PASIR AVE 2,"1.3326495500000002, 103.8654963"
201 TOA PAYOH NORTH,201,TOA PAYOH NTH,"Error: Road retrieved. Returned address Toa Payoh North, Toa Payoh, Singapore, Central, 318990, Singapore"
5A MARSILING DRIVE,5A,MARSILING DR,"1.4402221499999999, 103.7754992288908"
574 CHOA CHU KANG STREET 52,574,CHOA CHU KANG ST 52,"1.3943761499999998, 103.74509588698923"
572 CHOA CHU KANG STREET 52,572,CHOA CHU KANG ST 52,"1.3938179000000002, 103.745283694314"
461 CLEMENTI AVENUE 3,461,CLEMENTI AVE 3,"1.31116555, 103.76653859999999"
476C UPPER SERANGOON VIEW,476C,UPP SERANGOON VIEW,"Error: Road retrieved. Returned address Upper Serangoon View, Hougang, Northeast, 530476, Singapore"
108 JURONG EAST STREET 13,108,JURONG EAST ST 13,"1.33836695, 103.7372831644748"
205 TAMPINES STREET 21,205,TAMPINES ST 21,"1.35183325, 103.95227997891108"
328 TAMPINES STREET 32,328,TAMPINES ST 32,"1.35332995, 103.95820112919056"
355 YISHUN RING ROAD,355,YISHUN RING RD,"Error: Road retrieved. Returned address Yishun Ring Road, Yishun, Northwest, 760413, Singapore"
617 BEDOK RESERVOIR ROAD,617,BEDOK RESERVOIR RD,"1.33308425, 103.91649806145716"
305 CLEMENTI AVENUE 4,305,CLEMENTI AVE 4,"1.32198195, 103.76606552864872"
114 PASIR RIS STREET 11,114,PASIR RIS ST 11,"1.3685433, 103.95484922761253"
199 PASIR RIS STREET 12,199,PASIR RIS ST 12,"1.3671693, 103.95954109406958"
317D ANCHORVALE ROAD,317D,ANCHORVALE RD,"1.3935187500000001, 103.88790830255267"
188C RIVERVALE DRIVE,188C,RIVERVALE DR,"Error: Not Singapore. Returned address Rivervale Drive, Santa Cruz County, California, 95073, United States"
606 SENJA ROAD,606,SENJA RD,"Error: Road retrieved. Returned address Senja Road, Bukit Panjang, Northwest, 677741, Singapore"
1 TG PAGAR PLAZA,1,TG PAGAR PLAZA,"Error: Not Singapore. Returned address Pengadilan Negeri Pagar Alam, Jalan Laskar Wanita Mentarjo, Pagar Alam Selatan, Pagar Alam, Sumatera Selatan, Indonesia"
549 HOUGANG STREET 51,549,HOUGANG ST 51,"Error: Road retrieved. Returned address Hougang Street 51, Hougang, Northeast, 530699, Singapore"
1 MARINE TERRACE,1,MARINE TER,"1.30481515, 103.91860152876515"
321 SERANGOON AVENUE 2,321,SERANGOON AVE 2,"1.3512899, 103.86779065846642"
656 WOODLANDS RING ROAD,656,WOODLANDS RING RD,"1.43698995, 103.79924886151795"
418 CHOA CHU KANG AVENUE 4,418,CHOA CHU KANG AVE 4,"1.3824336499999998, 103.74144925139322"
691B CHOA CHU KANG CRESCENT,691B,CHOA CHU KANG CRES,"Error: Road retrieved. Returned address Choa Chu Kang Crescent, Northwest, 689097, Singapore"
408 SEMBAWANG DRIVE,408,SEMBAWANG DR,"1.45342185, 103.81758356538785"
310 JURONG EAST STREET 32,310,JURONG EAST ST 32,"1.3480465000000001, 103.7335124185243"
286B TOH GUAN ROAD,286B,TOH GUAN RD,"1.33860455, 103.74526305859274"
353 KANG CHING ROAD,353,KANG CHING RD,"1.33972395, 103.72080616992014"
741 TAMPINES STREET 72,741,TAMPINES ST 72,"1.3598485, 103.93274220776934"
602 HOUGANG AVENUE 4,602,HOUGANG AVE 4,"1.3711957, 103.8871348"
278 TOH GUAN ROAD,278,TOH GUAN RD,"1.3409115, 103.7464222301256"
32 CASSIA CRESCENT,32,CASSIA CRES,"1.30947405, 103.8838856201254"
183 STIRLING ROAD,183,STIRLING RD,"Error: Not Singapore. Returned address Stirling Road, Berea, Buffalo City Ward 18, East London, Buffalo City Metropolitan Municipality, Eastern Cape, 5241, South Africa"
258A COMPASSVALE ROAD,258A,COMPASSVALE RD,"1.39304775, 103.89701429086631"
278 YISHUN STREET 22,278,YISHUN ST 22,"1.4382217499999999, 103.83796265000001"
59 TELOK BLANGAH HEIGHTS,59,TELOK BLANGAH HTS,"1.2753467, 103.81360834982058"
320 WOODLANDS STREET 32,320,WOODLANDS ST 32,"Error: Road retrieved. Returned address Woodlands Street 32, Woodlands, Northwest, 739065, Singapore"
613 YISHUN STREET 61,613,YISHUN ST 61,"Error: Road retrieved. Returned address Yishun Street 61, Nee Soon Central Meadows, Yishun, Northwest, 768548, Singapore"
121 ANG MO KIO AVENUE 3,121,ANG MO KIO AVE 3,"Error: Road retrieved. Returned address Ang Mo Kio Avenue 3, Ang Mo Kio, Singapore, Central, 560564, Singapore"
115 BISHAN STREET 12,115,BISHAN ST 12,"Error: Road retrieved. Returned address Bishan Street 12, Bishan, Singapore, Central, 570139, Singapore"
187 BISHAN STREET 13,187,BISHAN ST 13,"1.349589, 103.8514156"
261 BISHAN STREET 22,261,BISHAN ST 22,"1.3592269, 103.84355977543319"
533 BUKIT BATOK STREET 51,533,BT BATOK ST 51,"1.3558769, 103.74983850198127"
48 LENGKOK BAHRU,48,LENGKOK BAHRU,"1.2871663500000001, 103.8113352940712"
547C SEGAR ROAD,547C,SEGAR RD,"1.38854415, 103.76889090088017"
209C PUNGGOL PLACE,209C,PUNGGOL PL,"1.39929405, 103.90077231957417"
329A ANCHORVALE STREET,329A,ANCHORVALE ST,"1.3961917499999998, 103.889792472967"
734 TAMPINES STREET 71,734,TAMPINES ST 71,"1.35817585, 103.93432633026036"
714 BEDOK RESERVOIR ROAD,714,BEDOK RESERVOIR RD,"1.33699385, 103.92323286822918"
34 TEBAN GARDENS ROAD,34,TEBAN GDNS RD,"1.31985625, 103.74175140620504"
528 JURONG WEST STREET 52,528,JURONG WEST ST 52,"1.348451, 103.71738446630373"
664D JURONG WEST STREET 64,664D,JURONG WEST ST 64,"1.3389145, 103.7028521848168"
143 MEI LING STREET,143,MEI LING ST,"1.2934812999999998, 103.80480784074145"
454 SIN MING AVENUE,454,SIN MING AVE,"Error: Road retrieved. Returned address Sin Ming Avenue, Bishan, Singapore, Central, 579646, Singapore"
139 PETIR ROAD,139,PETIR RD,"Error: Road retrieved. Returned address Petir Road, Bukit Panjang, Northwest, 678272, Singapore"
602 CLEMENTI WEST STREET 1,602,CLEMENTI WEST ST 1,"1.30502125, 103.76603779252622"
612D PUNGGOL DRIVE,612D,PUNGGOL DR,"Error: Road retrieved. Returned address Punggol Drive, Punggol, Northeast, 821665, Singapore"
307 WOODLANDS AVENUE 1,307,WOODLANDS AVE 1,"1.42947735, 103.7764511"
426 FAJAR ROAD,426,FAJAR RD,"Error: Road retrieved. Returned address Fajar Road, Bukit Panjang, Northwest, 673443, Singapore"
128 BUKIT BATOK WEST AVENUE 6,128,BT BATOK WEST AVE 6,"1.35165945, 103.74563077168634"
376A HOUGANG STREET 32,376A,HOUGANG ST 32,"1.3635844000000001, 103.89375149654474"
293 TAMPINES STREET 22,293,TAMPINES ST 22,"1.3504006, 103.95490477548174"
213 LORONG 8 TOA PAYOH,213,LOR 8 TOA PAYOH,"Error: Road retrieved. Returned address Lorong 8 Toa Payoh, Toa Payoh, Singapore, Central, 310229, Singapore"
441 ANG MO KIO AVENUE 10,441,ANG MO KIO AVE 10,"Error: Road retrieved. Returned address Ang Mo Kio Avenue 10, Ang Mo Kio, Singapore, Central, 560449, Singapore"
10 JALAN BUKIT HO SWEE,10,JLN BT HO SWEE,"1.28742825, 103.83265979899632"
616 SENJA ROAD,616,SENJA RD,"Error: Road retrieved. Returned address Senja Road, Bukit Panjang, Northwest, 677741, Singapore"
497A TAMPINES STREET 45,497A,TAMPINES ST 45,"1.35938995, 103.95853688677599"
455 TAMPINES STREET 42,455,TAMPINES ST 42,"1.3574720999999998, 103.95366543150217"
427 YISHUN AVENUE 11,427,YISHUN AVE 11,"Error: Road retrieved. Returned address Yishun Avenue 11, Yishun, Northwest, 760413, Singapore"
714 PASIR RIS STREET 72,714,PASIR RIS ST 72,"1.3825698499999999, 103.93770462683662"
835 YISHUN STREET 81,835,YISHUN ST 81,"Error: Road retrieved. Returned address Yishun Street 81, Yishun, Northwest, 760873, Singapore"
578 HOUGANG AVENUE 4,578,HOUGANG AVE 4,"Error: Road retrieved. Returned address Hougang Avenue 4, Hougang, Northeast, 530682, Singapore"
936 TAMPINES AVENUE 5,936,TAMPINES AVE 5,"1.3464431000000001, 103.9417216765658"
4 LORONG 7 TOA PAYOH,4,LOR 7 TOA PAYOH,"1.3390393, 103.8554033"
421 WOODLANDS STREET 41,421,WOODLANDS ST 41,"1.4278002, 103.77463230000001"
530D PASIR RIS DRIVE 1,530D,PASIR RIS DR 1,"Error: Road retrieved. Returned address Pasir Ris Drive 1, Pasir Ris, Northeast, 510640, Singapore"
508C WELLINGTON CIRCLE,508C,WELLINGTON CIRCLE,"1.4528493, 103.82148288930384"
473 ANG MO KIO AVENUE 10,473,ANG MO KIO AVE 10,"1.36306195, 103.85683672723425"
126 BEDOK RESERVOIR ROAD,126,BEDOK RESERVOIR RD,"1.33273785, 103.91086890098741"
690C CHOA CHU KANG CRESCENT,690C,CHOA CHU KANG CRES,"Error: Road retrieved. Returned address Choa Chu Kang Crescent, Northwest, 689097, Singapore"
511 CHOA CHU KANG STREET 51,511,CHOA CHU KANG ST 51,"Error: Road retrieved. Returned address Choa Chu Kang Street 51, Northwest, 689333, Singapore"
126 GEYLANG EAST AVENUE 1,126,GEYLANG EAST AVE 1,"1.3177654, 103.88717230636496"
545 JURONG WEST STREET 42,545,JURONG WEST ST 42,"1.3521345999999999, 103.71510253764619"
75 MARINE DRIVE,75,MARINE DR,"Error: Not Singapore. Returned address 75, Stella Drive, Porters Lake, Halifax Regional Municipality, Halifax County, Nova Scotia, B3E 1H9, Canada"
23B QUEEN'S CLOSE,23B,QUEEN'S CL,"Error: Not Singapore. Returned address Queen's Close, Wallington, London Borough of Sutton, London, Greater London, England, SM6 0AQ, United Kingdom"
330B ANCHORVALE STREET,330B,ANCHORVALE ST,"1.3966234, 103.8902314"
521 SERANGOON NORTH AVENUE 4,521,SERANGOON NTH AVE 4,"1.3732612, 103.8734016752175"
355A YISHUN RING ROAD,355A,YISHUN RING RD,"Error: Road retrieved. Returned address Yishun Ring Road, Yishun, Northwest, 760413, Singapore"
888A TAMPINES STREET 81,888A,TAMPINES ST 81,"1.3505383, 103.93081466488012"
160 LORONG 1 TOA PAYOH,160,LOR 1 TOA PAYOH,"1.3309113, 103.84504125064586"
611 WOODLANDS RING ROAD,611,WOODLANDS RING RD,"1.435529, 103.79715050872343"
318A YISHUN AVENUE 9,318A,YISHUN AVE 9,"Error: Road retrieved. Returned address Yishun Avenue 9, Yishun, Northwest, 760246, Singapore"
40 BEDOK SOUTH ROAD,40,BEDOK STH RD,"1.3209675, 103.93979072485872"
319 HOUGANG AVENUE 5,319,HOUGANG AVE 5,"1.3655985, 103.89704309975679"
37 CAMBRIDGE ROAD,37,CAMBRIDGE RD,"Error: Not Singapore. Returned address 37, Cambridge Road, Milton, Cambridge, Cambridgeshire, East of England, England, CB24 6AW, United Kingdom"
714 TAMPINES STREET 71,714,TAMPINES ST 71,"1.3599693, 103.93747534011192"
815 JELLICOE ROAD,815,JELLICOE RD,"1.30689615, 103.86169015078997"
92 BEDOK NORTH AVENUE 4,92,BEDOK NTH AVE 4,"1.332436, 103.94133805345336"
409 PASIR RIS DRIVE 6,409,PASIR RIS DR 6,"1.37301835, 103.95423939113695"
152 WOODLANDS STREET 13,152,WOODLANDS ST 13,"Error: Road retrieved. Returned address Woodlands Street 13, Woodlands, Northwest, 738623, Singapore"
788 YISHUN AVENUE 2,788,YISHUN AVE 2,"Error: Road retrieved. Returned address Yishun Avenue 2, Yishun, Northwest, 760175, Singapore"
635 CHOA CHU KANG NORTH 6,635,CHOA CHU KANG NTH 6,"Error: Road retrieved. Returned address Choa Chu Kang North 6, Northwest, 689579, Singapore"
665A JURONG WEST STREET 64,665A,JURONG WEST ST 64,"1.34001525, 103.70308789511004"
101 WOODLANDS STREET 13,101,WOODLANDS ST 13,"1.43598685, 103.78195897235047"
216 JURONG EAST STREET 21,216,JURONG EAST ST 21,"1.33949615, 103.73785534208628"
209 JURONG EAST STREET 21,209,JURONG EAST ST 21,"1.3379530000000002, 103.73968828718378"
223C COMPASSVALE WALK,223C,COMPASSVALE WALK,"1.38877845, 103.89771654569665"
246 HOUGANG STREET 22,246,HOUGANG ST 22,"Error: Road retrieved. Returned address Hougang Street 22, Hougang, Northeast, 530110, Singapore"
458 TAMPINES STREET 42,458,TAMPINES ST 42,"1.35796415, 103.95455315000001"
556 PASIR RIS STREET 51,556,PASIR RIS ST 51,"1.36768315, 103.95225791840184"
480 PASIR RIS DRIVE 4,480,PASIR RIS DR 4,"1.374885, 103.95932960790732"
644 ANG MO KIO AVENUE 4,644,ANG MO KIO AVE 4,"Error: Road retrieved. Returned address Ang Mo Kio Avenue 4, Ang Mo Kio, Singapore, Central, 568987, Singapore"
523 BUKIT BATOK STREET 52,523,BT BATOK ST 52,"1.3566164, 103.7523068"
184 PASIR RIS STREET 11,184,PASIR RIS ST 11,"1.36533515, 103.96031303316221"
290B COMPASSVALE CRESCENT,290B,COMPASSVALE CRES,"1.3968087, 103.89687146157515"
886 TAMPINES STREET 83,886,TAMPINES ST 83,"1.35130095, 103.93202205101555"
158 LORONG 1 TOA PAYOH,158,LOR 1 TOA PAYOH,"1.3315609, 103.8448702"
430B YISHUN AVENUE 11,430B,YISHUN AVE 11,"Error: Road retrieved. Returned address Yishun Avenue 11, Yishun, Northwest, 760413, Singapore"
110 YISHUN RING ROAD,110,YISHUN RING RD,"1.43334025, 103.8291683821286"
242 YISHUN RING ROAD,242,YISHUN RING RD,"Error: Road retrieved. Returned address Yishun Ring Road, Yishun, Northwest, 760413, Singapore"
609 BEDOK RESERVOIR ROAD,609,BEDOK RESERVOIR RD,"1.3316626500000002, 103.91229674042549"
7 TELOK BLANGAH CRESCENT,7,TELOK BLANGAH CRES,"1.2783411, 103.81937516134968"
428 CHOA CHU KANG AVENUE 4,428,CHOA CHU KANG AVE 4,"1.3811672499999998, 103.74004224628469"
475D UPPER SERANGOON CRESCENT,475D,UPP SERANGOON CRES,"1.37517865, 103.90040326756557"
542 JELAPANG ROAD,542,JELAPANG RD,"Error: Road retrieved. Returned address Jelapang Road, Bukit Panjang, Northwest, 671524, Singapore"
659 CHOA CHU KANG CRESCENT,659,CHOA CHU KANG CRES,"Error: Road retrieved. Returned address Choa Chu Kang Crescent, Northwest, 689097, Singapore"
157 JALAN TECK WHYE,157,JLN TECK WHYE,"1.37932545, 103.75654768762598"
210 BOON LAY PLACE,210,BOON LAY PL,"1.3476407, 103.7129647"
101 BUKIT BATOK WEST AVENUE 6,101,BT BATOK WEST AVE 6,"1.3467642, 103.74698141383656"
237 BUKIT PANJANG RING ROAD,237,BT PANJANG RING RD,"Error: Road retrieved. Returned address Bukit Panjang Ring Road, Bukit Panjang, Northwest, 679910, Singapore"
203 TOA PAYOH NORTH,203,TOA PAYOH NTH,"1.3420405, 103.8489979"
580 WOODLANDS DRIVE 16,580,WOODLANDS DR 16,"1.43053895, 103.79628900267038"
761 YISHUN STREET 72,761,YISHUN ST 72,"1.4254738, 103.8332192"
345 BUKIT BATOK STREET 34,345,BT BATOK ST 34,"1.3628455, 103.75086501622258"
10 TOH YI DRIVE,10,TOH YI DR,"1.33782765, 103.7733116230985"
98 ALJUNIED CRESCENT,98,ALJUNIED CRES,"1.3208551499999999, 103.88570033510268"
227 PASIR RIS STREET 21,227,PASIR RIS ST 21,"1.37162985, 103.9615354976422"
829 YISHUN STREET 81,829,YISHUN ST 81,"Error: Road retrieved. Returned address Yishun Street 81, Yishun, Northwest, 760873, Singapore"
428 ANG MO KIO AVENUE 3,428,ANG MO KIO AVE 3,"Error: Road retrieved. Returned address Ang Mo Kio Avenue 3, Ang Mo Kio, Singapore, Central, 560564, Singapore"
203 BUKIT BATOK STREET 21,203,BT BATOK ST 21,"1.3474059, 103.74898559611063"
87 DAWSON ROAD,87,DAWSON RD,"Error: Not Singapore. Returned address Dawson Road, Bouldin, Austin, Travis County, Texas, 78704, United States"
43 LORONG 5 TOA PAYOH,43,LOR 5 TOA PAYOH,"1.33588305, 103.85432818804716"
246 KIM KEAT LINK,246,KIM KEAT LINK,"1.33095095, 103.856157997624"
19 CHAI CHEE ROAD,19,CHAI CHEE RD,"1.3272561, 103.92220443627329"
429 CHOA CHU KANG AVENUE 4,429,CHOA CHU KANG AVE 4,"1.38291415, 103.74033901268973"
56 TEBAN GARDENS ROAD,56,TEBAN GDNS RD,"1.32217075, 103.73776996617468"
95 OLD AIRPORT ROAD,95,OLD AIRPORT RD,"1.308416, 103.88739410787929"
17 EUNOS CRESCENT,17,EUNOS CRES,"1.32338375, 103.90435947679154"
142 SERANGOON NORTH AVENUE 1,142,SERANGOON NTH AVE 1,"1.36762865, 103.87395868413117"
650 ANG MO KIO STREET 61,650,ANG MO KIO ST 61,"Error: Road retrieved. Returned address Ang Mo Kio Street 61, Ang Mo Kio, Singapore, Central, 569868, Singapore"
118A JALAN MEMBINA,118A,JLN MEMBINA,"1.28153045, 103.82559108890977"
235 BUKIT PANJANG RING ROAD,235,BT PANJANG RING RD,"1.37854295, 103.77127665"
340 HOUGANG AVENUE 7,340,HOUGANG AVE 7,"Error: Road retrieved. Returned address Hougang Avenue 7, Hougang, Northeast, 534037, Singapore"
222 HOUGANG STREET 21,222,HOUGANG ST 21,"Error: Road retrieved. Returned address Hougang Street 21, Hougang, Northeast, 530211, Singapore"
308 JURONG EAST STREET 32,308,JURONG EAST ST 32,"1.3470862499999998, 103.7349291581063"
272A JURONG WEST STREET 24,272A,JURONG WEST ST 24,"1.3502695, 103.70521988107902"
102 COMMONWEALTH CRESCENT,102,C'WEALTH CRES,"1.3077953, 103.80070862998286"
180C RIVERVALE CRESCENT,180C,RIVERVALE CRES,"Error: Road retrieved. Returned address Rivervale Crescent, Seng Kang, Northeast, 540151, Singapore"
210 YISHUN STREET 21,210,YISHUN ST 21,"Error: Road retrieved. Returned address Yishun Street 21, Yishun, Northwest, 768610, Singapore"
330 ANG MO KIO AVENUE 1,330,ANG MO KIO AVE 1,"1.3624356, 103.85101907097298"
65 KALLANG BAHRU,65,KALLANG BAHRU,"1.31986675, 103.86873851894754"
203B COMPASSVALE ROAD,203B,COMPASSVALE RD,"Error: Road retrieved. Returned address Compassvale Road, Seng Kang, Northeast, 544757, Singapore"
494D TAMPINES STREET 43,494D,TAMPINES ST 43,"1.3638108, 103.95350655547122"
893B WOODLANDS DRIVE 50,893B,WOODLANDS DR 50,"Error: Road retrieved. Returned address Woodlands Drive 50, Woodlands, Northwest, 738853, Singapore"
393 YISHUN AVENUE 6,393,YISHUN AVE 6,"1.4285368, 103.84849808051828"
26 TECK WHYE LANE,26,TECK WHYE LANE,"1.3778441, 103.7558051"
102 ALJUNIED CRESCENT,102,ALJUNIED CRES,"1.32031765, 103.88233067032448"
230 HOUGANG AVENUE 1,230,HOUGANG AVE 1,"Error: Road retrieved. Returned address Hougang Avenue 1, Hougang, Northeast, 530110, Singapore"
271D PUNGGOL WALK,271D,PUNGGOL WALK,"1.40352785, 103.90087964102224"
509 TAMPINES CENTRAL 1,509,TAMPINES CTRL 1,"1.3552941, 103.9454333953348"
770 WOODLANDS DRIVE 60,770,WOODLANDS DR 60,"Error: Road retrieved. Returned address Woodlands Drive 60, Woodlands, Northwest, 731799, Singapore"
141 YISHUN RING ROAD,141,YISHUN RING RD,"1.4310125, 103.82993753443186"
474 PASIR RIS DRIVE 6,474,PASIR RIS DR 6,"1.37502705, 103.95652276885886"
130 RIVERVALE STREET,130,RIVERVALE ST,"1.3894629, 103.90266673775635"
166 STIRLING ROAD,166,STIRLING RD,"Error: Not Singapore. Returned address Stirling Road, Berea, Buffalo City Ward 18, East London, Buffalo City Metropolitan Municipality, Eastern Cape, 5241, South Africa"
307B ANG MO KIO AVENUE 1,307B,ANG MO KIO AVE 1,"Error: Road retrieved. Returned address Ang Mo Kio Avenue 1, Ang Mo Kio, Singapore, Central, 560218, Singapore"
288A BUKIT BATOK STREET 25,288A,BT BATOK ST 25,"1.3451844, 103.76067409893481"
454 CHOA CHU KANG AVENUE 4,454,CHOA CHU KANG AVE 4,"1.37910945, 103.73479269152816"
59C GEYLANG BAHRU,59C,GEYLANG BAHRU,"1.3222611, 103.86862225625632"
530C PASIR RIS DRIVE 1,530C,PASIR RIS DR 1,"Error: Road retrieved. Returned address Pasir Ris Drive 1, Pasir Ris, Northeast, 510640, Singapore"
528 WOODLANDS DRIVE 14,528,WOODLANDS DR 14,"1.43142585, 103.79243158768733"
103 CLEMENTI STREET 14,103,CLEMENTI ST 14,"1.3227124, 103.76890548062158"
622 YISHUN RING ROAD,622,YISHUN RING RD,"1.418371, 103.83500488172776"
139 BEDOK NORTH AVENUE 3,139,BEDOK NTH AVE 3,"1.3294139, 103.93550388771084"
12 TELOK BLANGAH CRESCENT,12,TELOK BLANGAH CRES,"1.2772003, 103.81960839999999"
34 JALAN BAHAGIA,34,JLN BAHAGIA,"1.3270747, 103.85768800997818"
944 JURONG WEST STREET 91,944,JURONG WEST ST 91,"1.3445383, 103.689658739431"
141 SIMEI STREET 2,141,SIMEI ST 2,"1.3456711499999998, 103.95490672129895"
809A CHOA CHU KANG AVENUE 1,809A,CHOA CHU KANG AVE 1,"Error: Road retrieved. Returned address Choa Chu Kang Avenue 1, Choa Chu Kang, Southwest, 682296, Singapore"
103 AH HOOD ROAD,103,AH HOOD RD,"1.3279358499999998, 103.84483884343828"
175B PUNGGOL FIELD,175B,PUNGGOL FIELD,"1.39786085, 103.90856286047297"
136 BISHAN STREET 12,136,BISHAN ST 12,"1.3441758, 103.85162651838635"
273 CHOA CHU KANG AVENUE 2,273,CHOA CHU KANG AVE 2,"1.3792504, 103.74317346840566"
439 CHOA CHU KANG AVENUE 4,439,CHOA CHU KANG AVE 4,"1.3837321999999999, 103.74029079123375"
659B JURONG WEST STREET 65,659B,JURONG WEST ST 65,"1.33681915, 103.70172542879996"
246 TAMPINES STREET 21,246,TAMPINES ST 21,"1.3533212, 103.94714350663716"
720 TAMPINES STREET 72,720,TAMPINES ST 72,"1.35943105, 103.93597946210727"
892 TAMPINES AVENUE 8,892,TAMPINES AVE 8,"1.34910695, 103.92913363535101"
429 WOODLANDS STREET 41,429,WOODLANDS ST 41,"1.426602, 103.77271552513528"
146 YISHUN STREET 11,146,YISHUN ST 11,"Error: Road retrieved. Returned address Yishun Street 11, Yishun, Northwest, 768643, Singapore"
433 ANG MO KIO AVENUE 10,433,ANG MO KIO AVE 10,"Error: Road retrieved. Returned address Ang Mo Kio Avenue 10, Ang Mo Kio, Singapore, Central, 560449, Singapore"
839 TAMPINES STREET 83,839,TAMPINES ST 83,"1.3511722499999999, 103.93454293366598"
711 WOODLANDS DRIVE 70,711,WOODLANDS DR 70,"1.4412825, 103.79762627567433"
535 BUKIT PANJANG RING ROAD,535,BT PANJANG RING RD,"Error: Road retrieved. Returned address Bukit Panjang Ring Road, Bukit Panjang, Northwest, 679910, Singapore"
624 HOUGANG AVENUE 8,624,HOUGANG AVE 8,"1.3701903, 103.88224869999999"
111 WHAMPOA ROAD,111,WHAMPOA RD,"1.3264048, 103.8562696"
213B PUNGGOL WALK,213B,PUNGGOL WALK,"1.4007782500000001, 103.898435254595"
320 SEMBAWANG CLOSE,320,SEMBAWANG CL,"1.44646155, 103.81886673672317"
307D ANCHORVALE ROAD,307D,ANCHORVALE RD,"1.3903604999999999, 103.88625350663955"
501 SERANGOON NORTH AVENUE 4,501,SERANGOON NTH AVE 4,"Error: Road retrieved. Returned address Serangoon North Avenue 4, Ang Mo Kio Industrial Park 2, Serangoon North, Singapore, Central, 555859, Singapore"
12A MARSILING LANE,12A,MARSILING LANE,"1.4414131499999998, 103.77841788697907"
252 BANGKIT ROAD,252,BANGKIT RD,"1.3798921000000002, 103.77407000070514"
769 PASIR RIS STREET 71,769,PASIR RIS ST 71,"1.3750640500000002, 103.93527034367577"
262B COMPASSVALE STREET,262B,COMPASSVALE ST,"1.3952679, 103.89552981199414"
223 TAMPINES STREET 24,223,TAMPINES ST 24,"1.3553940500000001, 103.95327479176069"
180 BEDOK NORTH ROAD,180,BEDOK NTH RD,"1.3267495, 103.94081194964367"
139 BISHAN STREET 12,139,BISHAN ST 12,"1.3452395, 103.85274204964556"
376B HOUGANG STREET 32,376B,HOUGANG ST 32,"1.3641735000000001, 103.89400390733076"
54 GEYLANG BAHRU,54,GEYLANG BAHRU,"1.3238618, 103.86793165033686"
573 PASIR RIS STREET 53,573,PASIR RIS ST 53,"1.37379925, 103.94581754926921"
334B ANCHORVALE CRESCENT,334B,ANCHORVALE CRES,"1.3984670000000001, 103.89001536865672"
147 LORONG 2 TOA PAYOH,147,LOR 2 TOA PAYOH,"Error: Road retrieved. Returned address Lorong 2 Toa Payoh, Toa Payoh, Singapore, Central, 319640, Singapore"
808A CHAI CHEE ROAD,808A,CHAI CHEE RD,"1.3269912499999998, 103.92403088745593"
156 BEDOK SOUTH AVENUE 3,156,BEDOK STH AVE 3,"1.3183178500000001, 103.9455602262666"
661 CHOA CHU KANG CRESCENT,661,CHOA CHU KANG CRES,"Error: Road retrieved. Returned address Choa Chu Kang Crescent, Northwest, 689097, Singapore"
306 HOUGANG AVENUE 5,306,HOUGANG AVE 5,"1.3673075, 103.89568145"
93 GEYLANG BAHRU,93,GEYLANG BAHRU,"1.32215505, 103.87166232796224"
188 PASIR RIS STREET 12,188,PASIR RIS ST 12,"1.3652171, 103.95916149600663"
882 TAMPINES STREET 84,882,TAMPINES ST 84,"1.3519299999999999, 103.93362827975929"
157 LORONG 1 TOA PAYOH,157,LOR 1 TOA PAYOH,"1.33249285, 103.84610523705932"
202 YISHUN STREET 21,202,YISHUN ST 21,"Error: Road retrieved. Returned address Yishun Street 21, Yishun, Northwest, 768610, Singapore"
572 HOUGANG STREET 51,572,HOUGANG ST 51,"1.3782575499999998, 103.88753110144265"
744 JURONG WEST STREET 73,744,JURONG WEST ST 73,"Error: Road retrieved. Returned address Jurong West Street 73, Jurong West, Southwest, 640744, Singapore"
159A RIVERVALE CRESCENT,159A,RIVERVALE CRES,"Error: Road retrieved. Returned address Rivervale Crescent, Seng Kang, Northeast, 540151, Singapore"
128 GEYLANG EAST AVENUE 1,128,GEYLANG EAST AVE 1,"1.3184589, 103.88787851593574"
530A PASIR RIS DRIVE 1,530A,PASIR RIS DR 1,"Error: Road retrieved. Returned address Pasir Ris Drive 1, Pasir Ris, Northeast, 510640, Singapore"
879 TAMPINES AVENUE 8,879,TAMPINES AVE 8,"1.3520169499999999, 103.93095984853701"
432 BUKIT PANJANG RING ROAD,432,BT PANJANG RING RD,"Error: Road retrieved. Returned address Bukit Panjang Ring Road, Bukit Panjang, Northwest, 679910, Singapore"
558 CHOA CHU KANG NORTH 6,558,CHOA CHU KANG NTH 6,"Error: Road retrieved. Returned address Choa Chu Kang North 6, Northwest, 689579, Singapore"
451 HOUGANG AVENUE 10,451,HOUGANG AVE 10,"Error: Road retrieved. Returned address Hougang Avenue 10, Hougang, Northeast, 545119, Singapore"
214 PETIR ROAD,214,PETIR RD,"Error: Road retrieved. Returned address Petir Road, Bukit Panjang, Northwest, 678272, Singapore"
205B COMPASSVALE LANE,205B,COMPASSVALE LANE,"1.38556465, 103.89663631150353"
2 MARINE TERRACE,2,MARINE TER,"1.30445565, 103.91816869942869"
354 TAMPINES STREET 33,354,TAMPINES ST 33,"1.35473505, 103.96253704264473"
719 BEDOK RESERVOIR ROAD,719,BEDOK RESERVOIR RD,"1.3364342, 103.9249360007739"
208 ANG MO KIO AVENUE 1,208,ANG MO KIO AVE 1,"Error: Road retrieved. Returned address Ang Mo Kio Avenue 1, Ang Mo Kio, Singapore, Central, 560218, Singapore"
463 ANG MO KIO AVENUE 10,463,ANG MO KIO AVE 10,"Error: Road retrieved. Returned address Ang Mo Kio Avenue 10, Ang Mo Kio, Singapore, Central, 560449, Singapore"
728 ANG MO KIO AVENUE 6,728,ANG MO KIO AVE 6,"1.3726394499999999, 103.84568315"
659 JALAN TENAGA,659,JLN TENAGA,"1.3342316, 103.90613509785102"
384 BUKIT BATOK WEST AVENUE 5,384,BT BATOK WEST AVE 5,"1.36291895, 103.75228821896295"
461 SEGAR ROAD,461,SEGAR RD,"Error: Road retrieved. Returned address Segar Road, Bukit Panjang, Northwest, 677738, Singapore"
633 VEERASAMY ROAD,633,VEERASAMY RD,"Error: Road retrieved. Returned address Veerasamy Road, Rochor, Singapore, Central, 207309, Singapore"
413 PANDAN GARDENS,413,PANDAN GDNS,"1.31949, 103.74796233502903"
932 JURONG WEST STREET 92,932,JURONG WEST ST 92,"1.3416546999999999, 103.6890203444627"
525A PASIR RIS STREET 51,525A,PASIR RIS ST 51,"1.3692844499999999, 103.94718893366309"
335C ANCHORVALE CRESCENT,335C,ANCHORVALE CRES,"1.3985058, 103.8882424"
225 SERANGOON AVENUE 4,225,SERANGOON AVE 4,"Error: Road retrieved. Returned address Serangoon Avenue 4, Serangoon Green, Serangoon, Southeast, 551223, Singapore"
124 LORONG 1 TOA PAYOH,124,LOR 1 TOA PAYOH,"Error: Road retrieved. Returned address Lorong 1 Toa Payoh, Toa Payoh, Singapore, Central, 312403, Singapore"
657 WOODLANDS RING ROAD,657,WOODLANDS RING RD,"1.436682, 103.7985955417038"
220 YISHUN STREET 21,220,YISHUN ST 21,"Error: Road retrieved. Returned address Yishun Street 21, Yishun, Northwest, 768610, Singapore"
534 BEDOK NORTH STREET 3,534,BEDOK NTH ST 3,"1.3330615, 103.92463384212604"
243 BISHAN STREET 22,243,BISHAN ST 22,"1.3610813, 103.84455702076863"
14 JALAN BUKIT MERAH,14,JLN BT MERAH,"Error: Road retrieved. Returned address Jalan Bukit Merah, Bukit Merah, Singapore, Central, 160149, Singapore"
1G CANTONMENT ROAD,1G,CANTONMENT RD,"1.2755656499999999, 103.84130749625815"
258C PUNGGOL FIELD,258C,PUNGGOL FIELD,"1.4041720500000001, 103.89612556090805"
690C WOODLANDS DRIVE 75,690C,WOODLANDS DR 75,NONE
306 YISHUN CENTRAL,306,YISHUN CTRL,"Error: Road retrieved. Returned address Yishun Central, Yishun, Northwest, 760935, Singapore"
220 ANG MO KIO AVENUE 1,220,ANG MO KIO AVE 1,"1.3655748, 103.84055092885802"
986B BUANGKOK CRESCENT,986B,BUANGKOK CRES,"1.3822798500000002, 103.88013707556334"
109D EDGEDALE PLAINS,109D,EDGEDALE PLAINS,"Error: Road retrieved. Returned address Edgedale Plains, Punggol, Northeast, 828867, Singapore"
412 JURONG WEST STREET 42,412,JURONG WEST ST 42,"1.35331715, 103.72591393696605"
170C PUNGGOL FIELD,170C,PUNGGOL FIELD,"Error: Road retrieved. Returned address Punggol Field, Punggol Cove, Punggol, Northeast, 820198, Singapore"
349 BUKIT BATOK STREET 34,349,BT BATOK ST 34,"1.3620919, 103.7495996789826"
105 GANGSA ROAD,105,GANGSA RD,"Error: Road retrieved. Returned address Gangsa Road, Bukit Panjang, Northwest, 679002, Singapore"
81 LORONG 4 TOA PAYOH,81,LOR 4 TOA PAYOH,"1.33534935, 103.85042449259618"
24 BEO CRESCENT,24,BEO CRES,"Error: Road retrieved. Returned address Beo Crescent, The Beo Crescent, Bukit Merah, Singapore, Central, 160040, Singapore"
480 JURONG WEST STREET 41,480,JURONG WEST ST 41,"1.3469434, 103.72370216588062"
293 PUNGGOL CENTRAL,293,PUNGGOL CTRL,"Error: Road retrieved. Returned address Punggol Central, Punggol, Northeast, 821256, Singapore"
354 YISHUN RING ROAD,354,YISHUN RING RD,"1.4257969, 103.84526925"
563 ANG MO KIO AVENUE 3,563,ANG MO KIO AVE 3,"Error: Road retrieved. Returned address Ang Mo Kio Avenue 3, Ang Mo Kio, Singapore, Central, 563455, Singapore"
434 JURONG WEST STREET 42,434,JURONG WEST ST 42,"Error: Road retrieved. Returned address Jurong West Street 42, Jurong West, Southwest, 649520, Singapore"
214 TAMPINES STREET 23,214,TAMPINES ST 23,"1.3545981500000002, 103.953543180671"
45 LORONG 5 TOA PAYOH,45,LOR 5 TOA PAYOH,"1.33581555, 103.85399334009"
582 PASIR RIS STREET 53,582,PASIR RIS ST 53,"1.375216, 103.94678994008518"
510A WELLINGTON CIRCLE,510A,WELLINGTON CIRCLE,"Error: Not Singapore. Returned address 510, Wellington Circle, Rochester Hills, Oakland County, Michigan, 48309, United States"
10F BEDOK SOUTH AVENUE 2,10F,BEDOK STH AVE 2,"1.3221137, 103.93699174706737"
621 SENJA ROAD,621,SENJA RD,"Error: Road retrieved. Returned address Senja Road, Bukit Panjang, Northwest, 677741, Singapore"
449 PASIR RIS DRIVE 6,449,PASIR RIS DR 6,"1.37083175, 103.95834215"
324 TAMPINES STREET 32,324,TAMPINES ST 32,"1.3525864, 103.95960750366838"
333 WOODLANDS STREET 32,333,WOODLANDS ST 32,"Error: Road retrieved. Returned address Woodlands Street 32, Woodlands, Northwest, 739065, Singapore"
178 ANG MO KIO AVENUE 4,178,ANG MO KIO AVE 4,"1.3763809, 103.83682141001981"
604 CHOA CHU KANG STREET 62,604,CHOA CHU KANG ST 62,"Error: Road retrieved. Returned address Choa Chu Kang Street 62, Northwest, 680627, Singapore"
105 JALAN RAJAH,105,JLN RAJAH,"1.32837265, 103.85402941639364"
270B PUNGGOL FIELD,270B,PUNGGOL FIELD,"1.4041611, 103.89932767954545"
854 WOODLANDS STREET 83,854,WOODLANDS ST 83,"Error: Road retrieved. Returned address Woodlands Street 83, Woodlands, Northwest, 738489, Singapore"
504A YISHUN STREET 51,504A,YISHUN ST 51,"1.4179138500000001, 103.84434038759042"
443 YISHUN AVENUE 11,443,YISHUN AVE 11,"Error: Road retrieved. Returned address Yishun Avenue 11, Yishun, Northwest, 760413, Singapore"
876 YISHUN STREET 81,876,YISHUN ST 81,"1.4147558999999998, 103.83551187651223"
461 ANG MO KIO AVENUE 10,461,ANG MO KIO AVE 10,"Error: Road retrieved. Returned address Ang Mo Kio Avenue 10, Ang Mo Kio, Singapore, Central, 560449, Singapore"
130 GEYLANG EAST AVENUE 1,130,GEYLANG EAST AVE 1,"1.3168601500000001, 103.88775552349635"
138 EDGEDALE PLAINS,138,EDGEDALE PLAINS,"Error: Road retrieved. Returned address Edgedale Plains, Punggol, Northeast, 828867, Singapore"
298C COMPASSVALE STREET,298C,COMPASSVALE ST,"1.3962775, 103.90101738553918"
534 SERANGOON NORTH AVENUE 4,534,SERANGOON NTH AVE 4,"1.37421435, 103.8746022"
425 BEDOK NORTH ROAD,425,BEDOK NTH RD,"1.3293546, 103.92908642879863"
255 BUKIT BATOK EAST AVENUE 4,255,BT BATOK EAST AVE 4,"1.3501511000000002, 103.75853090902633"
173A PUNGGOL FIELD,173A,PUNGGOL FIELD,"1.3970204499999999, 103.90941104472624"
316 SEMBAWANG VISTA,316,SEMBAWANG VISTA,"1.4463578, 103.82095040749465"
646 WOODLANDS RING ROAD,646,WOODLANDS RING RD,"1.43759565, 103.80063097929727"
465 UPPER SERANGOON ROAD,465,UPP SERANGOON RD,"1.3719833499999998, 103.89710052940666"
274D PUNGGOL PLACE,274D,PUNGGOL PL,"1.40309825, 103.90172884151022"
604 SENJA ROAD,604,SENJA RD,"Error: Road retrieved. Returned address Senja Road, Bukit Panjang, Northwest, 677741, Singapore"
341 CLEMENTI AVENUE 5,341,CLEMENTI AVE 5,"1.3191121, 103.76917723483652"
369 YUNG AN ROAD,369,YUNG AN RD,"1.3370671, 103.72002593462166"
486 ADMIRALTY LINK,486,ADMIRALTY LINK,"Error: Road retrieved. Returned address Admiralty Link, Sembawang, Northwest, 757521, Singapore"
690F WOODLANDS DRIVE 75,690F,WOODLANDS DR 75,NONE
609 WOODLANDS RING ROAD,609,WOODLANDS RING RD,"Error: Road retrieved. Returned address Woodlands Ring Road, Woodlands, Northwest, 737890, Singapore"
120 PASIR RIS STREET 11,120,PASIR RIS ST 11,"Error: Road retrieved. Returned address Pasir Ris Street 11, Pasir Ris, Northeast, 510158, Singapore"
88 DAWSON ROAD,88,DAWSON RD,"Error: Not Singapore. Returned address Dawson Road, Dawson, Shelby County, Ohio, 45845, United States"
868C TAMPINES AVENUE 8,868C,TAMPINES AVE 8,"1.35584135, 103.93311538897933"
174B HOUGANG AVENUE 1,174B,HOUGANG AVE 1,"Error: Road retrieved. Returned address Hougang Avenue 1, Hougang, Northeast, 530110, Singapore"
87 BEDOK NORTH STREET 4,87,BEDOK NTH ST 4,"Error: Road retrieved. Returned address Bedok North Street 4, Bedok, Southeast, 461187, Singapore"
926 TAMPINES STREET 91,926,TAMPINES ST 91,"1.3460548, 103.94109786278285"
266 TOH GUAN ROAD,266,TOH GUAN RD,"1.3411105, 103.74418403787342"
502 ANG MO KIO AVENUE 5,502,ANG MO KIO AVE 5,"Error: Road retrieved. Returned address Ang Mo Kio Avenue 5, Ang Mo Kio, Singapore, Central, 569948, Singapore"
521 BEDOK NORTH AVENUE 1,521,BEDOK NTH AVE 1,"1.33023815, 103.92708013204543"
420 BUKIT BATOK WEST AVENUE 2,420,BT BATOK WEST AVE 2,"1.36252745, 103.7458082554817"
550B SEGAR ROAD,550B,SEGAR RD,"1.3896758500000002, 103.76749652514437"
405 CHOA CHU KANG AVENUE 3,405,CHOA CHU KANG AVE 3,"1.38005115, 103.73964115431035"
629 HOUGANG AVENUE 8,629,HOUGANG AVE 8,"1.3699149, 103.88067361681814"
244 JURONG EAST STREET 24,244,JURONG EAST ST 24,"Error: Road retrieved. Returned address Jurong East Street 24, Jurong East, Southwest, 600244, Singapore"
119 HO CHING ROAD,119,HO CHING RD,"1.3350326, 103.7243789619132"
123 YISHUN STREET 11,123,YISHUN ST 11,"Error: Road retrieved. Returned address Yishun Street 11, Yishun, Northwest, 768643, Singapore"
333B YISHUN STREET 31,333B,YISHUN ST 31,"1.43195155, 103.84550867715541"
511 ANG MO KIO AVENUE 8,511,ANG MO KIO AVE 8,"Error: Road retrieved. Returned address Ang Mo Kio Avenue 8, Ang Mo Kio, Singapore, Central, 569843, Singapore"
421 BUKIT BATOK WEST AVENUE 2,421,BT BATOK WEST AVE 2,"1.3624962, 103.74497070548529"
654A JURONG WEST STREET 61,654A,JURONG WEST ST 61,"1.3361271000000001, 103.69845518713998"
202C SENGKANG EAST ROAD,202C,SENGKANG EAST RD,"Error: Road retrieved. Returned address Sengkang East Road, Seng Kang, Northeast, 530566, Singapore"
124 SIMEI STREET 1,124,SIMEI ST 1,"1.3461865, 103.95330893761623"
153 SIMEI STREET 1,153,SIMEI ST 1,"1.3451582499999999, 103.95742350918981"
35 JALAN BAHAGIA,35,JLN BAHAGIA,"1.32669505, 103.85773656537472"
207 PASIR RIS STREET 21,207,PASIR RIS ST 21,"1.3663655499999998, 103.96243184121396"
914 TAMPINES STREET 91,914,TAMPINES ST 91,"1.3490067, 103.93956660358444"
288 YISHUN AVENUE 6,288,YISHUN AVE 6,"Error: Road retrieved. Returned address Yishun Avenue 6, Yishun, Northwest, 760406, Singapore"
260 JURONG EAST STREET 24,260,JURONG EAST ST 24,"1.3437274000000001, 103.74023742383292"
763 PASIR RIS STREET 71,763,PASIR RIS ST 71,"1.37618465, 103.93418653900966"
665B PUNGGOL DRIVE,665B,PUNGGOL DR,"1.40206965, 103.91420753573914"
151 RIVERVALE CRESCENT,151,RIVERVALE CRES,"1.39215445, 103.90585380125567"
2 UPPER ALJUNIED LANE,2,UPP ALJUNIED LANE,"1.33402485, 103.87899865"
328 WOODLANDS STREET 32,328,WOODLANDS ST 32,"Error: Road retrieved. Returned address Woodlands Street 32, Woodlands, Northwest, 739065, Singapore"
448 YISHUN RING ROAD,448,YISHUN RING RD,"1.42245525, 103.84491385021227"
640 BEDOK RESERVOIR ROAD,640,BEDOK RESERVOIR RD,"1.33198835, 103.90500142582908"
188A RIVERVALE DRIVE,188A,RIVERVALE DR,"1.3943368, 103.90503516191782"
191 LORONG 4 TOA PAYOH,191,LOR 4 TOA PAYOH,"Error: Road retrieved. Returned address Lorong 4 Toa Payoh, Toa Payoh, Singapore, Central, 319194, Singapore"
709 BEDOK RESERVOIR ROAD,709,BEDOK RESERVOIR RD,"1.3355375, 103.92216215797038"
204 BUKIT BATOK STREET 21,204,BT BATOK ST 21,"1.3475205, 103.74992609426255"
39 TEBAN GARDENS ROAD,39,TEBAN GDNS RD,"1.3213551, 103.74289784545968"
624A PUNGGOL CENTRAL,624A,PUNGGOL CTRL,"1.4008538000000001, 103.91133981596977"
258 BISHAN STREET 22,258,BISHAN ST 22,"Error: Road retrieved. Returned address Bishan Street 22, Bishan, Singapore, Central, 570282, Singapore"
8 LORONG LEW LIAN,8,LOR LEW LIAN,"1.34888415, 103.87669719070217"
430 TAMPINES STREET 41,430,TAMPINES ST 41,"1.3594891, 103.95012925"
575 PASIR RIS STREET 53,575,PASIR RIS ST 53,"1.3735627, 103.94622804801119"
526 JELAPANG ROAD,526,JELAPANG RD,"Error: Road retrieved. Returned address Jelapang Road, Bukit Panjang, Northwest, 671524, Singapore"
163A RIVERVALE CRESCENT,163A,RIVERVALE CRES,"1.3895490000000001, 103.90894073806757"
522 SERANGOON NORTH AVENUE 4,522,SERANGOON NTH AVE 4,"1.3727103500000002, 103.87344197672871"
215 MARSILING LANE,215,MARSILING LANE,"1.44757085, 103.77209475000001"
126 BEDOK NORTH STREET 2,126,BEDOK NTH ST 2,"1.3281545000000001, 103.9388661968753"
450D TAMPINES STREET 42,450D,TAMPINES ST 42,"1.3572861999999999, 103.95269147170544"
566 HOUGANG STREET 51,566,HOUGANG ST 51,"1.38136665, 103.88876657951337"
528 BUKIT BATOK STREET 51,528,BT BATOK ST 51,"1.3566561, 103.75133499526231"
2 HOUGANG AVENUE 3,2,HOUGANG AVE 3,"1.363147, 103.89318945"
187 PASIR RIS STREET 11,187,PASIR RIS ST 11,"1.3647881499999999, 103.95928783495253"
588 WOODLANDS DRIVE 16,588,WOODLANDS DR 16,"Error: Road retrieved. Returned address Woodlands Drive 16, Woodlands, Northwest, 730548, Singapore"
125 MARSILING RISE,125,MARSILING RISE,"1.438451, 103.77956931705856"
768 YISHUN AVENUE 3,768,YISHUN AVE 3,"1.4244218499999999, 103.83388657777543"
315B YISHUN AVENUE 9,315B,YISHUN AVE 9,"1.43203445, 103.84243480112448"
466D SEMBAWANG DRIVE,466D,SEMBAWANG DR,"Error: Road retrieved. Returned address Sembawang Drive, Sembawang, Northwest, 757632, Singapore"
108 TAMPINES STREET 11,108,TAMPINES ST 11,"1.3478929, 103.94855889439867"
110 BEDOK NORTH ROAD,110,BEDOK NTH RD,"1.3324452, 103.93487474385041"
420 CHOA CHU KANG AVENUE 4,420,CHOA CHU KANG AVE 4,"1.38145295, 103.7414849630949"
58 CIRCUIT ROAD,58,CIRCUIT RD,"1.3249924, 103.88656617924826"
15 EUNOS CRESCENT,15,EUNOS CRES,"1.3238642, 103.90339145"
322B ANCHORVALE DRIVE,322B,ANCHORVALE DR,"1.39144685, 103.89194251497432"
435A FERNVALE ROAD,435A,FERNVALE RD,"Error: Not Singapore. Returned address Fernvale Road, Fernvale, Williamson County, Tennessee, United States"
428 TAMPINES STREET 41,428,TAMPINES ST 41,"1.35924175, 103.94911054062669"
514 WOODLANDS DRIVE 14,514,WOODLANDS DR 14,"Error: Road retrieved. Returned address Woodlands Drive 14, Fragrant Woods, Woodlands, Northwest, 738079, Singapore"
201D TAMPINES STREET 21,201D,TAMPINES ST 21,"1.35234605, 103.95350050568476"
163 TAMPINES STREET 12,163,TAMPINES ST 12,"1.3494982, 103.94746276603729"
366 TAMPINES STREET 34,366,TAMPINES ST 34,"1.3577504999999999, 103.96188606742564"
495F TAMPINES STREET 43,495F,TAMPINES ST 43,"1.36445225, 103.95295056213646"
131C KIM TIAN ROAD,131C,KIM TIAN RD,"1.2803453, 103.82872692812333"
571 PASIR RIS STREET 53,571,PASIR RIS ST 53,"1.3730506, 103.9456718152035"
819 TAMPINES STREET 81,819,TAMPINES ST 81,"1.34838385, 103.93681065589448"
244 PASIR RIS STREET 21,244,PASIR RIS ST 21,"1.37149465, 103.9633715016684"
274 PASIR RIS STREET 21,274,PASIR RIS ST 21,"1.36428535, 103.96414422459083"
910 TAMPINES STREET 91,910,TAMPINES ST 91,"1.349634, 103.93844315253347"
330 TAH CHING ROAD,330,TAH CHING RD,"1.33775975, 103.72425340506899"
256A SUMANG WALK,256A,SUMANG WALK,"1.4059868500000001, 103.89570929876886"
33 CHAI CHEE AVENUE,33,CHAI CHEE AVE,"Error: Road retrieved. Returned address Chai Chee Avenue, Ansar Garden, Bedok, Southeast, 461029, Singapore"
126B EDGEDALE PLAINS,126B,EDGEDALE PLAINS,"Error: Road retrieved. Returned address Edgedale Plains, Punggol, Northeast, 828867, Singapore"
284 TOH GUAN ROAD,284,TOH GUAN RD,"1.3394780499999999, 103.74622374530223"
155 YUNG LOH ROAD,155,YUNG LOH RD,"1.32775715, 103.72250298511392"
247 SIMEI STREET 5,247,SIMEI ST 5,"1.3441797, 103.95327420181765"
81B LORONG 4 TOA PAYOH,81B,LOR 4 TOA PAYOH,"1.3359086, 103.8497616516187"
127 BISHAN STREET 12,127,BISHAN ST 12,"1.3462184, 103.8515118847227"
339 CLEMENTI AVENUE 5,339,CLEMENTI AVE 5,"1.31955795, 103.7693298033208"
63 CIRCUIT ROAD,63,CIRCUIT RD,"1.32651685, 103.88661848990428"
275C JURONG WEST STREET 25,275C,JURONG WEST ST 25,"Error: Road retrieved. Returned address Jurong West Street 25, Jurong West, Southwest, 644276, Singapore"
656B JURONG WEST STREET 61,656B,JURONG WEST ST 61,"1.3358922, 103.6994653886016"
669B JURONG WEST STREET 64,669B,JURONG WEST ST 64,"1.34291865, 103.70275929429849"
2C UPPER BOON KENG ROAD,2C,UPP BOON KENG RD,"1.31322575, 103.87203092543277"
308B ANCHORVALE ROAD,308B,ANCHORVALE RD,"1.38996425, 103.88653019608122"
713 TAMPINES STREET 71,713,TAMPINES ST 71,"1.35958555, 103.93773826364364"
64 TELOK BLANGAH DRIVE,64,TELOK BLANGAH DR,"1.2743985, 103.81091441227079"
473 CHOA CHU KANG AVENUE 3,473,CHOA CHU KANG AVE 3,"1.3793524000000001, 103.7383176605172"
322 SERANGOON AVENUE 3,322,SERANGOON AVE 3,"1.351601, 103.86844783293458"
275 TAMPINES STREET 22,275,TAMPINES ST 22,"1.3480173, 103.95084727709529"
1E CANTONMENT ROAD,1E,CANTONMENT RD,"1.2766108, 103.84116154052731"
411 COMMONWEALTH AVENUE WEST,411,C'WEALTH AVE WEST,"1.31088855, 103.7696620501535"
892B WOODLANDS DRIVE 50,892B,WOODLANDS DR 50,"Error: Road retrieved. Returned address Woodlands Drive 50, Woodlands, Northwest, 738853, Singapore"
306A ANCHORVALE LINK,306A,ANCHORVALE LINK,"1.3901365, 103.88906224120112"
275C COMPASSVALE LINK,275C,COMPASSVALE LINK,"1.38326495, 103.89387087569563"
416 BEDOK NORTH AVENUE 2,416,BEDOK NTH AVE 2,"1.3278193, 103.9308553"
710 CLEMENTI WEST STREET 2,710,CLEMENTI WEST ST 2,"1.3063693, 103.76163234770779"
865 JURONG WEST STREET 81,865,JURONG WEST ST 81,"1.3500605, 103.69535716664328"
22 BOON KENG ROAD,22,BOON KENG RD,"1.31843735, 103.86133935693007"
418 PASIR RIS DRIVE 6,418,PASIR RIS DR 6,"1.37201575, 103.95420347032484"
201B COMPASSVALE DRIVE,201B,COMPASSVALE DR,"1.38850465, 103.89400061296297"
358 YISHUN RING ROAD,358,YISHUN RING RD,"1.4268394, 103.8459833"
196 BISHAN STREET 13,196,BISHAN ST 13,"Error: Road retrieved. Returned address Bishan Street 13, Bishan, Singapore, Central, 579799, Singapore"
478 JURONG WEST STREET 41,478,JURONG WEST ST 41,"1.3473749, 103.72398099455211"
104B DEPOT ROAD,104B,DEPOT RD,"1.2805171, 103.81216811795818"
31 HOLLAND CLOSE,31,HOLLAND CL,"1.30698865, 103.79708738003293"
705 TAMPINES STREET 71,705,TAMPINES ST 71,"1.3571895, 103.93709071523077"
121 YUAN CHING ROAD,121,YUAN CHING RD,"Error: Road retrieved. Returned address Yuan Ching Road, Jurong West, Southwest, 612138, Singapore"
5A UPPER BOON KENG ROAD,5A,UPP BOON KENG RD,"1.3133157500000001, 103.87359971346771"
183 EDGEFIELD PLAINS,183,EDGEFIELD PLAINS,"1.3987658, 103.90986964922519"
289 BISHAN STREET 24,289,BISHAN ST 24,"1.35665565, 103.84490823113958"
246 COMPASSVALE ROAD,246,COMPASSVALE RD,"1.39251055, 103.89915625237211"
33 JALAN BAHAGIA,33,JLN BAHAGIA,"1.3266863500000001, 103.85839780899073"
4 CHANGI VILLAGE ROAD,4,CHANGI VILLAGE RD,"1.38927595, 103.9874191969848"
220C BEDOK CENTRAL,220C,BEDOK CTRL,"1.32546585, 103.93398781025817"
95B HENDERSON ROAD,95B,HENDERSON RD,"Error: Not Singapore. Returned address 95, Henderson Road, Henderson, Webster County, Missouri, 65742, United States"
428 HOUGANG AVENUE 6,428,HOUGANG AVE 6,"1.37485905, 103.89342466000792"
225A COMPASSVALE WALK,225A,COMPASSVALE WALK,"1.3878206, 103.89867258527852"
805 CHAI CHEE ROAD,805,CHAI CHEE RD,"1.324478, 103.92146504951143"
420 HOUGANG AVENUE 10,420,HOUGANG AVE 10,"1.37567305, 103.89505505886606"
109 MCNAIR ROAD,109,MCNAIR RD,"1.3215940499999999, 103.85910100999259"
107 YISHUN RING ROAD,107,YISHUN RING RD,"Error: Road retrieved. Returned address Yishun Ring Road, Yishun, Northwest, 760413, Singapore"
334A YISHUN STREET 31,334A,YISHUN ST 31,"1.43291365, 103.84470359563491"
110 ANG MO KIO AVENUE 4,110,ANG MO KIO AVE 4,"Error: Road retrieved. Returned address Ang Mo Kio Avenue 4, Ang Mo Kio, Singapore, Central, 568987, Singapore"
122 YUAN CHING ROAD,122,YUAN CHING RD,"1.33598945, 103.72388332122316"
430B FERNVALE LINK,430B,FERNVALE LINK,"1.3938953, 103.87835440505766"
441A FERNVALE ROAD,441A,FERNVALE RD,"1.3912104, 103.8753123966421"
740 YISHUN AVENUE 5,740,YISHUN AVE 5,"1.430092, 103.83210589907318"
853 YISHUN RING ROAD,853,YISHUN RING RD,"Error: Road retrieved. Returned address Yishun Ring Road, Yishun, Northwest, 760413, Singapore"
243 BUKIT BATOK EAST AVENUE 5,243,BT BATOK EAST AVE 5,"1.3497278000000001, 103.75641060978262"
142 LORONG AH SOO,142,LOR AH SOO,"1.3527934, 103.88259106222769"
615 HOUGANG AVENUE 8,615,HOUGANG AVE 8,"Error: Road retrieved. Returned address Hougang Avenue 8, Hougang, Northeast, 530631, Singapore"
115 MARSILING RISE,115,MARSILING RISE,"1.43825265, 103.78102803166708"
318B YISHUN AVENUE 9,318B,YISHUN AVE 9,"Error: Road retrieved. Returned address Yishun Avenue 9, Yishun, Northwest, 760246, Singapore"
113 YISHUN RING ROAD,113,YISHUN RING RD,"1.4347376, 103.82862746303965"
239 PASIR RIS STREET 21,239,PASIR RIS ST 21,"1.3733179, 103.96351197734953"
302C ANCHORVALE LINK,302C,ANCHORVALE LINK,"1.388121, 103.89049604222981"
512 SERANGOON NORTH AVENUE 4,512,SERANGOON NTH AVE 4,"1.37166495, 103.87538194808246"
561 ANG MO KIO AVENUE 10,561,ANG MO KIO AVE 10,"Error: Road retrieved. Returned address Ang Mo Kio Avenue 10, Ang Mo Kio, Singapore, Central, 561455, Singapore"
446 BRIGHT HILL DRIVE,446,BRIGHT HILL DR,"Error: Road retrieved. Returned address Bright Hill Drive, Bishan, Singapore, Central, 573957, Singapore"
173B PUNGGOL FIELD,173B,PUNGGOL FIELD,"1.3966109, 103.90990189744957"
842C TAMPINES STREET 82,842C,TAMPINES ST 82,"1.35097115, 103.93666865553055"
873 TAMPINES STREET 84,873,TAMPINES ST 84,"1.35393835, 103.93218234386853"
124 PENDING ROAD,124,PENDING RD,"Error: Not Singapore. Returned address Pending Road, New Kent, Virginia, 23124, United States"
676 HOUGANG AVENUE 8,676,HOUGANG AVE 8,"Error: Road retrieved. Returned address Hougang Avenue 8, Hougang, Northeast, 530631, Singapore"
706 YISHUN AVENUE 5,706,YISHUN AVE 5,"1.42887915, 103.82891805"
117 PENDING ROAD,117,PENDING RD,"Error: Road retrieved. Returned address Pending Road, Bukit Panjang, Northwest, 670129, Singapore"
491 JURONG WEST AVENUE 1,491,JURONG WEST AVE 1,"1.3495462, 103.7265472"
345 TAMPINES STREET 33,345,TAMPINES ST 33,"1.3518173, 103.96247994782229"
646 ANG MO KIO AVENUE 6,646,ANG MO KIO AVE 6,"Error: Road retrieved. Returned address Ang Mo Kio Avenue 6, Ang Mo Kio, Singapore, Central, 569845, Singapore"
31 BEDOK SOUTH AVENUE 2,31,BEDOK STH AVE 2,"1.3230053, 103.93818007949491"
419 CANBERRA ROAD,419,CANBERRA RD,"1.4521939, 103.81894878535847"
328 SERANGOON AVENUE 3,328,SERANGOON AVE 3,"1.35032975, 103.86826696281858"
698C HOUGANG STREET 52,698C,HOUGANG ST 52,"Error: Road retrieved. Returned address Hougang Street 52, Hougang, Northeast, 530699, Singapore"
453 HOUGANG AVENUE 10,453,HOUGANG AVE 10,"Error: Road retrieved. Returned address Hougang Avenue 10, Hougang, Northeast, 538766, Singapore"
353 TAMPINES STREET 33,353,TAMPINES ST 33,"1.35469215, 103.96299281708193"
129 CLARENCE LANE,129,CLARENCE LANE,"1.29316055, 103.81442965246936"
713 BEDOK RESERVOIR ROAD,713,BEDOK RESERVOIR RD,"1.3366234000000001, 103.92241945966447"
93 BEDOK NORTH AVENUE 4,93,BEDOK NTH AVE 4,"1.3328863499999999, 103.94141517481509"
390 BUKIT BATOK WEST AVENUE 5,390,BT BATOK WEST AVE 5,"1.3653442999999998, 103.75258401236262"
611 CHOA CHU KANG STREET 62,611,CHOA CHU KANG ST 62,"Error: Road retrieved. Returned address Choa Chu Kang Street 62, Northwest, 680627, Singapore"
340 CLEMENTI AVENUE 5,340,CLEMENTI AVE 5,"1.3187075, 103.77011337552084"
317 HOUGANG AVENUE 7,317,HOUGANG AVE 7,"1.3652679, 103.89646425576294"
639 JURONG WEST STREET 61,639,JURONG WEST ST 61,"1.34064825, 103.69692810108376"
590A MONTREAL LINK,590A,MONTREAL LINK,"1.4502042, 103.82697699335108"
1 LORONG LEW LIAN,1,LOR LEW LIAN,"1.3508927499999999, 103.87532535"
413 YISHUN RING ROAD,413,YISHUN RING RD,"1.4251032, 103.846189"
19 BEDOK SOUTH ROAD,19,BEDOK STH RD,"1.3197332, 103.93427700216802"
107 BUKIT PURMEI ROAD,107,BT PURMEI RD,"1.27303935, 103.82470883725105"
290 CHOA CHU KANG AVENUE 3,290,CHOA CHU KANG AVE 3,"1.3789848, 103.74033844994584"
221 BOON LAY PLACE,221,BOON LAY PL,"1.3462734, 103.7124408"
64 KALLANG BAHRU,64,KALLANG BAHRU,"1.3205513, 103.86869877725644"
648 PUNGGOL CENTRAL,648,PUNGGOL CTRL,"1.3976882000000002, 103.91522417458296"
451B SENGKANG WEST WAY,451B,SENGKANG WEST WAY,"1.3943971, 103.8745027257213"
869 TAMPINES STREET 83,869,TAMPINES ST 83,"1.3545318499999999, 103.9337301212664"
667 CHOA CHU KANG CRESCENT,667,CHOA CHU KANG CRES,"Error: Road retrieved. Returned address Choa Chu Kang Crescent, Northwest, 689097, Singapore"
232 CHOA CHU KANG CENTRAL,232,CHOA CHU KANG CTRL,"1.3805345, 103.74705437350158"
28 BALAM ROAD,28,BALAM RD,"1.3305809499999999, 103.88649463136167"
313 UBI AVENUE 1,313,UBI AVE 1,"1.3291188, 103.90396421173426"
471 JURONG WEST STREET 41,471,JURONG WEST ST 41,"1.3486395, 103.72247861524127"
719 PASIR RIS STREET 72,719,PASIR RIS ST 72,"1.3820707, 103.93687345427091"
315 TAMPINES STREET 33,315,TAMPINES ST 33,"1.3522089, 103.95764100319589"
2 MARSILING DRIVE,2,MARSILING DR,"1.4399047, 103.7766987"
324 WOODLANDS STREET 32,324,WOODLANDS ST 32,"1.43120965, 103.77973967951019"
404 ANG MO KIO AVENUE 10,404,ANG MO KIO AVE 10,"1.3616764, 103.85471325851897"
110 BISHAN STREET 12,110,BISHAN ST 12,"Error: Road retrieved. Returned address Bishan Street 12, Bishan, Singapore, Central, 570139, Singapore"
515 PASIR RIS STREET 52,515,PASIR RIS ST 52,"1.37419445, 103.94288374639022"
640 YISHUN STREET 61,640,YISHUN ST 61,"1.4210268, 103.83867468956947"
240 PASIR RIS STREET 21,240,PASIR RIS ST 21,"1.3733554, 103.96273469445441"
602 ANG MO KIO AVENUE 5,602,ANG MO KIO AVE 5,"1.38048965, 103.83564598536688"
350 CLEMENTI AVENUE 2,350,CLEMENTI AVE 2,"1.3155999500000002, 103.77023635409591"
316 HOUGANG AVENUE 7,316,HOUGANG AVE 7,"1.3649958500000001, 103.89635692492303"
307 TAMPINES STREET 32,307,TAMPINES ST 32,"1.3528902, 103.95651892450904"
968 HOUGANG AVENUE 9,968,HOUGANG AVE 9,"Error: Road retrieved. Returned address Hougang Avenue 9, Hougang, Northeast, 538692, Singapore"
223 SERANGOON AVENUE 4,223,SERANGOON AVE 4,"1.3577742499999998, 103.8707064"
731 YISHUN STREET 72,731,YISHUN ST 72,"1.4283614, 103.8311154"
555 PASIR RIS STREET 51,555,PASIR RIS ST 51,"1.3680767, 103.9519102567437"
163B PUNGGOL CENTRAL,163B,PUNGGOL CTRL,"1.3957961, 103.9137536478768"
634 WOODLANDS RING ROAD,634,WOODLANDS RING RD,"Error: Road retrieved. Returned address Woodlands Ring Road, Woodlands, Northwest, 737890, Singapore"
856E TAMPINES STREET 82,856E,TAMPINES ST 82,"1.3528421499999999, 103.93881145933985"
893D WOODLANDS DRIVE 50,893D,WOODLANDS DR 50,"Error: Road retrieved. Returned address Woodlands Drive 50, Woodlands, Northwest, 738853, Singapore"
325 ANG MO KIO AVENUE 3,325,ANG MO KIO AVE 3,"Error: Road retrieved. Returned address Ang Mo Kio Avenue 3, Ang Mo Kio, Singapore, Central, 560564, Singapore"
121 KIM TIAN PLACE,121,KIM TIAN PL,"Error: Not Singapore. Returned address KIM, agiewnicka, Tarnogaj, Osiedle Tarnogaj, Wrocaw, wojewdztwo dolnolskie, 50-511, Polska"
556 JURONG WEST STREET 42,556,JURONG WEST ST 42,"1.3536595999999999, 103.7179151718472"
481 PASIR RIS DRIVE 4,481,PASIR RIS DR 4,"1.3740776000000001, 103.95884602004159"
717 PASIR RIS STREET 72,717,PASIR RIS ST 72,"1.38269865, 103.93651838071482"
140 SERANGOON NORTH AVENUE 2,140,SERANGOON NTH AVE 2,"1.3683432500000001, 103.87474197021183"
143 LORONG 2 TOA PAYOH,143,LOR 2 TOA PAYOH,"Error: Road retrieved. Returned address Lorong 2 Toa Payoh, Toa Payoh, Singapore, Central, 319640, Singapore"
806 YISHUN RING ROAD,806,YISHUN RING RD,"Error: Road retrieved. Returned address Yishun Ring Road, Yishun, Northwest, 760413, Singapore"
633A SENJA ROAD,633A,SENJA RD,"1.3855255, 103.7583192182019"
461 CHOA CHU KANG AVENUE 4,461,CHOA CHU KANG AVE 4,"1.3782077, 103.73464945220263"
10 PINE CLOSE,10,PINE CL,"1.3090684499999998, 103.88205223557198"
544 PASIR RIS STREET 51,544,PASIR RIS ST 51,"1.36906425, 103.95212585046889"
134 RIVERVALE STREET,134,RIVERVALE ST,"1.3879424999999999, 103.90485383953224"
299A TAMPINES STREET 22,299A,TAMPINES ST 22,"1.3501338999999999, 103.95437944559544"
166 TAMPINES STREET 12,166,TAMPINES ST 12,"1.34888685, 103.9467226473993"
945 TAMPINES AVENUE 4,945,TAMPINES AVE 4,"1.3510944, 103.94064859050289"
197 BISHAN STREET 13,197,BISHAN ST 13,"1.3486695, 103.85040065583134"
150 SILAT AVENUE,150,SILAT AVE,"1.277065, 103.8313476"
230 PENDING ROAD,230,PENDING RD,"Error: Road retrieved. Returned address Pending Road, Bukit Panjang, Northwest, 670129, Singapore"
547A SEGAR ROAD,547A,SEGAR RD,"1.38816045, 103.77002785690742"
445 HOUGANG AVENUE 8,445,HOUGANG AVE 8,"Error: Road retrieved. Returned address Hougang Avenue 8, Hougang, Northeast, 530631, Singapore"
360A ADMIRALTY DRIVE,360A,ADMIRALTY DR,"Error: Not Singapore. Returned address Admiralty Drive, Sunset Beach, Huntington Beach, Orange County, California, 92649, United States"
329B ANCHORVALE STREET,329B,ANCHORVALE ST,"1.3957725, 103.8894976"
370 TAMPINES STREET 34,370,TAMPINES ST 34,"1.35794215, 103.95939474702296"
786D WOODLANDS DRIVE 60,786D,WOODLANDS DR 60,"Error: Road retrieved. Returned address Woodlands Drive 60, Woodlands, Northwest, 731799, Singapore"
239 TAMPINES STREET 21,239,TAMPINES ST 21,"1.3547727, 103.94660753644652"
320B ANCHORVALE DRIVE,320B,ANCHORVALE DR,"1.39121695, 103.89077895465294"
326 YISHUN RING ROAD,326,YISHUN RING RD,"Error: Road retrieved. Returned address Yishun Ring Road, Yishun, Northwest, 760413, Singapore"
468C FERNVALE LINK,468C,FERNVALE LINK,"Error: Road retrieved. Returned address Fernvale Link, Fernvale, Central, 790470, Singapore"
153 SERANGOON NORTH AVENUE 1,153,SERANGOON NTH AVE 1,"1.3700677, 103.8727391"
296 TAMPINES STREET 22,296,TAMPINES ST 22,"1.3509693500000002, 103.95547965"
672 WOODLANDS DRIVE 71,672,WOODLANDS DR 71,"1.4395563999999998, 103.79981391786087"
61C STRATHMORE AVENUE,61C,STRATHMORE AVE,"Error: Not Singapore. Returned address 61, Strathmore Avenue, Buffalo, Erie County, New York, 14220, United States"
106A PUNGGOL FIELD,106A,PUNGGOL FIELD,"1.3967208, 103.90859402372688"
47 TELOK BLANGAH DRIVE,47,TELOK BLANGAH DR,"1.27204755, 103.8101808"
218 MARSILING CRESCENT,218,MARSILING CRES,"Error: Road retrieved. Returned address Marsiling Crescent, Woodlands, Northwest, 739148, Singapore"
951 HOUGANG AVENUE 9,951,HOUGANG AVE 9,"1.3754345, 103.87839829176005"
413 ANG MO KIO AVENUE 10,413,ANG MO KIO AVE 10,"Error: Road retrieved. Returned address Ang Mo Kio Avenue 10, Ang Mo Kio, Singapore, Central, 560449, Singapore"
9A BOON TIONG ROAD,9A,BOON TIONG RD,"Error: Road retrieved. Returned address Boon Tiong Road, Boon Tiong Aracadia, Bukit Merah, Singapore, Central, 163028, Singapore"
639 ROWELL ROAD,639,ROWELL RD,"Error: Not Singapore. Returned address 639, Rowell Road, Crawford County, Georgia, 31078, United States"
58 DAKOTA CRESCENT,58,DAKOTA CRES,"1.30745145, 103.88965680430088"
529 HOUGANG AVENUE 6,529,HOUGANG AVE 6,"Error: Road retrieved. Returned address Hougang Avenue 6, Hougang, Northeast, 538787, Singapore"
68 GEYLANG BAHRU,68,GEYLANG BAHRU,"1.3223922, 103.87000464581419"
65 MARINE DRIVE,65,MARINE DR,"1.3033773, 103.90973668696643"
312A SUMANG LINK,312A,SUMANG LINK,"1.4110086, 103.9003954"
144 RIVERVALE DRIVE,144,RIVERVALE DR,"Error: Not Singapore. Returned address Rivervale Drive, Santa Cruz County, California, 95073, United States"
834 TAMPINES STREET 82,834,TAMPINES ST 82,"Error: Road retrieved. Returned address Tampines Street 82, Tampines, Northeast, 529705, Singapore"
889A TAMPINES STREET 81,889A,TAMPINES ST 81,"1.34941325, 103.93136967085223"
139 POTONG PASIR AVENUE 3,139,POTONG PASIR AVE 3,"1.33322205, 103.86615291197967"
259A PUNGGOL FIELD,259A,PUNGGOL FIELD,"1.4039087499999998, 103.89567632920021"
161A PUNGGOL CENTRAL,161A,PUNGGOL CTRL,"1.3959923, 103.91500695825916"
304 CANBERRA ROAD,304,CANBERRA RD,"Error: Not Singapore. Returned address Canberra Road, London Borough of Newham, London, Greater London, England, E6 2RW, United Kingdom"
309A ANG MO KIO STREET 31,309A,ANG MO KIO ST 31,"Error: Road retrieved. Returned address Ang Mo Kio Street 31, Ang Mo Kio, Singapore, Central, 569839, Singapore"
118 BEDOK NORTH STREET 2,118,BEDOK NTH ST 2,"1.33043415, 103.93747685897436"
686B CHOA CHU KANG CRESCENT,686B,CHOA CHU KANG CRES,"Error: Road retrieved. Returned address Choa Chu Kang Crescent, Northwest, 689097, Singapore"
907 JURONG WEST STREET 91,907,JURONG WEST ST 91,"1.34099045, 103.68606168256952"
313A SUMANG LINK,313A,SUMANG LINK,"1.40987365, 103.90177842023417"
651 YISHUN AVENUE 4,651,YISHUN AVE 4,"Error: Road retrieved. Returned address Yishun Avenue 4, Yishun, Northwest, 761672, Singapore"
721 BEDOK RESERVOIR ROAD,721,BEDOK RESERVOIR RD,"1.33634465, 103.92628781557107"
49 LORONG 5 TOA PAYOH,49,LOR 5 TOA PAYOH,"Error: Road retrieved. Returned address Lorong 5 Toa Payoh, Toa Payoh, Singapore, Central, 310034, Singapore"
336 ANG MO KIO AVENUE 1,336,ANG MO KIO AVE 1,"1.36356965, 103.8518769461939"
688B CHOA CHU KANG DRIVE,688B,CHOA CHU KANG DR,"Error: Road retrieved. Returned address Choa Chu Kang Drive, Choa Chu Kang, Southwest, 689717, Singapore"
856 JURONG WEST STREET 81,856,JURONG WEST ST 81,"1.34714015, 103.69665849918026"
921 JURONG WEST STREET 92,921,JURONG WEST ST 92,"1.33960345, 103.68891800305732"
251 TAMPINES STREET 21,251,TAMPINES ST 21,"1.352862, 103.9485369"
141 LORONG 2 TOA PAYOH,141,LOR 2 TOA PAYOH,"1.3357321500000001, 103.84582731792119"
549 WOODLANDS DRIVE 44,549,WOODLANDS DR 44,"Error: Road retrieved. Returned address Woodlands Drive 44, Vista Point, Woodlands, Northwest, 730548, Singapore"
315 WOODLANDS STREET 31,315,WOODLANDS ST 31,"1.4314531000000001, 103.77588529411872"
116 BUKIT MERAH VIEW,116,BT MERAH VIEW,"1.28484785, 103.82127568553143"
408A FERNVALE ROAD,408A,FERNVALE RD,"1.38875475, 103.87621417748628"
415 ANG MO KIO AVENUE 10,415,ANG MO KIO AVE 10,"Error: Road retrieved. Returned address Ang Mo Kio Avenue 10, Ang Mo Kio, Singapore, Central, 560449, Singapore"
467 ANG MO KIO AVENUE 10,467,ANG MO KIO AVE 10,"1.3653901, 103.85681629999999"
237 CHOA CHU KANG CENTRAL,237,CHOA CHU KANG CTRL,"1.3792981, 103.74849343398212"
162 BUKIT BATOK STREET 11,162,BT BATOK ST 11,"Error: Road retrieved. Returned address Bukit Batok Street 11, Bukit Batok, Southwest, 659674, Singapore"
42 CAMBRIDGE ROAD,42,CAMBRIDGE RD,"Error: Not Singapore. Returned address 42, Cambridge Road, Harmony, Cambridge, Somerset County, Maine, 04942, United States"
