address,block,street_name,lat_long
60 NEW UPPER CHANGI ROAD,60,NEW UPP CHANGI RD,"1.32246505, 103.94128680809197"
527A PASIR RIS STREET 51,527A,PASIR RIS ST 51,"1.3685065, 103.9476750845024"
104 POTONG PASIR AVENUE 1,104,POTONG PASIR AVE 1,"1.3343561, 103.86927341870927"
120 POTONG PASIR AVENUE 1,120,POTONG PASIR AVE 1,"1.3356386, 103.86346228641372"
557 ANG MO KIO AVENUE 10,557,ANG MO KIO AVE 10,"Error: Road retrieved. Returned address Ang Mo Kio Avenue 10, Ang Mo Kio, Singapore, Central, 560449, Singapore"
130 BISHAN STREET 12,130,BISHAN ST 12,"1.3458811000000002, 103.85105799651515"
144 SERANGOON NORTH AVENUE 1,144,SERANGOON NTH AVE 1,"1.36778505, 103.87304748955358"
843 TAMPINES STREET 83,843,TAMPINES ST 83,"1.3519689499999998, 103.93443682797769"
368 WOODLANDS AVENUE 1,368,WOODLANDS AVE 1,"1.4328720499999998, 103.78673695819816"
307 BUKIT BATOK STREET 31,307,BT BATOK ST 31,"1.35818755, 103.74813444924027"
188 PUNGGOL CENTRAL,188,PUNGGOL CTRL,"Error: Road retrieved. Returned address Punggol Central, Punggol, Northeast, 821256, Singapore"
322 TAMPINES STREET 33,322,TAMPINES ST 33,"1.3510776, 103.95834746650957"
681B WOODLANDS DRIVE 62,681B,WOODLANDS DR 62,"1.4394114, 103.80337119598012"
615 YISHUN RING ROAD,615,YISHUN RING RD,"Error: Road retrieved. Returned address Yishun Ring Road, Yishun, Northwest, 760413, Singapore"
55 CHAI CHEE DRIVE,55,CHAI CHEE DR,"1.3267231, 103.91906"
67 TELOK BLANGAH DRIVE,67,TELOK BLANGAH DR,"1.27466215, 103.8097513958815"
184 JELEBU ROAD,184,JELEBU RD,"1.3796827, 103.76247403311073"
632 JURONG WEST STREET 65,632,JURONG WEST ST 65,"1.3438159, 103.6996690698166"
442 PASIR RIS DRIVE 6,442,PASIR RIS DR 6,"1.3691126, 103.9574055"
166B PUNGGOL CENTRAL,166B,PUNGGOL CTRL,"Error: Road retrieved. Returned address Punggol Central, Punggol, Northeast, 821256, Singapore"
240 HOUGANG STREET 22,240,HOUGANG ST 22,"Error: Road retrieved. Returned address Hougang Street 22, Hougang, Northeast, 530110, Singapore"
102D PUNGGOL FIELD,102D,PUNGGOL FIELD,"Error: Road retrieved. Returned address Punggol Field, Punggol Cove, Punggol, Northeast, 820198, Singapore"
860 TAMPINES AVENUE 5,860,TAMPINES AVE 5,"1.3554435, 103.93789079999999"
234 LORONG 8 TOA PAYOH,234,LOR 8 TOA PAYOH,"1.3385962999999999, 103.85796515002633"
247 PASIR RIS STREET 21,247,PASIR RIS ST 21,"1.3706771, 103.96253684999999"
688F WOODLANDS DRIVE 75,688F,WOODLANDS DR 75,NONE
79 BEDOK NORTH ROAD,79,BEDOK NTH RD,"1.3276805, 103.9408365248265"
665B JURONG WEST STREET 64,665B,JURONG WEST ST 64,"1.3398316000000001, 103.70301066742303"
200D SENGKANG EAST ROAD,200D,SENGKANG EAST RD,"1.3872037000000002, 103.89319196474028"
59 LORONG 5 TOA PAYOH,59,LOR 5 TOA PAYOH,"1.3367381, 103.8517942"
226 PENDING ROAD,226,PENDING RD,"Error: Road retrieved. Returned address Pending Road, Bukit Panjang, Northwest, 670129, Singapore"
162 SIMEI ROAD,162,SIMEI RD,"1.3454689, 103.95975739186034"
347 WOODLANDS AVENUE 3,347,WOODLANDS AVE 3,"1.43316715, 103.78160790000001"
411 PASIR RIS DRIVE 6,411,PASIR RIS DR 6,"1.37255095, 103.95447476018961"
136 POTONG PASIR AVENUE 3,136,POTONG PASIR AVE 3,"1.3340703999999999, 103.86667696623523"
134 ANG MO KIO AVENUE 3,134,ANG MO KIO AVE 3,"Error: Road retrieved. Returned address Ang Mo Kio Avenue 3, Ang Mo Kio, Singapore, Central, 560564, Singapore"
341 BUKIT BATOK STREET 34,341,BT BATOK ST 34,"1.3627726999999998, 103.74918341001353"
410 BUKIT BATOK WEST AVENUE 4,410,BT BATOK WEST AVE 4,"1.36443175, 103.74503763541286"
426 BEDOK NORTH ROAD,426,BEDOK NTH RD,"1.32977185, 103.92899194195202"
179 BUKIT BATOK WEST AVENUE 8,179,BT BATOK WEST AVE 8,"1.3457329, 103.74224702100592"
37 TELOK BLANGAH RISE,37,TELOK BLANGAH RISE,"1.27270945, 103.82287261381866"
183 JELEBU ROAD,183,JELEBU RD,"Error: Road retrieved. Returned address Jelebu Road, Bukit Panjang, Northwest, 677743, Singapore"
447 CHOA CHU KANG AVENUE 4,447,CHOA CHU KANG AVE 4,"1.38062925, 103.73757130808112"
911 HOUGANG STREET 91,911,HOUGANG ST 91,"1.3790852, 103.8840178"
709 PASIR RIS DRIVE 10,709,PASIR RIS DR 10,"1.38168355, 103.93853337006175"
535 PASIR RIS DRIVE 1,535,PASIR RIS DR 1,"1.3705197999999998, 103.95018598999553"
629 YISHUN STREET 61,629,YISHUN ST 61,"Error: Road retrieved. Returned address Yishun Street 61, Nee Soon Central Meadows, Yishun, Northwest, 768548, Singapore"
611 YISHUN STREET 61,611,YISHUN ST 61,"1.42016915, 103.83595516211429"
117 ANG MO KIO AVENUE 4,117,ANG MO KIO AVE 4,"Error: Road retrieved. Returned address Ang Mo Kio Avenue 4, Ang Mo Kio, Singapore, Central, 568987, Singapore"
421 CLEMENTI AVENUE 1,421,CLEMENTI AVE 1,"1.3091734, 103.76862939589667"
349 UBI AVENUE 1,349,UBI AVE 1,"1.3258043000000002, 103.90054473558021"
701 HOUGANG AVENUE 2,701,HOUGANG AVE 2,"Error: Road retrieved. Returned address Hougang Avenue 2, Hougang, Northeast, 530631, Singapore"
927 TAMPINES STREET 91,927,TAMPINES ST 91,"1.34629975, 103.94044950074186"
254 TAMPINES STREET 21,254,TAMPINES ST 21,"1.35295305, 103.94936484227733"
227 PENDING ROAD,227,PENDING RD,"Error: Road retrieved. Returned address Pending Road, Bukit Panjang, Northwest, 670129, Singapore"
32 TEBAN GARDENS ROAD,32,TEBAN GDNS RD,"1.3218402, 103.7398465644576"
179 YUNG SHENG ROAD,179,YUNG SHENG RD,"1.3337791, 103.72081444922381"
91 BEDOK NORTH STREET 4,91,BEDOK NTH ST 4,"Error: Road retrieved. Returned address Bedok North Street 4, Bedok, Southeast, 460097, Singapore"
330 JURONG EAST AVENUE 1,330,JURONG EAST AVE 1,"1.3505444999999998, 103.73008157603886"
329 TAH CHING ROAD,329,TAH CHING RD,"1.3375108999999998, 103.72386456427346"
184 EDGEFIELD PLAINS,184,EDGEFIELD PLAINS,"Error: Road retrieved. Returned address Edgefield Plains, Punggol, Northeast, 828850, Singapore"
17A CIRCUIT ROAD,17A,CIRCUIT RD,"1.3298619500000002, 103.88817191778736"
127 TAMPINES STREET 11,127,TAMPINES ST 11,"1.3454951, 103.95073009393661"
396 TAMPINES AVENUE 7,396,TAMPINES AVE 7,"1.3556914, 103.95646645"
308 TAMPINES STREET 32,308,TAMPINES ST 32,"1.35295845, 103.95690611248165"
16 JOO SENG ROAD,16,JOO SENG RD,"1.3364774, 103.88040342745782"
86 LORONG 2 TOA PAYOH,86,LOR 2 TOA PAYOH,"1.3357348, 103.84765634809614"
129 MARSILING RISE,129,MARSILING RISE,"Error: Road retrieved. Returned address Marsiling Rise, Woodlands, Northwest, 738099, Singapore"
237 SERANGOON AVENUE 3,237,SERANGOON AVE 3,"1.3541311999999999, 103.87025658648464"
77A REDHILL ROAD,77A,REDHILL RD,"Error: Not Singapore. Returned address Redhill Road, Redhill, Arnold, Gedling, Nottinghamshire, East Midlands, England, NG5 8HB, United Kingdom"
151 SERANGOON NORTH AVENUE 2,151,SERANGOON NTH AVE 2,"1.3693772, 103.8743758"
248 BISHAN STREET 22,248,BISHAN ST 22,"1.3613719999999998, 103.84327360162757"
305 UBI AVENUE 1,305,UBI AVE 1,"1.3294804, 103.90234809805258"
318 HOUGANG AVENUE 5,318,HOUGANG AVE 5,"1.3656783, 103.89621957425688"
15 UPPER BOON KENG ROAD,15,UPP BOON KENG RD,"1.315865, 103.87131915"
4B SAINT GEORGE'S LANE,4B,ST. GEORGE'S LANE,"1.3222838000000001, 103.86017355850971"
291 TAMPINES STREET 22,291,TAMPINES ST 22,"1.3500002, 103.95517740012788"
524B TAMPINES CENTRAL 7,524B,TAMPINES CTRL 7,"1.3589581, 103.93877278186508"
836 TAMPINES STREET 82,836,TAMPINES ST 82,"1.3505402, 103.93523205588082"
200 TOA PAYOH NORTH,200,TOA PAYOH NTH,"1.34132035, 103.8510918798568"
313 WOODLANDS STREET 31,313,WOODLANDS ST 31,"1.4308008499999998, 103.77617887375821"
428B YISHUN AVENUE 11,428B,YISHUN AVE 11,"1.4221285, 103.84735265195346"
437 YISHUN AVENUE 6,437,YISHUN AVE 6,"Error: Road retrieved. Returned address Yishun Avenue 6, Yishun, Northwest, 760406, Singapore"
120C RIVERVALE DRIVE,120C,RIVERVALE DR,"Error: Not Singapore. Returned address Rivervale Drive, Santa Cruz County, California, 95073, United States"
108 BISHAN STREET 12,108,BISHAN ST 12,"Error: Road retrieved. Returned address Bishan Street 12, Bishan, Singapore, Central, 570139, Singapore"
149 RIVERVALE CRESCENT,149,RIVERVALE CRES,"Error: Road retrieved. Returned address Rivervale Crescent, Seng Kang, Northeast, 540151, Singapore"
719 TAMPINES STREET 72,719,TAMPINES ST 72,"1.3589352, 103.93615342100534"
613 WOODLANDS AVENUE 4,613,WOODLANDS AVE 4,"Error: Road retrieved. Returned address Woodlands Avenue 4, Woodlands, Northwest, 738908, Singapore"
374 TAMPINES STREET 34,374,TAMPINES ST 34,"1.3563839, 103.95861777635675"
259 BISHAN STREET 22,259,BISHAN ST 22,"Error: Road retrieved. Returned address Bishan Street 22, Bishan, Singapore, Central, 570282, Singapore"
484 CHOA CHU KANG AVENUE 5,484,CHOA CHU KANG AVE 5,"1.3764143500000001, 103.73720165904435"
227 LORONG 8 TOA PAYOH,227,LOR 8 TOA PAYOH,"1.339509, 103.85798557468289"
456 CLEMENTI AVENUE 3,456,CLEMENTI AVE 3,"1.3119325000000002, 103.76705541231014"
472 PASIR RIS DRIVE 6,472,PASIR RIS DR 6,"1.3741917, 103.95731785038265"
493D TAMPINES STREET 43,493D,TAMPINES ST 43,"1.3623623999999999, 103.95130046278126"
11 CHAI CHEE ROAD,11,CHAI CHEE RD,"1.3269030000000002, 103.92490985845996"
291B COMPASSVALE STREET,291B,COMPASSVALE ST,"1.3959234500000002, 103.89843629171219"
867 WOODLANDS STREET 83,867,WOODLANDS ST 83,"Error: Road retrieved. Returned address Woodlands Street 83, Woodlands, Northwest, 738489, Singapore"
213 BEDOK NORTH STREET 1,213,BEDOK NTH ST 1,"1.3263698, 103.9330211"
18C CIRCUIT ROAD,18C,CIRCUIT RD,"1.32927185, 103.88905615912613"
855 JURONG WEST STREET 81,855,JURONG WEST ST 81,"1.3469356499999998, 103.6961188705414"
676B PUNGGOL DRIVE,676B,PUNGGOL DR,"1.4049388, 103.91040860702164"
523 HOUGANG AVENUE 6,523,HOUGANG AVE 6,"Error: Road retrieved. Returned address Hougang Avenue 6, Hougang, Northeast, 538787, Singapore"
508 SERANGOON NORTH AVENUE 4,508,SERANGOON NTH AVE 4,"1.3719002, 103.8757080954708"
748B BEDOK RESERVOIR CRESCENT,748B,BEDOK RESERVOIR CRES,"1.3362955, 103.92124589531625"
122 BUKIT BATOK CENTRAL,122,BT BATOK CTRL,"1.3519288999999999, 103.74714012483932"
510 JELAPANG ROAD,510,JELAPANG RD,"Error: Road retrieved. Returned address Jelapang Road, Bukit Panjang, Northwest, 671524, Singapore"
115 HOUGANG AVENUE 1,115,HOUGANG AVE 1,"Error: Road retrieved. Returned address Hougang Avenue 1, Hougang, Northeast, 530110, Singapore"
237 HOUGANG STREET 21,237,HOUGANG ST 21,"Error: Road retrieved. Returned address Hougang Street 21, Hougang, Northeast, 530211, Singapore"
315 JURONG EAST STREET 32,315,JURONG EAST ST 32,"1.3461490999999999, 103.7329979215512"
89 TANGLIN HALT ROAD,89,TANGLIN HALT RD,"1.30118995, 103.79892899734304"
59 STRATHMORE AVENUE,59,STRATHMORE AVE,"Error: Not Singapore. Returned address 59, Strathmore Avenue, Buffalo, Erie County, New York, 14220, United States"
440B FERNVALE LINK,440B,FERNVALE LINK,"1.39338965, 103.87819436651608"
404B FERNVALE LANE,404B,FERNVALE LANE,"1.3882662, 103.87348985506581"
348B YISHUN AVENUE 11,348B,YISHUN AVE 11,"1.4273101000000001, 103.84172060693251"
417 BUKIT BATOK WEST AVENUE 4,417,BT BATOK WEST AVE 4,"1.3628730500000001, 103.74633805376712"
416 BUKIT BATOK WEST AVENUE 4,416,BT BATOK WEST AVE 4,"1.3632089, 103.7460274192187"
315 UBI AVENUE 1,315,UBI AVE 1,"1.32926925, 103.90315893767725"
728 JURONG WEST AVENUE 5,728,JURONG WEST AVE 5,"1.3461364, 103.6974234"
660C JURONG WEST STREET 64,660C,JURONG WEST ST 64,"1.33664455, 103.7038370540613"
9 BOON KENG ROAD,9,BOON KENG RD,"1.31605155, 103.86133085459377"
547 SERANGOON NORTH AVENUE 3,547,SERANGOON NTH AVE 3,"1.3739139, 103.87038257255855"
775 YISHUN RING ROAD,775,YISHUN RING RD,"Error: Road retrieved. Returned address Yishun Ring Road, Yishun, Northwest, 760413, Singapore"
13 JALAN BUKIT MERAH,13,JLN BT MERAH,"Error: Road retrieved. Returned address Jalan Bukit Merah, Radin Mas, Bukit Merah, Singapore, Central, 169545, Singapore"
456 SEGAR ROAD,456,SEGAR RD,"Error: Road retrieved. Returned address Segar Road, Bukit Panjang, Northwest, 677738, Singapore"
240 BUKIT PANJANG RING ROAD,240,BT PANJANG RING RD,"1.37930945, 103.77124385421334"
311C ANCHORVALE LANE,311C,ANCHORVALE LANE,"1.3915909000000002, 103.88458162322092"
402 SERANGOON AVENUE 1,402,SERANGOON AVE 1,"1.34666955, 103.87292023692886"
35 MARSILING DRIVE,35,MARSILING DR,"Error: Road retrieved. Returned address Marsiling Drive, Woodlands, Northwest, 731007, Singapore"
707 YISHUN AVENUE 5,707,YISHUN AVE 5,"1.4289375500000001, 103.82777329999999"
753 YISHUN STREET 72,753,YISHUN ST 72,"1.42699055, 103.83467495781329"
526 BUKIT BATOK STREET 51,526,BT BATOK ST 51,"1.3571426, 103.75108494121869"
436C FERNVALE ROAD,436C,FERNVALE RD,"1.39233145, 103.87696169399543"
626 BUKIT BATOK CENTRAL,626,BT BATOK CTRL,"1.35173125, 103.74900979722221"
132 JALAN BUKIT MERAH,132,JLN BT MERAH,"Error: Road retrieved. Returned address Jalan Bukit Merah, Radin Mas, Bukit Merah, Singapore, Central, 169545, Singapore"
203 PETIR ROAD,203,PETIR RD,"1.37282855, 103.7756654984793"
64 CIRCUIT ROAD,64,CIRCUIT RD,"1.3269716, 103.88716914964688"
666A JURONG WEST STREET 65,666A,JURONG WEST ST 65,"1.33967635, 103.70167341635488"
615 WOODLANDS AVENUE 4,615,WOODLANDS AVE 4,"Error: Road retrieved. Returned address Woodlands Avenue 4, Woodlands, Northwest, 738908, Singapore"
519 WOODLANDS DRIVE 14,519,WOODLANDS DR 14,"Error: Road retrieved. Returned address Woodlands Drive 14, Fragrant Woods, Woodlands, Northwest, 738079, Singapore"
887B WOODLANDS DRIVE 50,887B,WOODLANDS DR 50,"1.4371155, 103.79419450464344"
57 TEBAN GARDENS ROAD,57,TEBAN GDNS RD,"1.322605, 103.73769846049242"
619C PUNGGOL DRIVE,619C,PUNGGOL DR,"1.4024641999999998, 103.91072714662886"
541 WOODLANDS DRIVE 16,541,WOODLANDS DR 16,"Error: Road retrieved. Returned address Woodlands Drive 16, Woodlands, Northwest, 730548, Singapore"
323 WOODLANDS STREET 32,323,WOODLANDS ST 32,"1.4311203, 103.77913129999999"
240 BUKIT BATOK EAST AVENUE 5,240,BT BATOK EAST AVE 5,"1.35063565, 103.75398017867127"
7 PINE CLOSE,7,PINE CL,"Error: Not Singapore. Returned address 3,7, Pine Close, Eaton, Norwich, Norfolk, East of England, England, NR4 7PU, United Kingdom"
771 YISHUN AVENUE 3,771,YISHUN AVE 3,"1.4240134, 103.83259239908212"
870A TAMPINES STREET 86,870A,TAMPINES ST 86,"1.35611025, 103.93169200052458"
274B PUNGGOL PLACE,274B,PUNGGOL PL,"1.4031223499999999, 103.90252830154513"
25 CHAI CHEE ROAD,25,CHAI CHEE RD,"1.32373105, 103.92413737041167"
85C LORONG 4 TOA PAYOH,85C,LOR 4 TOA PAYOH,"Error: Road retrieved. Returned address Lorong 4 Toa Payoh, Toa Payoh, Singapore, Central, 319194, Singapore"
988B BUANGKOK GREEN,988B,BUANGKOK GREEN,"1.3799491499999998, 103.87730347014951"
30A HOLLAND CLOSE,30A,HOLLAND CL,"1.3074640999999998, 103.79722417496588"
114 SERANGOON NORTH AVENUE 1,114,SERANGOON NTH AVE 1,"1.3688403, 103.87150382026078"
678 WOODLANDS AVENUE 6,678,WOODLANDS AVE 6,"Error: Road retrieved. Returned address Woodlands Avenue 6, Woodlands, Northwest, 730678, Singapore"
773 WOODLANDS DRIVE 60,773,WOODLANDS DR 60,"Error: Road retrieved. Returned address Woodlands Drive 60, Woodlands, Northwest, 731799, Singapore"
680 CHOA CHU KANG CRESCENT,680,CHOA CHU KANG CRES,"Error: Road retrieved. Returned address Choa Chu Kang Crescent, Northwest, 689097, Singapore"
306 JURONG EAST STREET 32,306,JURONG EAST ST 32,"1.34590695, 103.73561353446439"
120 HO CHING ROAD,120,HO CHING RD,"1.3351429000000001, 103.72392421066033"
411A FERNVALE ROAD,411A,FERNVALE RD,"1.3905576499999999, 103.87686361562113"
25 TECK WHYE LANE,25,TECK WHYE LANE,"1.3779575, 103.7551673"
412 PANDAN GARDENS,412,PANDAN GDNS,"1.31958995, 103.74708980576406"
207 SERANGOON CENTRAL,207,SERANGOON CTRL,"1.3541647499999998, 103.87324921425248"
244 SERANGOON AVENUE 2,244,SERANGOON AVE 2,"1.3524992, 103.86874765"
871A TAMPINES STREET 84,871A,TAMPINES ST 84,"1.3544478500000001, 103.93181177239137"
617 WOODLANDS AVENUE 4,617,WOODLANDS AVE 4,"Error: Road retrieved. Returned address Woodlands Avenue 4, Woodlands, Northwest, 738908, Singapore"
939 HOUGANG STREET 92,939,HOUGANG ST 92,"1.3739532, 103.87956667368238"
32 MARSILING DRIVE,32,MARSILING DR,"1.44334905, 103.77294367377638"
111 LENGKONG TIGA,111,LENGKONG TIGA,"1.32412675, 103.91125753829999"
154 SERANGOON NORTH AVENUE 1,154,SERANGOON NTH AVE 1,"1.3697735, 103.8734838"
746 YISHUN STREET 72,746,YISHUN ST 72,"Error: Road retrieved. Returned address Yishun Street 72, Yishun, Northwest, 760731, Singapore"
150 BEDOK RESERVOIR ROAD,150,BEDOK RESERVOIR RD,"1.3360424, 103.91249110541088"
128 BISHAN STREET 12,128,BISHAN ST 12,"1.3460955499999998, 103.85046527739806"
295 PUNGGOL CENTRAL,295,PUNGGOL CTRL,"Error: Road retrieved. Returned address Punggol Central, Punggol, Northeast, 821256, Singapore"
352 UBI AVENUE 1,352,UBI AVE 1,"1.3252424, 103.89957904618839"
974 HOUGANG STREET 91,974,HOUGANG ST 91,"1.3776662499999999, 103.8793728501035"
408B FERNVALE ROAD,408B,FERNVALE RD,"1.38909795, 103.87598191925193"
255 SERANGOON CENTRAL DRIVE,255,SERANGOON CTRL DR,"Error: Road retrieved. Returned address Serangoon Central Drive, Serangoon, Southeast, 550261, Singapore"
913 HOUGANG STREET 91,913,HOUGANG ST 91,"Error: Road retrieved. Returned address Hougang Street 91, Hougang, Northeast, 530920, Singapore"
203 PASIR RIS STREET 21,203,PASIR RIS ST 21,"1.3670647, 103.96198706994619"
309 CANBERRA ROAD,309,CANBERRA RD,"Error: Not Singapore. Returned address Canberra Road, London Borough of Newham, London, Greater London, England, E6 2RW, United Kingdom"
334 SEMBAWANG CLOSE,334,SEMBAWANG CL,"Error: Road retrieved. Returned address Sembawang Close, Sun Trellis, Sembawang, Northwest, 750333, Singapore"
385 BUKIT BATOK WEST AVENUE 5,385,BT BATOK WEST AVE 5,"1.3634392, 103.75224972032375"
250B COMPASSVALE STREET,250B,COMPASSVALE ST,"Error: Road retrieved. Returned address Compassvale Street, Seng Kang, Northeast, 540294, Singapore"
385 TAMPINES STREET 32,385,TAMPINES ST 32,"1.35484855, 103.95872785"
435 YISHUN AVENUE 6,435,YISHUN AVE 6,"Error: Road retrieved. Returned address Yishun Avenue 6, Yishun, Northwest, 760406, Singapore"
662 CHOA CHU KANG CRESCENT,662,CHOA CHU KANG CRES,"Error: Road retrieved. Returned address Choa Chu Kang Crescent, Northwest, 689097, Singapore"
724 WOODLANDS AVENUE 6,724,WOODLANDS AVE 6,"Error: Road retrieved. Returned address Woodlands Avenue 6, Woodlands, Northwest, 737858, Singapore"
529 BEDOK NORTH STREET 3,529,BEDOK NTH ST 3,"1.3342791, 103.92645094756377"
504 JELAPANG ROAD,504,JELAPANG RD,"Error: Road retrieved. Returned address Jelapang Road, Bukit Panjang, Northwest, 671524, Singapore"
418 HOUGANG AVENUE 8,418,HOUGANG AVE 8,"Error: Road retrieved. Returned address Hougang Avenue 8, Hougang, Northeast, 530631, Singapore"
663A JURONG WEST STREET 65,663A,JURONG WEST ST 65,"1.3386935000000002, 103.70192807149823"
165B PUNGGOL CENTRAL,165B,PUNGGOL CTRL,"1.39529885, 103.91442588956058"
868A TAMPINES AVENUE 8,868A,TAMPINES AVE 8,"1.35553745, 103.93254905576691"
606 ANG MO KIO AVENUE 5,606,ANG MO KIO AVE 5,"1.37934235, 103.83673565324887"
602 BEDOK RESERVOIR ROAD,602,BEDOK RESERVOIR RD,"1.3293944, 103.91173370354129"
147 GANGSA ROAD,147,GANGSA RD,"Error: Road retrieved. Returned address Gangsa Road, Bukit Panjang, Northwest, 679002, Singapore"
618 CHOA CHU KANG NORTH 7,618,CHOA CHU KANG NTH 7,"Error: Road retrieved. Returned address Choa Chu Kang North 7, Northwest, 681672, Singapore"
261D SENGKANG EAST WAY,261D,SENGKANG EAST WAY,"1.39379875, 103.8948887408663"
334D YISHUN STREET 31,334D,YISHUN ST 31,"1.4324192, 103.84653095514706"
432C YISHUN AVENUE 1,432C,YISHUN AVE 1,"Error: Road retrieved. Returned address Yishun Avenue 1, Yishun, Northwest, 763476, Singapore"
7 JALAN BATU,7,JLN BATU,"1.3021372, 103.8836242"
712 WOODLANDS DRIVE 70,712,WOODLANDS DR 70,"Error: Road retrieved. Returned address Woodlands Drive 70, Woodlands, Northwest, 730676, Singapore"
46 SENG POH ROAD,46,SENG POH RD,"Error: Road retrieved. Returned address Seng Poh Road, Bukit Merah, Singapore, Central, 168895, Singapore"
226A COMPASSVALE WALK,226A,COMPASSVALE WALK,"1.3875243, 103.8997868899286"
448 TAMPINES STREET 42,448,TAMPINES ST 42,"1.3573629, 103.9510435207317"
117 POTONG PASIR AVENUE 1,117,POTONG PASIR AVE 1,"1.336216, 103.86306060840828"
420 TAMPINES STREET 41,420,TAMPINES ST 41,"1.3578538500000001, 103.94755234985514"
487A TAMPINES AVENUE 9,487A,TAMPINES AVE 9,"1.35951515, 103.95783128232671"
202 ANG MO KIO AVENUE 3,202,ANG MO KIO AVE 3,"Error: Road retrieved. Returned address Ang Mo Kio Avenue 3, Ang Mo Kio, Singapore, Central, 560202, Singapore"
318A ANCHORVALE LINK,318A,ANCHORVALE LINK,"1.39383075, 103.88973556573262"
212A COMPASSVALE DRIVE,212A,COMPASSVALE DR,"Error: Road retrieved. Returned address Compassvale Drive, Seng Kang, Northeast, 544749, Singapore"
120 SERANGOON NORTH AVENUE 1,120,SERANGOON NTH AVE 1,"1.3672461500000002, 103.87107957486339"
349 TAMPINES STREET 33,349,TAMPINES ST 33,"1.3534633, 103.96298463428428"
944 TAMPINES AVENUE 5,944,TAMPINES AVE 5,"1.3506509, 103.94088870239034"
276 YISHUN STREET 22,276,YISHUN ST 22,"1.43790005, 103.8380928"
668A EDGEFIELD PLAINS,668A,EDGEFIELD PLAINS,"1.4050196499999998, 103.91271098933916"
73 TELOK BLANGAH HEIGHTS,73,TELOK BLANGAH HTS,"1.2757389, 103.80927229876477"
678B JURONG WEST STREET 64,678B,JURONG WEST ST 64,"1.3451222, 103.70390404467557"
202 CLEMENTI AVENUE 6,202,CLEMENTI AVE 6,"Error: Road retrieved. Returned address Clementi Avenue 6, Clementi, Southwest, 120204, Singapore"
96 ALJUNIED CRESCENT,96,ALJUNIED CRES,"1.3216518499999999, 103.88543851297909"
216 LORONG 8 TOA PAYOH,216,LOR 8 TOA PAYOH,"Error: Road retrieved. Returned address Lorong 8 Toa Payoh, Toa Payoh, Singapore, Central, 310229, Singapore"
652A JURONG WEST STREET 61,652A,JURONG WEST ST 61,"1.3366668, 103.69849956305453"
281 CHOA CHU KANG AVENUE 3,281,CHOA CHU KANG AVE 3,"1.3804557499999999, 103.74249592499021"
301B PUNGGOL CENTRAL,301B,PUNGGOL CTRL,"1.4042843999999999, 103.9058762"
1 CHAI CHEE ROAD,1,CHAI CHEE RD,"1.32802795, 103.92220408106277"
235 BUKIT BATOK EAST AVENUE 5,235,BT BATOK EAST AVE 5,"1.3486848, 103.7561521"
454 CLEMENTI AVENUE 3,454,CLEMENTI AVE 3,"1.3122497000000002, 103.76645934115027"
311A CLEMENTI AVENUE 4,311A,CLEMENTI AVE 4,"1.3190035, 103.7656917946758"
421 JURONG WEST STREET 42,421,JURONG WEST ST 42,"1.3502477499999999, 103.72716285"
39 UPPER BOON KENG ROAD,39,UPP BOON KENG RD,"1.3187280000000001, 103.8742423607021"
59 MARINE TERRACE,59,MARINE TER,"1.305812, 103.9147678"
208 PASIR RIS STREET 21,208,PASIR RIS ST 21,"1.3662779999999999, 103.96190701399215"
168D PUNGGOL FIELD,168D,PUNGGOL FIELD,"Error: Road retrieved. Returned address Punggol Field, Punggol Cove, Punggol, Northeast, 820198, Singapore"
211C COMPASSVALE LANE,211C,COMPASSVALE LANE,"1.38526315, 103.89918960780244"
272C SENGKANG CENTRAL,272C,SENGKANG CTRL,"1.3844132, 103.89372098700582"
432A YISHUN AVENUE 1,432A,YISHUN AVE 1,"Error: Road retrieved. Returned address Yishun Avenue 1, Yishun, Northwest, 763476, Singapore"
452 YISHUN RING ROAD,452,YISHUN RING RD,"Error: Road retrieved. Returned address Yishun Ring Road, Yishun, Northwest, 760413, Singapore"
126C KIM TIAN ROAD,126C,KIM TIAN RD,"1.2823189, 103.82929280211113"
280 TOH GUAN ROAD,280,TOH GUAN RD,"1.3404281, 103.74733648585308"
92 DAWSON ROAD,92,DAWSON RD,"Error: Not Singapore. Returned address Dawson Road, Dawson, Shelby County, Ohio, 45845, United States"
317B ANCHORVALE ROAD,317B,ANCHORVALE RD,"1.3939634, 103.88854237305141"
702 CHOA CHU KANG STREET 53,702,CHOA CHU KANG ST 53,"Error: Road retrieved. Returned address Choa Chu Kang Street 53, Northwest, 689189, Singapore"
659 WOODLANDS RING ROAD,659,WOODLANDS RING RD,"1.4358791499999999, 103.79909022298473"
223 YISHUN STREET 21,223,YISHUN ST 21,"Error: Road retrieved. Returned address Yishun Street 21, Yishun, Northwest, 768610, Singapore"
321 SEMBAWANG CLOSE,321,SEMBAWANG CL,"1.4460923, 103.81857729788084"
216 CHOA CHU KANG CENTRAL,216,CHOA CHU KANG CTRL,"1.3831978, 103.7471233344773"
945 HOUGANG STREET 92,945,HOUGANG ST 92,"1.37416615, 103.88106424251473"
30 TEBAN GARDENS ROAD,30,TEBAN GDNS RD,"1.3208052000000001, 103.73898743479083"
899 TAMPINES STREET 81,899,TAMPINES ST 81,"1.3465007999999998, 103.93549730597331"
64 JALAN MA'MOR,64,JLN MA'MOR,"Error: Road retrieved. Returned address Jalan Ma'mor, Novena, Singapore, Central, 328958, Singapore"
343 CHOA CHU KANG LOOP,343,CHOA CHU KANG LOOP,"1.3835323000000002, 103.74579453237942"
480 TAMPINES STREET 44,480,TAMPINES ST 44,"1.3617694999999999, 103.95370085294346"
335 ANG MO KIO AVENUE 1,335,ANG MO KIO AVE 1,"1.3632783, 103.85066049361308"
539 BEDOK NORTH STREET 3,539,BEDOK NTH ST 3,"1.331644, 103.9248335"
106 TOWNER ROAD,106,TOWNER RD,"1.3210131999999999, 103.8610318261878"
257 BUKIT BATOK EAST AVENUE 4,257,BT BATOK EAST AVE 4,"1.3511587999999999, 103.75810985219665"
138 RIVERVALE STREET,138,RIVERVALE ST,"1.388622, 103.90457902191156"
103 BEDOK NORTH AVENUE 4,103,BEDOK NTH AVE 4,"1.3334576, 103.93752857491994"
314C ANCHORVALE LINK,314C,ANCHORVALE LINK,"1.3915522, 103.88871690690581"
546 PASIR RIS STREET 51,546,PASIR RIS ST 51,"1.36899595, 103.95261105323317"
331 TAH CHING ROAD,331,TAH CHING RD,"1.33808875, 103.72360158650426"
917 JURONG WEST STREET 91,917,JURONG WEST ST 91,"1.34033225, 103.68787167510052"
10B BOON TIONG ROAD,10B,BOON TIONG RD,"Error: Road retrieved. Returned address Boon Tiong Road, Boon Tiong Aracadia, Bukit Merah, Singapore, Central, 163028, Singapore"
450 BUKIT PANJANG RING ROAD,450,BT PANJANG RING RD,"Error: Road retrieved. Returned address Bukit Panjang Ring Road, Bukit Panjang, Northwest, 679910, Singapore"
524A PASIR RIS STREET 51,524A,PASIR RIS ST 51,"1.37136875, 103.94749979221697"
619B PUNGGOL DRIVE,619B,PUNGGOL DR,"1.4029544, 103.91108345361495"
416C FERNVALE LINK,416C,FERNVALE LINK,"1.38990545, 103.88038443791172"
411B FERNVALE ROAD,411B,FERNVALE RD,"1.39014345, 103.8770638816185"
353 WOODLANDS AVENUE 1,353,WOODLANDS AVE 1,"1.4318561, 103.7853201"
424D YISHUN AVENUE 11,424D,YISHUN AVE 11,"Error: Road retrieved. Returned address Yishun Avenue 11, Yishun, Northwest, 760413, Singapore"
546 CHOA CHU KANG STREET 52,546,CHOA CHU KANG ST 52,"Error: Road retrieved. Returned address Choa Chu Kang Street 52, Northwest, 689286, Singapore"
401 PANDAN GARDENS,401,PANDAN GDNS,"1.32033255, 103.75032575670018"
581 PASIR RIS STREET 53,581,PASIR RIS ST 53,"1.37478925, 103.94656372779488"
593B MONTREAL LINK,593B,MONTREAL LINK,"Error: Road retrieved. Returned address Montreal Link, Sembawang, Northwest, 752592, Singapore"
755 WOODLANDS AVENUE 4,755,WOODLANDS AVE 4,"1.4452041, 103.79334281302442"
273B BISHAN STREET 24,273B,BISHAN ST 24,"1.3560652, 103.84349798461022"
731 TAMPINES STREET 71,731,TAMPINES ST 71,"1.3569835499999998, 103.93407641448195"
314 TAMPINES STREET 33,314,TAMPINES ST 33,"1.3521941, 103.95720257623198"
124C RIVERVALE DRIVE,124C,RIVERVALE DR,"1.38811275, 103.90267090082676"
142 POTONG PASIR AVENUE 3,142,POTONG PASIR AVE 3,"Error: Road retrieved. Returned address Potong Pasir Avenue 3, Potong Pasir, Southeast, 350144, Singapore"
178 BISHAN STREET 13,178,BISHAN ST 13,"1.34812115, 103.8523898739439"
233 BISHAN STREET 22,233,BISHAN ST 22,"1.3586476, 103.8455353"
615 CHOA CHU KANG STREET 62,615,CHOA CHU KANG ST 62,"Error: Road retrieved. Returned address Choa Chu Kang Street 62, Northwest, 680627, Singapore"
403 PANDAN GARDENS,403,PANDAN GDNS,"1.3202962, 103.7494402672973"
16 UPPER BOON KENG ROAD,16,UPP BOON KENG RD,"1.31544805, 103.87165763513653"
85 COMMONWEALTH CLOSE,85,C'WEALTH CL,"1.3040477, 103.79948630456965"
122B SENGKANG EAST WAY,122B,SENGKANG EAST WAY,"1.38712725, 103.9065959886799"
684B WOODLANDS DRIVE 73,684B,WOODLANDS DR 73,"1.44167465, 103.8049368845852"
351 CLEMENTI AVENUE 2,351,CLEMENTI AVE 2,"1.31516675, 103.7706481433902"
424 HOUGANG AVENUE 6,424,HOUGANG AVE 6,"1.374085, 103.8934167875929"
20 LORONG 7 TOA PAYOH,20,LOR 7 TOA PAYOH,"1.3349978, 103.85721227807036"
679 WOODLANDS AVENUE 6,679,WOODLANDS AVE 6,"Error: Road retrieved. Returned address Woodlands Avenue 6, Woodlands, Northwest, 737858, Singapore"
148 BEDOK RESERVOIR ROAD,148,BEDOK RESERVOIR RD,"1.335315, 103.91185666611266"
660 HOUGANG AVENUE 8,660,HOUGANG AVE 8,"Error: Road retrieved. Returned address Hougang Avenue 8, Hougang, Northeast, 530631, Singapore"
175 LORONG 2 TOA PAYOH,175,LOR 2 TOA PAYOH,"1.3333829000000001, 103.84704030100272"
80 LORONG 4 TOA PAYOH,80,LOR 4 TOA PAYOH,"Error: Road retrieved. Returned address Lorong 4 Toa Payoh, Toa Payoh, Singapore, Central, 319194, Singapore"
543 WOODLANDS DRIVE 16,543,WOODLANDS DR 16,"1.42849705, 103.79389598310914"
105 LENGKONG TIGA,105,LENGKONG TIGA,"1.3256356999999999, 103.91014890616208"
78 MARINE DRIVE,78,MARINE DR,"Error: Not Singapore. Returned address 78, Stella Drive, Porters Lake, Halifax Regional Municipality, Halifax County, Nova Scotia, B3E 1H9, Canada"
140 POTONG PASIR AVENUE 3,140,POTONG PASIR AVE 3,Error: geocode failed on input 140 POTONG PASIR AVENUE 3
69 REDHILL CLOSE,69,REDHILL CL,"Error: Road retrieved. Returned address Redhill Close, Redhill Gardens, Bukit Merah, Singapore, Central, 150115, Singapore"
110 MCNAIR ROAD,110,MCNAIR RD,"1.32195385, 103.85874063334425"
11 SAINT GEORGE'S ROAD,11,ST. GEORGE'S RD,"1.32316495, 103.86331867553615"
28A DOVER CRESCENT,28A,DOVER CRES,"1.30495405, 103.78217037439873"
248 BANGKIT ROAD,248,BANGKIT RD,"Error: Road retrieved. Returned address Bangkit Road, Bukit Panjang, Northwest, 670260, Singapore"
527 JELAPANG ROAD,527,JELAPANG RD,"Error: Road retrieved. Returned address Jelapang Road, Bukit Panjang, Northwest, 671524, Singapore"
487B TAMPINES STREET 45,487B,TAMPINES ST 45,"1.3600851, 103.9583604"
230 ANG MO KIO AVENUE 3,230,ANG MO KIO AVE 3,"Error: Road retrieved. Returned address Ang Mo Kio Avenue 3, Ang Mo Kio, Singapore, Central, 560564, Singapore"
780 YISHUN RING ROAD,780,YISHUN RING RD,"Error: Road retrieved. Returned address Yishun Ring Road, Yishun, Northwest, 760413, Singapore"
143 BEDOK RESERVOIR ROAD,143,BEDOK RESERVOIR RD,"1.33497055, 103.91276106377518"
150A BISHAN STREET 11,150A,BISHAN ST 11,"1.34469605, 103.85592293182222"
463B SEMBAWANG DRIVE,463B,SEMBAWANG DR,"1.45610805, 103.81402055834704"
110 RIVERVALE WALK,110,RIVERVALE WALK,"1.3835769, 103.90015794925564"
102 SERANGOON NORTH AVENUE 1,102,SERANGOON NTH AVE 1,"1.37084425, 103.87112777929491"
780E WOODLANDS CRESCENT,780E,WOODLANDS CRES,"1.44809955, 103.80156958323781"
635 WOODLANDS RING ROAD,635,WOODLANDS RING RD,"1.43652515, 103.80232658400462"
424A YISHUN AVENUE 11,424A,YISHUN AVE 11,"Error: Block retrieved. Returned address 424A     424B, Yishun Avenue 11, Yishun, Northwest, 768961, Singapore"
217 YISHUN STREET 21,217,YISHUN ST 21,"1.4325906000000002, 103.83633137685919"
528 BEDOK NORTH STREET 3,528,BEDOK NTH ST 3,"1.33466835, 103.92764481458067"
20 TELOK BLANGAH CRESCENT,20,TELOK BLANGAH CRES,"1.2769083, 103.8218071"
7 TG PAGAR PLAZA,7,TG PAGAR PLAZA,"Error: Not Singapore. Returned address Tg Alam, Pagar Alam, Sumatera Selatan, Indonesia"
297 CHOA CHU KANG AVENUE 2,297,CHOA CHU KANG AVE 2,"1.37707955, 103.74193204032997"
376 CLEMENTI AVENUE 4,376,CLEMENTI AVE 4,"1.31805185, 103.76674490059494"
321 JURONG EAST STREET 31,321,JURONG EAST ST 31,"1.3483173000000002, 103.73010048238595"
610 JURONG WEST STREET 65,610,JURONG WEST ST 65,"1.33817915, 103.70107156107272"
801 FRENCH ROAD,801,FRENCH RD,"Error: Not Singapore. Returned address French Road, সিদ্দিক বাজার, ঢাকা, ঢাকা জেলা, ঢাকা বিভাগ, 1100, বাংলাদেশ"
479 SEMBAWANG DRIVE,479,SEMBAWANG DR,"1.4526156, 103.81575039614098"
239 SERANGOON AVENUE 2,239,SERANGOON AVE 2,"1.3532385, 103.8689351823913"
390 TAMPINES AVENUE 7,390,TAMPINES AVE 7,"1.35611815, 103.95763155063261"
141 MARSILING ROAD,141,MARSILING RD,"1.4373329, 103.7771231"
1 KAMPONG KAYU ROAD,1,KG KAYU RD,"Error: Road retrieved. Returned address Kampong Kayu Road, Kallang, Southeast, 431001, Singapore"
102A PUNGGOL FIELD,102A,PUNGGOL FIELD,"1.398831, 103.90581759056505"
209 TOA PAYOH NORTH,209,TOA PAYOH NTH,"Error: Road retrieved. Returned address Toa Payoh North, Toa Payoh, Singapore, Central, 318990, Singapore"
40 JALAN RUMAH TINGGI,40,JLN RUMAH TINGGI,"1.2887231, 103.81051267460978"
82 REDHILL LANE,82,REDHILL LANE,"1.2873461000000002, 103.81948274401621"
521 JELAPANG ROAD,521,JELAPANG RD,"Error: Road retrieved. Returned address Jelapang Road, Bukit Panjang, Northwest, 671524, Singapore"
666 WOODLANDS RING ROAD,666,WOODLANDS RING RD,"Error: Road retrieved. Returned address Woodlands Ring Road, Woodlands, Northwest, 737890, Singapore"
419 CHOA CHU KANG AVENUE 4,419,CHOA CHU KANG AVE 4,"1.38192455, 103.7415290011553"
136 MARSILING ROAD,136,MARSILING RD,"1.4382419, 103.77781465801479"
602 YISHUN STREET 61,602,YISHUN ST 61,"1.4221609, 103.8365473685918"
673 HOUGANG AVENUE 8,673,HOUGANG AVE 8,"Error: Road retrieved. Returned address Hougang Avenue 8, Hougang, Northeast, 530631, Singapore"
456 HOUGANG AVENUE 10,456,HOUGANG AVE 10,"Error: Road retrieved. Returned address Hougang Avenue 10, Hougang, Northeast, 538766, Singapore"
154 RIVERVALE CRESCENT,154,RIVERVALE CRES,"1.3911286999999999, 103.90694456469086"
520A TAMPINES CENTRAL 8,520A,TAMPINES CTRL 8,"1.35705845, 103.9399182853867"
364 TAMPINES STREET 34,364,TAMPINES ST 34,"1.35709885, 103.96007536824314"
109 YISHUN RING ROAD,109,YISHUN RING RD,"1.4328078, 103.82865024908605"
576 HOUGANG AVENUE 4,576,HOUGANG AVE 4,"Error: Road retrieved. Returned address Hougang Avenue 4, Hougang, Northeast, 530682, Singapore"
856D TAMPINES STREET 82,856D,TAMPINES ST 82,"1.35218925, 103.9388144464327"
714 WOODLANDS DRIVE 70,714,WOODLANDS DR 70,"Error: Road retrieved. Returned address Woodlands Drive 70, Woodlands, Northwest, 730676, Singapore"
405 HOUGANG AVENUE 10,405,HOUGANG AVE 10,"1.3740653, 103.89634592594453"
120 MCNAIR ROAD,120,MCNAIR RD,"1.3193709, 103.85673776075643"
359 CLEMENTI AVENUE 2,359,CLEMENTI AVE 2,"1.3134611999999999, 103.7699194046831"
736 PASIR RIS DRIVE 10,736,PASIR RIS DR 10,"1.37948835, 103.93759488673648"
508 PASIR RIS STREET 52,508,PASIR RIS ST 52,"1.3761726, 103.94427163130837"
533 ANG MO KIO AVENUE 5,533,ANG MO KIO AVE 5,"Error: Road retrieved. Returned address Ang Mo Kio Avenue 5, Ang Mo Kio, Singapore, Central, 569948, Singapore"
443 SIN MING AVENUE,443,SIN MING AVE,"Error: Road retrieved. Returned address Sin Ming Avenue, Bishan, Singapore, Central, 579646, Singapore"
113 PASIR RIS STREET 11,113,PASIR RIS ST 11,"1.36807265, 103.95584063534807"
249 COMPASSVALE ROAD,249,COMPASSVALE RD,"1.39176395, 103.8990927826942"
717 TAMPINES STREET 72,717,TAMPINES ST 72,"1.3590118000000002, 103.93491277243216"
510 WOODLANDS DRIVE 14,510,WOODLANDS DR 14,"Error: Road retrieved. Returned address Woodlands Drive 14, Fragrant Woods, Woodlands, Northwest, 738079, Singapore"
455 YISHUN STREET 41,455,YISHUN ST 41,"Error: Road retrieved. Returned address Yishun Street 41, Yishun, Northwest, 760675, Singapore"
274C JURONG WEST STREET 25,274C,JURONG WEST ST 25,"Error: Road retrieved. Returned address Jurong West Street 25, Jurong West, Southwest, 644276, Singapore"
483 ADMIRALTY LINK,483,ADMIRALTY LINK,"Error: Road retrieved. Returned address Admiralty Link, Sembawang, Northwest, 757521, Singapore"
213B COMPASSVALE LANE,213B,COMPASSVALE LANE,"Error: Road retrieved. Returned address Compassvale Lane, Seng Kang, Northeast, 544207, Singapore"
265C COMPASSVALE LINK,265C,COMPASSVALE LINK,"Error: Road retrieved. Returned address Compassvale Link, Seng Kang, Northeast, 541275, Singapore"
200B SENGKANG EAST ROAD,200B,SENGKANG EAST RD,"1.3870832, 103.89262868105709"
460 CHOA CHU KANG AVENUE 4,460,CHOA CHU KANG AVE 4,"1.3778252000000002, 103.73499192323874"
125 HOUGANG AVENUE 1,125,HOUGANG AVE 1,"Error: Road retrieved. Returned address Hougang Avenue 1, Hougang, Northeast, 530110, Singapore"
340B SEMBAWANG CLOSE,340B,SEMBAWANG CL,"1.44724075, 103.81819286390828"
180B RIVERVALE CRESCENT,180B,RIVERVALE CRES,"Error: Road retrieved. Returned address Rivervale Crescent, Seng Kang, Northeast, 540151, Singapore"
712 BEDOK RESERVOIR ROAD,712,BEDOK RESERVOIR RD,"1.3359376, 103.9225142964221"
415 PASIR RIS DRIVE 6,415,PASIR RIS DR 6,"1.3720076, 103.95639850872709"
425 WOODLANDS STREET 41,425,WOODLANDS ST 41,"1.4271889500000001, 103.77394820589565"
661 BUFFALO ROAD,661,BUFFALO RD,"Error: Not Singapore. Returned address 661, Buffalo Road, Buffalo, Sullivan County, Tennessee, 37617, United States"
112 HOUGANG AVENUE 1,112,HOUGANG AVE 1,"Error: Road retrieved. Returned address Hougang Avenue 1, Hougang, Northeast, 530110, Singapore"
826 JURONG WEST STREET 81,826,JURONG WEST ST 81,"1.3459854500000001, 103.69464788362397"
79C TOA PAYOH CENTRAL,79C,TOA PAYOH CTRL,"1.33461305, 103.84857618885223"
175 BISHAN STREET 13,175,BISHAN ST 13,"1.34884015, 103.85360323245638"
99 COMMONWEALTH CRESCENT,99,C'WEALTH CRES,Error: geocode failed on input 99 COMMONWEALTH CRESCENT
504D MONTREAL DRIVE,504D,MONTREAL DR,"1.45059805, 103.82397018300358"
306 SERANGOON AVENUE 2,306,SERANGOON AVE 2,"Error: Road retrieved. Returned address Serangoon Avenue 2, Serangoon, Southeast, 556138, Singapore"
150 TAMPINES STREET 12,150,TAMPINES ST 12,"1.35106005, 103.94356244318564"
201 MARSILING DRIVE,201,MARSILING DR,"Error: Road retrieved. Returned address Marsiling Drive, Woodlands, Northwest, 731007, Singapore"
53 LENGKOK BAHRU,53,LENGKOK BAHRU,"1.28899655, 103.81314399707793"
978D BUANGKOK CRESCENT,978D,BUANGKOK CRES,"Error: Road retrieved. Returned address Buangkok Crescent, Hougang, Northeast, 536980, Singapore"
498F TAMPINES STREET 45,498F,TAMPINES ST 45,"1.36189415, 103.95863407077937"
830 YISHUN STREET 81,830,YISHUN ST 81,"1.4142054499999999, 103.83397453366696"
549 ANG MO KIO AVENUE 10,549,ANG MO KIO AVE 10,"Error: Road retrieved. Returned address Ang Mo Kio Avenue 10, Ang Mo Kio, Singapore, Central, 560449, Singapore"
733 TAMPINES STREET 71,733,TAMPINES ST 71,"1.3579631, 103.93394025201911"
112 ANG MO KIO AVENUE 4,112,ANG MO KIO AVE 4,"1.37127315, 103.8357671"
65 NEW UPPER CHANGI ROAD,65,NEW UPP CHANGI RD,"1.3246722000000002, 103.9397959161168"
115 CLEMENTI STREET 13,115,CLEMENTI ST 13,"1.3236869, 103.77136767932868"
365 CORPORATION DRIVE,365,CORPORATION DR,"1.3377341, 103.7202944"
91 PAYA LEBAR WAY,91,PAYA LEBAR WAY,"Error: Road retrieved. Returned address Paya Lebar Way, Geylang, Southeast, 379131, Singapore"
13 EUNOS CRESCENT,13,EUNOS CRES,"1.3226993500000002, 103.90352465000001"
302A WOODLANDS STREET 31,302A,WOODLANDS ST 31,"1.4318429, 103.77526691836283"
646 PUNGGOL CENTRAL,646,PUNGGOL CTRL,"1.39814485, 103.9157158740856"
893C WOODLANDS DRIVE 50,893C,WOODLANDS DR 50,"1.43641675, 103.79052903777709"
10E BEDOK SOUTH AVENUE 2,10E,BEDOK STH AVE 2,"1.32161165, 103.93696265416213"
369 BUKIT BATOK STREET 31,369,BT BATOK ST 31,"1.3601861, 103.75131866011169"
923 JURONG WEST STREET 92,923,JURONG WEST ST 92,"1.3396876, 103.69003527575236"
787B WOODLANDS CRESCENT,787B,WOODLANDS CRES,"Error: Road retrieved. Returned address Woodlands Crescent, Woodlands, Northwest, 733783, Singapore"
425 ANG MO KIO AVENUE 3,425,ANG MO KIO AVE 3,"1.36913525, 103.8516176806506"
668D JURONG WEST STREET 64,668D,JURONG WEST ST 64,"Error: Road retrieved. Returned address Jurong West Street 64, Jurong West, Southwest, 643685, Singapore"
754 JURONG WEST STREET 74,754,JURONG WEST ST 74,"1.34869275, 103.70045947523863"
519A TAMPINES CENTRAL 8,519A,TAMPINES CTRL 8,"1.3571611, 103.94061720622011"
624 YISHUN RING ROAD,624,YISHUN RING RD,"1.4180309, 103.83557637150014"
622B PUNGGOL CENTRAL,622B,PUNGGOL CTRL,"1.4002978499999998, 103.91075206506147"
311D ANCHORVALE LANE,311D,ANCHORVALE LANE,"1.39187155, 103.88461607816029"
850 YISHUN STREET 81,850,YISHUN ST 81,"1.4162464, 103.83604739471983"
723 CLEMENTI WEST STREET 2,723,CLEMENTI WEST ST 2,"1.3030667999999999, 103.76345405049443"
664C JURONG WEST STREET 64,664C,JURONG WEST ST 64,"1.33830865, 103.7034111208761"
123A RIVERVALE DRIVE,123A,RIVERVALE DR,"1.38612055, 103.90303148178711"
148 GANGSA ROAD,148,GANGSA RD,"Error: Road retrieved. Returned address Gangsa Road, Bukit Panjang, Northwest, 679002, Singapore"
986A BUANGKOK CRESCENT,986A,BUANGKOK CRES,"1.38191795, 103.87993510000001"
426 JURONG WEST AVENUE 1,426,JURONG WEST AVE 1,"1.3514780000000002, 103.72503347870823"
363 TAMPINES STREET 34,363,TAMPINES ST 34,"1.3556579, 103.9607481"
502 WOODLANDS DRIVE 14,502,WOODLANDS DR 14,"1.4331679, 103.79180591380955"
167 YISHUN RING ROAD,167,YISHUN RING RD,"Error: Road retrieved. Returned address Yishun Ring Road, Yishun, Northwest, 761677, Singapore"
118 TECK WHYE LANE,118,TECK WHYE LANE,"1.37975265, 103.75074840628564"
110 WHAMPOA ROAD,110,WHAMPOA RD,"1.3268803, 103.85597008070022"
887C WOODLANDS DRIVE 50,887C,WOODLANDS DR 50,"1.4370956499999998, 103.79464619999999"
128 ANG MO KIO AVENUE 3,128,ANG MO KIO AVE 3,"1.3707970999999999, 103.84355555"
51 SIMS DRIVE,51,SIMS DR,"1.31630435, 103.87892928512173"
167D PUNGGOL EAST,167D,PUNGGOL EAST,"1.3945815000000001, 103.91456176015839"
710 HOUGANG AVENUE 2,710,HOUGANG AVE 2,"1.36680815, 103.88772974480199"
149 PETIR ROAD,149,PETIR RD,"Error: Road retrieved. Returned address Petir Road, Bukit Panjang, Northwest, 678272, Singapore"
638 PASIR RIS DRIVE 1,638,PASIR RIS DR 1,"1.37617525, 103.9406449463589"
234 CHOA CHU KANG CENTRAL,234,CHOA CHU KANG CTRL,"1.3801871000000001, 103.74812015150864"
311B CLEMENTI AVENUE 4,311B,CLEMENTI AVE 4,"1.31948065, 103.76552678342165"
10 GLOUCESTER ROAD,10,GLOUCESTER RD,"Error: Not Singapore. Returned address 10, Gloucester Road, Mount Maunganui, Tauranga, Tauranga City, Bay of Plenty, 3175, New Zealand / Aotearoa"
231 PASIR RIS DRIVE 4,231,PASIR RIS DR 4,"1.37347935, 103.96160506194252"
146 RIVERVALE DRIVE,146,RIVERVALE DR,"1.39026165, 103.9062991897137"
419 YISHUN AVENUE 11,419,YISHUN AVE 11,"1.42377865, 103.84736034921721"
460 ANG MO KIO AVENUE 10,460,ANG MO KIO AVE 10,"Error: Road retrieved. Returned address Ang Mo Kio Avenue 10, Ang Mo Kio, Singapore, Central, 560449, Singapore"
3 EVERTON PARK,3,EVERTON PK,"Error: Block retrieved. Returned address 3, Everton Road, Everton Park, Bukit Merah, Singapore, Central, 080003, Singapore"
627 SENJA ROAD,627,SENJA RD,"Error: Road retrieved. Returned address Senja Road, Bukit Panjang, Northwest, 677741, Singapore"
230 SERANGOON AVENUE 4,230,SERANGOON AVE 4,"Error: Road retrieved. Returned address Serangoon Avenue 4, Serangoon Green, Serangoon, Southeast, 551223, Singapore"
402 YISHUN RING ROAD,402,YISHUN RING RD,"1.42649985, 103.84728324961472"
214 BOON LAY PLACE,214,BOON LAY PL,"1.3489993500000002, 103.71217379736252"
260A PUNGGOL WAY,260A,PUNGGOL WAY,"1.4048311500000001, 103.89665404127551"
782A WOODLANDS CRESCENT,782A,WOODLANDS CRES,"1.44740355, 103.80282874697531"
301 JURONG EAST STREET 32,301,JURONG EAST ST 32,"Error: Road retrieved. Returned address Jurong East Street 32, Jurong East, Southwest, 600371, Singapore"
488B CHOA CHU KANG AVENUE 5,488B,CHOA CHU KANG AVE 5,"1.376933, 103.73927816633494"
472 SEMBAWANG DRIVE,472,SEMBAWANG DR,"1.4517214, 103.81619039711933"
662 WOODLANDS RING ROAD,662,WOODLANDS RING RD,"1.4355440499999998, 103.79810536407878"
788C WOODLANDS CRESCENT,788C,WOODLANDS CRES,"Error: Road retrieved. Returned address Woodlands Crescent, Woodlands, Northwest, 733783, Singapore"
374 BUKIT BATOK STREET 31,374,BT BATOK ST 31,"1.3576092, 103.7506387"
479 JURONG WEST STREET 41,479,JURONG WEST ST 41,"1.3470693, 103.7245606"
324 TAH CHING ROAD,324,TAH CHING RD,"1.33647175, 103.72324274279411"
488D CHOA CHU KANG AVENUE 5,488D,CHOA CHU KANG AVE 5,"1.3763299500000001, 103.74077628063985"
547 JURONG WEST STREET 42,547,JURONG WEST ST 42,"1.35281275, 103.71463113494437"
727 WOODLANDS CIRCLE,727,WOODLANDS CIRCLE,"1.4437828499999998, 103.79995924781215"
358 WOODLANDS AVENUE 5,358,WOODLANDS AVE 5,"Error: Road retrieved. Returned address Woodlands Avenue 5, Woodlands, Northwest, 730900, Singapore"
7 EVERTON PARK,7,EVERTON PK,"Error: Block retrieved. Returned address 7, Neil Road, Everton Park, Bukit Merah, Singapore, Central, 080007, Singapore"
760 CHOA CHU KANG NORTH 5,760,CHOA CHU KANG NTH 5,"Error: Road retrieved. Returned address Choa Chu Kang North 5, Northwest, 680533, Singapore"
502 HOUGANG AVENUE 8,502,HOUGANG AVE 8,"1.37281125, 103.88693355000001"
903 TAMPINES AVENUE 4,903,TAMPINES AVE 4,"1.35090895, 103.93976428454225"
644 PASIR RIS DRIVE 10,644,PASIR RIS DR 10,"1.3780709500000001, 103.9375403200232"
469 TAMPINES STREET 44,469,TAMPINES ST 44,"1.36028825, 103.9546507105182"
766 BEDOK RESERVOIR VIEW,766,BEDOK RESERVOIR VIEW,"1.33606505, 103.93655804470396"
35 BEDOK SOUTH AVENUE 2,35,BEDOK STH AVE 2,"1.32231235, 103.93977340417518"
532 HOUGANG AVENUE 6,532,HOUGANG AVE 6,"Error: Road retrieved. Returned address Hougang Avenue 6, Hougang, Northeast, 538787, Singapore"
328 TAH CHING ROAD,328,TAH CHING RD,"1.3367374, 103.72256713682319"
1 BEACH ROAD,1,BEACH RD,"Error: Not Singapore. Returned address 1, Beach Road, Babcock Lake, Town of Grafton, Rensselaer County, New York, 12138, United States"
523A TAMPINES CENTRAL 7,523A,TAMPINES CTRL 7,"1.35943255, 103.93857976825777"
423 TAMPINES STREET 41,423,TAMPINES ST 41,"1.35707895, 103.94759876235577"
653B JURONG WEST STREET 61,653B,JURONG WEST ST 61,"1.3362106, 103.69682287476006"
235 COMPASSVALE WALK,235,COMPASSVALE WALK,"1.39086705, 103.89955148471469"
228 YISHUN STREET 21,228,YISHUN ST 21,"Error: Road retrieved. Returned address Yishun Street 21, Yishun, Northwest, 768610, Singapore"
13 TOH YI DRIVE,13,TOH YI DR,"1.3355162, 103.7710001900624"
336 JURONG EAST AVENUE 1,336,JURONG EAST AVE 1,"1.35055615, 103.73129847130429"
847 JURONG WEST STREET 81,847,JURONG WEST ST 81,"1.3451327, 103.69207336786059"
303C ANCHORVALE LINK,303C,ANCHORVALE LINK,"1.3877386999999999, 103.89033842107474"
102 RIVERVALE WALK,102,RIVERVALE WALK,"1.38203645, 103.90118343541653"
232 SIMEI STREET 4,232,SIMEI ST 4,Error: geocode failed on input 232 SIMEI STREET 4
143 TAMPINES STREET 12,143,TAMPINES ST 12,"1.3480729999999999, 103.94357944999999"
115B YISHUN RING ROAD,115B,YISHUN RING RD,"Error: Road retrieved. Returned address Yishun Ring Road, Yishun, Northwest, 760413, Singapore"
289 YISHUN AVENUE 6,289,YISHUN AVE 6,"1.440455, 103.8391798"
109B DEPOT ROAD,109B,DEPOT RD,"1.2810166, 103.80929125585543"
677 CHOA CHU KANG CRESCENT,677,CHOA CHU KANG CRES,"Error: Road retrieved. Returned address Choa Chu Kang Crescent, Northwest, 689097, Singapore"
558 PASIR RIS STREET 51,558,PASIR RIS ST 51,"1.3668141999999999, 103.95172945789315"
647 PASIR RIS DRIVE 10,647,PASIR RIS DR 10,"1.37845665, 103.93906100711152"
670A EDGEFIELD PLAINS,670A,EDGEFIELD PLAINS,"1.4054137, 103.91268277654328"
688E WOODLANDS DRIVE 75,688E,WOODLANDS DR 75,NONE
214 JURONG EAST STREET 21,214,JURONG EAST ST 21,"1.33911325, 103.73934003686517"
3 BEACH ROAD,3,BEACH RD,"Error: Not Singapore. Returned address 3, Beach Road, Greenport, Suffolk County, New York, 11944, United States"
18B HOLLAND DRIVE,18B,HOLLAND DR,"1.31095105, 103.79161405873847"
423 SERANGOON CENTRAL,423,SERANGOON CTRL,"1.34850815, 103.8755842067531"
8 GHIM MOH ROAD,8,GHIM MOH RD,"1.31055885, 103.7876178585345"
225 YISHUN STREET 21,225,YISHUN ST 21,"1.43481045, 103.83582179105228"
426 ANG MO KIO AVENUE 3,426,ANG MO KIO AVE 3,"1.3695214, 103.85329088171507"
253 SIMEI STREET 1,253,SIMEI ST 1,"1.3419178999999999, 103.95272346744335"
462 CRAWFORD LANE,462,CRAWFORD LANE,"Error: Not Singapore. Returned address 462, Crawford Lane, Sullivan County, Tennessee, 37617, United States"
541 SERANGOON NORTH AVENUE 4,541,SERANGOON NTH AVE 4,"1.3743038, 103.8725595"
120 KIM TIAN PLACE,120,KIM TIAN PL,"Error: Not Singapore. Returned address KIM, Łagiewnicka, Tarnogaj, Osiedle Tarnogaj, Wrocław, województwo dolnośląskie, 50-511, Polska"
807C CHOA CHU KANG AVENUE 1,807C,CHOA CHU KANG AVE 1,"Error: Road retrieved. Returned address Choa Chu Kang Avenue 1, Choa Chu Kang, Southwest, 682296, Singapore"
164 BISHAN STREET 13,164,BISHAN ST 13,"1.3486249, 103.85622046558308"
288D JURONG EAST STREET 21,288D,JURONG EAST ST 21,"1.3399043499999999, 103.74413041993914"
716 PASIR RIS STREET 72,716,PASIR RIS ST 72,"1.38307165, 103.93677723329763"
56 TELOK BLANGAH HEIGHTS,56,TELOK BLANGAH HTS,"1.2742532500000001, 103.81256952210984"
228 PENDING ROAD,228,PENDING RD,"1.37536995, 103.77095964484107"
475A UPPER SERANGOON CRESCENT,475A,UPP SERANGOON CRES,"1.37628525, 103.90020626708908"
470C UPPER SERANGOON CRESCENT,470C,UPP SERANGOON CRES,"1.3785022, 103.90090533138857"
448 JURONG WEST STREET 42,448,JURONG WEST ST 42,"1.3525338, 103.719089825"
988B JURONG WEST STREET 93,988B,JURONG WEST ST 93,"1.3362063000000002, 103.69578853719722"
270A PUNGGOL FIELD,270A,PUNGGOL FIELD,"1.40402545, 103.89975216424081"
107 TAMPINES STREET 11,107,TAMPINES ST 11,"1.3483239, 103.9483872"
20 JOO SENG ROAD,20,JOO SENG RD,"Error: Road retrieved. Returned address Joo Seng Road, Joo Seng, Southeast, 349700, Singapore"
272 YISHUN STREET 22,272,YISHUN ST 22,"Error: Road retrieved. Returned address Yishun Street 22, Yishun, Northwest, 760264, Singapore"
406C FERNVALE ROAD,406C,FERNVALE RD,"1.3886303, 103.87469506854123"
126A KIM TIAN ROAD,126A,KIM TIAN RD,"1.2828631499999998, 103.82954689078773"
266C COMPASSVALE BOW,266C,COMPASSVALE BOW,"Error: Road retrieved. Returned address Compassvale Bow, Seng Kang, Northeast, 544275, Singapore"
448A SENGKANG WEST WAY,448A,SENGKANG WEST WAY,"Error: Road retrieved. Returned address Sengkang West Way, Fernvale, Central, 791453, Singapore"
552 SERANGOON NORTH AVENUE 3,552,SERANGOON NTH AVE 3,"1.37225435, 103.87156422231175"
434 TAMPINES STREET 43,434,TAMPINES ST 43,Error: geocode failed on input 434 TAMPINES STREET 43
748 YISHUN STREET 72,748,YISHUN ST 72,"1.42747095, 103.83342626848513"
187B RIVERVALE DRIVE,187B,RIVERVALE DR,"Error: Not Singapore. Returned address Rivervale Drive, Santa Cruz County, California, 95073, United States"
837 YISHUN STREET 81,837,YISHUN ST 81,"Error: Road retrieved. Returned address Yishun Street 81, Yishun, Northwest, 760873, Singapore"
475 ANG MO KIO AVENUE 10,475,ANG MO KIO AVE 10,"1.362655, 103.85651430137304"
142 TECK WHYE LANE,142,TECK WHYE LANE,"1.3807961, 103.7518581"
167 HOUGANG AVENUE 1,167,HOUGANG AVE 1,"Error: Block retrieved. Returned address 167, Hougang Ave 1, Hougang, Southeast, 530108, Singapore"
607 JURONG WEST STREET 65,607,JURONG WEST ST 65,"1.3380401, 103.69962209004923"
148 SIMEI STREET 1,148,SIMEI ST 1,"1.34623985, 103.9562329718176"
138 JALAN BUKIT MERAH,138,JLN BT MERAH,"1.27846295, 103.82630071709468"
126 HOUGANG AVENUE 1,126,HOUGANG AVE 1,"Error: Road retrieved. Returned address Hougang Avenue 1, Hougang, Northeast, 530110, Singapore"
105 WOODLANDS STREET 13,105,WOODLANDS ST 13,"Error: Road retrieved. Returned address Woodlands Street 13, Woodlands, Northwest, 738623, Singapore"
345 WOODLANDS STREET 32,345,WOODLANDS ST 32,"1.4321228499999998, 103.77985136839641"
6 JALAN BATU,6,JLN BATU,"Error: Not Singapore. Returned address Jalan Batu, RW 09, Srengseng Sawah, Jagakarsa, Jakarta Selatan, Daerah Khusus Ibukota Jakarta, 12640, Indonesia"
231 YISHUN STREET 21,231,YISHUN ST 21,"1.4341347500000001, 103.83719331731622"
112 PASIR RIS STREET 11,112,PASIR RIS ST 11,"1.36780295, 103.95545322142684"
519 PASIR RIS STREET 52,519,PASIR RIS ST 52,"1.37398945, 103.94502093770524"
42 KIM CHENG STREET,42,KIM CHENG ST,"Error: Road retrieved. Returned address Kim Cheng Street, Tiong Bahru Estate, Bukit Merah, Singapore, Central, 169715, Singapore"
289E BUKIT BATOK STREET 25,289E,BT BATOK ST 25,"1.34402605, 103.75898298557308"
325 BUKIT BATOK STREET 33,325,BT BATOK ST 33,"1.3624117, 103.7471767274007"
481 SEGAR ROAD,481,SEGAR RD,"Error: Road retrieved. Returned address Segar Road, Bukit Panjang, Northwest, 677738, Singapore"
121 TECK WHYE LANE,121,TECK WHYE LANE,"1.37838585, 103.74991723184515"
678 CHOA CHU KANG CRESCENT,678,CHOA CHU KANG CRES,"Error: Road retrieved. Returned address Choa Chu Kang Crescent, Northwest, 689097, Singapore"
626 CHOA CHU KANG STREET 62,626,CHOA CHU KANG ST 62,"Error: Road retrieved. Returned address Choa Chu Kang Street 62, Northwest, 680627, Singapore"
62 CIRCUIT ROAD,62,CIRCUIT RD,"1.3262351, 103.88711425165795"
30 CASSIA CRESCENT,30,CASSIA CRES,"Error: Not Singapore. Returned address 30, Cassia Crescent, Vaughan, York Region, Golden Horseshoe, Ontario, L6A 2L1, Canada"
836 JURONG WEST STREET 81,836,JURONG WEST ST 81,"1.34284345, 103.69360409997526"
200 BOON LAY DRIVE,200,BOON LAY DR,"1.3429975, 103.71473864841539"
270A SENGKANG CENTRAL,270A,SENGKANG CTRL,"1.3858747500000002, 103.89413727231482"
452A SENGKANG WEST WAY,452A,SENGKANG WEST WAY,"1.39362905, 103.87441127168779"
205 SERANGOON CENTRAL,205,SERANGOON CTRL,"1.3529670999999999, 103.87368163470444"
589 WOODLANDS DRIVE 16,589,WOODLANDS DR 16,"Error: Road retrieved. Returned address Woodlands Drive 16, Woodlands, Northwest, 730548, Singapore"
658 WOODLANDS RING ROAD,658,WOODLANDS RING RD,"1.4367305, 103.79960340796904"
28 CASSIA CRESCENT,28,CASSIA CRES,"Error: Not Singapore. Returned address 28, Cassia Crescent, Vaughan, York Region, Golden Horseshoe, Ontario, L6A 2L1, Canada"
158 YUNG LOH ROAD,158,YUNG LOH RD,"1.32855, 103.723"
359 ADMIRALTY DRIVE,359,ADMIRALTY DR,"Error: Not Singapore. Returned address Admiralty Drive, Sunset Beach, Huntington Beach, Orange County, California, 92649, United States"
412A FERNVALE LINK,412A,FERNVALE LINK,"1.3891961, 103.8779755261252"
112 TAMPINES STREET 11,112,TAMPINES ST 11,"1.34646445, 103.9478154"
639 PASIR RIS DRIVE 1,639,PASIR RIS DR 1,"1.3766151500000001, 103.9399991189079"
305B ANCHORVALE LINK,305B,ANCHORVALE LINK,"1.3891386, 103.88861758774615"
189B RIVERVALE DRIVE,189B,RIVERVALE DR,"Error: Not Singapore. Returned address Rivervale Drive, Santa Cruz County, California, 95073, United States"
751 JURONG WEST STREET 73,751,JURONG WEST ST 73,"Error: Road retrieved. Returned address Jurong West Street 73, Jurong West, Southwest, 640751, Singapore"
146 PASIR RIS STREET 11,146,PASIR RIS ST 11,"1.3630463000000002, 103.96017966584864"
211B COMPASSVALE LANE,211B,COMPASSVALE LANE,"1.3852102, 103.89876244486675"
234 TAMPINES STREET 21,234,TAMPINES ST 21,"1.3558691999999999, 103.9482797"
492D TAMPINES STREET 45,492D,TAMPINES ST 45,"1.36382375, 103.95415225204118"
319 BUKIT BATOK STREET 33,319,BT BATOK ST 33,"1.3612695499999998, 103.7464272275954"
115 EDGEFIELD PLAINS,115,EDGEFIELD PLAINS,"Error: Road retrieved. Returned address Edgefield Plains, Punggol, Northeast, 828850, Singapore"
632 PASIR RIS DRIVE 3,632,PASIR RIS DR 3,"1.3786553000000001, 103.93992815674403"
562 CHOA CHU KANG STREET 52,562,CHOA CHU KANG ST 52,"Error: Road retrieved. Returned address Choa Chu Kang Street 52, Northwest, 689286, Singapore"
41 CAMBRIDGE ROAD,41,CAMBRIDGE RD,"Error: Not Singapore. Returned address 41, Cambridge Road, Milton, Cambridge, Cambridgeshire, East of England, England, CB24 6AW, United Kingdom"
506 CHOA CHU KANG STREET 51,506,CHOA CHU KANG ST 51,"Error: Road retrieved. Returned address Choa Chu Kang Street 51, Northwest, 689333, Singapore"
705 PASIR RIS DRIVE 10,705,PASIR RIS DR 10,"1.38062095, 103.93778078710146"
673 CHOA CHU KANG CRESCENT,673,CHOA CHU KANG CRES,"Error: Road retrieved. Returned address Choa Chu Kang Crescent, Northwest, 689097, Singapore"
410B FERNVALE ROAD,410B,FERNVALE RD,"1.3897982999999998, 103.87618126554986"
201C COMPASSVALE DRIVE,201C,COMPASSVALE DR,"1.3879626, 103.8934091106982"
782C WOODLANDS CRESCENT,782C,WOODLANDS CRES,"1.4477994, 103.80343927202937"
348A YISHUN AVENUE 11,348A,YISHUN AVE 11,"1.4274512499999998, 103.84135558916658"
429A YISHUN AVENUE 11,429A,YISHUN AVE 11,"Error: Road retrieved. Returned address Yishun Avenue 11, Yishun, Northwest, 760413, Singapore"
209 PETIR ROAD,209,PETIR RD,"Error: Road retrieved. Returned address Petir Road, Bukit Panjang, Northwest, 678272, Singapore"
41 SIMS DRIVE,41,SIMS DR,"1.3169362, 103.87558427425378"
133 LORONG AH SOO,133,LOR AH SOO,"Error: Road retrieved. Returned address Lorong Ah Soo, Hougang, Northeast, 530129, Singapore"
206 BOON LAY DRIVE,206,BOON LAY DR,"1.34493035, 103.71507488562563"
208C PUNGGOL PLACE,208C,PUNGGOL PL,"1.40090365, 103.90115038117037"
592C MONTREAL LINK,592C,MONTREAL LINK,"Error: Road retrieved. Returned address Montreal Link, Sembawang, Northwest, 752592, Singapore"
167D SIMEI LANE,167D,SIMEI LANE,"1.3428838, 103.95911841780871"
116 YISHUN RING ROAD,116,YISHUN RING RD,"Error: Road retrieved. Returned address Yishun Ring Road, Yishun, Northwest, 760413, Singapore"
153 ANG MO KIO AVENUE 5,153,ANG MO KIO AVE 5,"1.3763727000000001, 103.84207419040436"
1 QUEEN'S ROAD,1,QUEEN'S RD,"Error: Not Singapore. Returned address 1, Queens Road, Warsash, Southampton, Hampshire, South East, England, SO31 9JY, United Kingdom"
471 CHOA CHU KANG AVENUE 3,471,CHOA CHU KANG AVE 3,"1.3786656000000002, 103.73739053135303"
676 CHOA CHU KANG CRESCENT,676,CHOA CHU KANG CRES,"Error: Road retrieved. Returned address Choa Chu Kang Crescent, Northwest, 689097, Singapore"
30 MARINE CRESCENT,30,MARINE CRES,"1.3042538000000001, 103.9111533692334"
19 GHIM MOH ROAD,19,GHIM MOH RD,"1.31143285, 103.7882793546598"
489D CHOA CHU KANG AVENUE 5,489D,CHOA CHU KANG AVE 5,"1.3760601499999998, 103.74034844520475"
517A JURONG WEST STREET 52,517A,JURONG WEST ST 52,"1.3453332, 103.72125975071523"
22 HAIG ROAD,22,HAIG RD,"1.31365425, 103.89506806130277"
943 HOUGANG STREET 92,943,HOUGANG ST 92,"1.3737514499999999, 103.88036626927129"
527C PASIR RIS STREET 51,527C,PASIR RIS ST 51,"1.3694536, 103.94797924102188"
703 WOODLANDS DRIVE 40,703,WOODLANDS DR 40,"Error: Road retrieved. Returned address Woodlands Drive 40, Woodlands, Northwest, 738489, Singapore"
306 SHUNFU ROAD,306,SHUNFU RD,"1.3502412000000001, 103.83929482472054"
701 WEST COAST ROAD,701,WEST COAST RD,"1.3075801999999999, 103.76140250070162"
371 HOUGANG STREET 31,371,HOUGANG ST 31,"1.3636081, 103.88978816031658"
486 JURONG WEST AVENUE 1,486,JURONG WEST AVE 1,"1.3487501499999999, 103.72635951960439"
3D UPPER BOON KENG ROAD,3D,UPP BOON KENG RD,"1.31338635, 103.87268307860461"
102 SIMEI STREET 1,102,SIMEI ST 1,"1.3412134999999998, 103.95118940542163"
154 SIMEI STREET 1,154,SIMEI ST 1,"1.3448258499999999, 103.95678601892034"
681A WOODLANDS DRIVE 62,681A,WOODLANDS DR 62,"1.43951605, 103.8037482472352"
626 BEDOK RESERVOIR ROAD,626,BEDOK RESERVOIR RD,"1.33437925, 103.91564349472198"
75C REDHILL ROAD,75C,REDHILL RD,"Error: Not Singapore. Returned address Redhill Road, Redhill, Arnold, Gedling, Nottinghamshire, East Midlands, England, NG5 8HB, United Kingdom"
153 GANGSA ROAD,153,GANGSA RD,"Error: Road retrieved. Returned address Gangsa Road, Bukit Panjang, Northwest, 679002, Singapore"
97 WHAMPOA DRIVE,97,WHAMPOA DR,"1.3215810000000001, 103.85572245719882"
678A PUNGGOL DRIVE,678A,PUNGGOL DR,"1.4056329, 103.90860847431617"
132 SIMEI STREET 1,132,SIMEI ST 1,"1.34695215, 103.95615074486976"
961 JURONG WEST STREET 92,961,JURONG WEST ST 92,"1.3415839, 103.6920953"
352 TAMPINES STREET 33,352,TAMPINES ST 33,"1.3541889500000002, 103.96251094848274"
620 JURONG WEST STREET 65,620,JURONG WEST ST 65,"1.34144675, 103.69938075622053"
40 CAMBRIDGE ROAD,40,CAMBRIDGE RD,"Error: Not Singapore. Returned address 40, Cambridge Road, Dexter, Penobscot County, Maine, 04930, United States"
826 WOODLANDS STREET 81,826,WOODLANDS ST 81,"Error: Road retrieved. Returned address Woodlands St 81, Woodlands, Northwest, 738525, Singapore"
120 ANG MO KIO AVENUE 3,120,ANG MO KIO AVE 3,"Error: Road retrieved. Returned address Ang Mo Kio Avenue 3, Ang Mo Kio, Singapore, Central, 560564, Singapore"
418 BEDOK NORTH AVENUE 2,418,BEDOK NTH AVE 2,"1.3287195, 103.93000766161026"
324 BUKIT BATOK STREET 33,324,BT BATOK ST 33,"1.36217615, 103.74765196807951"
541 BUKIT PANJANG RING ROAD,541,BT PANJANG RING RD,"Error: Road retrieved. Returned address Bukit Panjang Ring Road, Bukit Panjang, Northwest, 679910, Singapore"
239 HOUGANG STREET 22,239,HOUGANG ST 22,"Error: Road retrieved. Returned address Hougang Street 22, Hougang, Northeast, 530110, Singapore"
836 HOUGANG CENTRAL,836,HOUGANG CTRL,"1.3699305, 103.89092309622524"
208 JURONG EAST STREET 21,208,JURONG EAST ST 21,"1.3384125, 103.74265577012522"
645 PASIR RIS DRIVE 10,645,PASIR RIS DR 10,"1.3783863, 103.93777000885957"
308 CANBERRA ROAD,308,CANBERRA RD,"Error: Not Singapore. Returned address Canberra Road, London Borough of Newham, London, Greater London, England, E6 2RW, United Kingdom"
145 RIVERVALE DRIVE,145,RIVERVALE DR,"1.3896932, 103.90621741408134"
225B COMPASSVALE WALK,225B,COMPASSVALE WALK,"1.387842, 103.89906340942892"
342A YISHUN RING ROAD,342A,YISHUN RING RD,"1.43064115, 103.84434769749406"
267 BUKIT BATOK EAST AVENUE 4,267,BT BATOK EAST AVE 4,"1.3488391, 103.75991708531777"
468 SEGAR ROAD,468,SEGAR RD,"Error: Road retrieved. Returned address Segar Road, Bukit Panjang, Northwest, 677738, Singapore"
656A JURONG WEST STREET 61,656A,JURONG WEST ST 61,"1.33535855, 103.69941433778847"
176D EDGEFIELD PLAINS,176D,EDGEFIELD PLAINS,"Error: Road retrieved. Returned address Edgefield Plains, Punggol, Northeast, 828850, Singapore"
264F COMPASSVALE BOW,264F,COMPASSVALE BOW,"Error: Road retrieved. Returned address Compassvale Bow, Seng Kang, Northeast, 544275, Singapore"
413B FERNVALE LINK,413B,FERNVALE LINK,"1.38979405, 103.87857242387634"
925 TAMPINES STREET 91,925,TAMPINES ST 91,"1.3464190999999999, 103.94100792820103"
208 BUKIT BATOK STREET 21,208,BT BATOK ST 21,"1.3458822499999998, 103.74883712598363"
290C COMPASSVALE CRESCENT,290C,COMPASSVALE CRES,"1.39695465, 103.8974955342754"
186 BISHAN STREET 13,186,BISHAN ST 13,"1.34940615, 103.8522869844987"
268 TAMPINES STREET 21,268,TAMPINES ST 21,"Error: Road retrieved. Returned address Tampines Street 21, Tampines, Northeast, 520241, Singapore"
23 SIN MING ROAD,23,SIN MING RD,"Error: Road retrieved. Returned address Sin Ming Road, Bishan, Singapore, Central, 573908, Singapore"
8 JALAN KUKOH,8,JLN KUKOH,"1.2871703, 103.8394515"
9 SELEGIE ROAD,9,SELEGIE RD,"Error: Road retrieved. Returned address Selegie Road, Rochor, Singapore, Central, 188329, Singapore"
345 CHOA CHU KANG LOOP,345,CHOA CHU KANG LOOP,"1.3829270500000002, 103.74489829388989"
603 CLEMENTI WEST STREET 1,603,CLEMENTI WEST ST 1,"1.3046787, 103.7675291"
10 HAIG ROAD,10,HAIG RD,"1.31482685, 103.89584100954731"
412 SERANGOON CENTRAL,412,SERANGOON CTRL,"1.34855005, 103.87321010018067"
643 HOUGANG AVENUE 8,643,HOUGANG AVE 8,"1.3715483000000002, 103.88064715"
20 QUEEN'S CLOSE,20,QUEEN'S CL,"Error: Not Singapore. Returned address 24, 22, 20, 18, Queen's Close, Harston, South Cambridgeshire, Cambridgeshire, East of England, England, CB22 7QL, United Kingdom"
113 POTONG PASIR AVENUE 1,113,POTONG PASIR AVE 1,"1.3362372, 103.86341820741441"
726 WOODLANDS CIRCLE,726,WOODLANDS CIRCLE,"1.4442293, 103.79950625333521"
653 WOODLANDS RING ROAD,653,WOODLANDS RING RD,"1.43801295, 103.79889891169552"
880 WOODLANDS STREET 82,880,WOODLANDS ST 82,"1.4444862, 103.79243367196416"
865 WOODLANDS STREET 83,865,WOODLANDS ST 83,"1.4410788, 103.79267429370569"
333 JURONG EAST AVENUE 1,333,JURONG EAST AVE 1,"1.3512664499999998, 103.7309410465225"
