address,block,street_name,lat_long
290A COMPASSVALE CRESCENT,290A,COMPASSVALE CRES,"1.3961907999999998, 103.89712495393113"
196 RIVERVALE DRIVE,196,RIVERVALE DR,"1.39284125, 103.90314005435349"
128 RIVERVALE STREET,128,RIVERVALE ST,"1.39032525, 103.90298321041064"
221 PENDING ROAD,221,PENDING RD,"Error: Road retrieved. Returned address Pending Road, Bukit Panjang, Northwest, 670129, Singapore"
316B ANCHORVALE LINK,316B,ANCHORVALE LINK,"1.39287615, 103.8887844357595"
350 ANG MO KIO STREET 32,350,ANG MO KIO ST 32,"1.3637277, 103.85003413765219"
925 HOUGANG STREET 91,925,HOUGANG ST 91,"1.37665835, 103.88259103682658"
288E JURONG EAST STREET 21,288E,JURONG EAST ST 21,"1.3402417500000001, 103.74391731824042"
364 CLEMENTI AVENUE 2,364,CLEMENTI AVE 2,"1.3123485, 103.7688895"
562 HOUGANG STREET 51,562,HOUGANG ST 51,"1.3808379, 103.88901635622503"
682A WOODLANDS DRIVE 62,682A,WOODLANDS DR 62,"Error: Road retrieved. Returned address Woodlands Drive 62, Woodlands, Northwest, 737942, Singapore"
363 YISHUN RING ROAD,363,YISHUN RING RD,"1.42886385, 103.84523755000001"
221B BEDOK CENTRAL,221B,BEDOK CTRL,"1.32505255, 103.93439236650943"
302 CLEMENTI AVENUE 4,302,CLEMENTI AVE 4,"1.3217314, 103.76496360785069"
413 JURONG WEST STREET 42,413,JURONG WEST ST 42,"1.3532227, 103.72538814472568"
269C PUNGGOL FIELD,269C,PUNGGOL FIELD,"1.40374655, 103.89864297532553"
645 PUNGGOL CENTRAL,645,PUNGGOL CTRL,"1.39775875, 103.91635621601003"
471B FERNVALE STREET,471B,FERNVALE ST,"Error: Not Singapore. Returned address Fernvale Street, Sydenham, County Down, Northern Ireland, BT4 1QE, United Kingdom"
652 YISHUN AVENUE 4,652,YISHUN AVE 4,"1.4236131, 103.8401623982173"
193 BISHAN STREET 13,193,BISHAN ST 13,"1.348677, 103.85097970320152"
43 MOH GUAN TERRACE,43,MOH GUAN TER,"Error: Road retrieved. Returned address Moh Guan Terrace, Tiong Bahru Estate, Bukit Merah, Singapore, Central, 169715, Singapore"
180 YUNG SHENG ROAD,180,YUNG SHENG RD,"1.333777, 103.72118646322483"
20 DOVER CRESCENT,20,DOVER CRES,"1.3066996, 103.7835409426289"
251 CHOA CHU KANG AVENUE 2,251,CHOA CHU KANG AVE 2,"1.37829385, 103.74460028189188"
161 HOUGANG STREET 11,161,HOUGANG ST 11,"1.35229245, 103.87840215610339"
226 JURONG EAST STREET 21,226,JURONG EAST ST 21,"1.3413884, 103.73586325224093"
204B PUNGGOL FIELD,204B,PUNGGOL FIELD,"Error: Road retrieved. Returned address Punggol Field, Punggol Cove, Punggol, Northeast, 820198, Singapore"
101 COMMONWEALTH CRESCENT,101,C'WEALTH CRES,"1.30801605, 103.80089835"
495B TAMPINES STREET 43,495B,TAMPINES ST 43,"1.36286005, 103.95129098564345"
846 TAMPINES STREET 82,846,TAMPINES ST 82,"1.35213075, 103.9359758050173"
9 CANTONMENT CLOSE,9,CANTONMENT CL,"1.27531455, 103.83920520576453"
74 MARINE DRIVE,74,MARINE DR,"Error: Not Singapore. Returned address 74, Marine Drive, Bucyrus Heights, Buffalo, Amherst, Erie County, New York, 14228, United States"
10B LORONG 7 TOA PAYOH,10B,LOR 7 TOA PAYOH,"1.3371427, 103.85836179517386"
238 BISHAN STREET 22,238,BISHAN ST 22,"1.3598696499999998, 103.84453090425157"
18 TIONG BAHRU ROAD,18,TIONG BAHRU RD,"1.2857305, 103.83258885075955"
279 CHOA CHU KANG AVENUE 3,279,CHOA CHU KANG AVE 3,"1.38074395, 103.74342955974879"
275D JURONG WEST STREET 25,275D,JURONG WEST ST 25,"Error: Road retrieved. Returned address Jurong West Street 25, Jurong West, Southwest, 644276, Singapore"
261C PUNGGOL WAY,261C,PUNGGOL WAY,"1.4055757999999998, 103.89644574066712"
213C PUNGGOL WALK,213C,PUNGGOL WALK,"1.4007036, 103.89892360722754"
468A ADMIRALTY DRIVE,468A,ADMIRALTY DR,"1.4505925, 103.81384395867278"
730 TAMPINES STREET 71,730,TAMPINES ST 71,"1.3566578, 103.93348124020306"
838 TAMPINES STREET 82,838,TAMPINES ST 82,"1.3508317, 103.93536703101631"
408 BUKIT BATOK WEST AVENUE 4,408,BT BATOK WEST AVE 4,"1.3647993, 103.74502658993562"
14 DOVER CLOSE EAST,14,DOVER CL EAST,"1.30554365, 103.78562712483799"
149 SIMEI STREET 1,149,SIMEI ST 1,"1.34597065, 103.95600195204486"
120 BISHAN STREET 12,120,BISHAN ST 12,"1.3472262000000002, 103.85087077969436"
11 TOH YI DRIVE,11,TOH YI DR,"1.3376138, 103.77272867449125"
7 COMMONWEALTH AVENUE,7,C'WEALTH AVE,"1.3063962, 103.79474598754024"
605 WOODLANDS DRIVE 42,605,WOODLANDS DR 42,"Error: Road retrieved. Returned address Woodlands Drive 42, Woodlands, Northwest, 730888, Singapore"
608 YISHUN STREET 61,608,YISHUN ST 61,"Error: Road retrieved. Returned address Yishun Street 61, Nee Soon Central Meadows, Yishun, Northwest, 768548, Singapore"
403A FERNVALE LANE,403A,FERNVALE LANE,"1.388969, 103.87320610375872"
234 ANG MO KIO AVENUE 3,234,ANG MO KIO AVE 3,"Error: Road retrieved. Returned address Ang Mo Kio Avenue 3, Ang Mo Kio, Singapore, Central, 560234, Singapore"
618 BEDOK RESERVOIR ROAD,618,BEDOK RESERVOIR RD,"1.3330532000000002, 103.91702996244507"
479 SEGAR ROAD,479,SEGAR RD,"Error: Road retrieved. Returned address Segar Road, Bukit Panjang, Northwest, 677738, Singapore"
559 JURONG WEST STREET 42,559,JURONG WEST ST 42,"1.3544464999999999, 103.71852723197276"
452 TAMPINES STREET 42,452,TAMPINES ST 42,"1.35682495, 103.95462379433741"
796A YISHUN RING ROAD,796A,YISHUN RING RD,"1.41933905, 103.8330704695631"
92 PIPIT ROAD,92,PIPIT RD,"1.32322945, 103.88740915081836"
111 ALJUNIED CRESCENT,111,ALJUNIED CRES,"1.32040565, 103.88426278318005"
233 COMPASSVALE WALK,233,COMPASSVALE WALK,"1.3900597000000001, 103.9006423592427"
264 BISHAN STREET 24,264,BISHAN ST 24,"1.35876825, 103.84201509455832"
6A BOON TIONG ROAD,6A,BOON TIONG RD,"Error: Road retrieved. Returned address Boon Tiong Road, Boon Tiong Aracadia, Bukit Merah, Singapore, Central, 163028, Singapore"
611 HOUGANG AVENUE 8,611,HOUGANG AVE 8,"Error: Road retrieved. Returned address Hougang Avenue 8, Hougang, Northeast, 530631, Singapore"
442 JURONG WEST AVENUE 1,442,JURONG WEST AVE 1,"1.3516222500000001, 103.71980940218398"
470B FERNVALE LINK,470B,FERNVALE LINK,"1.3968625000000001, 103.87995962821222"
867A TAMPINES STREET 83,867A,TAMPINES ST 83,"1.35556375, 103.93395978269706"
634 VEERASAMY ROAD,634,VEERASAMY RD,"Error: Road retrieved. Returned address Veerasamy Road, Rochor, Singapore, Central, 207309, Singapore"
185D RIVERVALE CRESCENT,185D,RIVERVALE CRES,"Error: Road retrieved. Returned address Rivervale Crescent, Seng Kang, Northeast, 540151, Singapore"
131 ANG MO KIO AVENUE 3,131,ANG MO KIO AVE 3,"Error: Road retrieved. Returned address Ang Mo Kio Avenue 3, Ang Mo Kio, Singapore, Central, 560564, Singapore"
765 YISHUN STREET 72,765,YISHUN ST 72,"Error: Road retrieved. Returned address Yishun Street 72, Yishun, Northwest, 760731, Singapore"
626 JURONG WEST STREET 65,626,JURONG WEST ST 65,"1.3418086, 103.69852642385771"
183D RIVERVALE CRESCENT,183D,RIVERVALE CRES,"Error: Road retrieved. Returned address Rivervale Crescent, Seng Kang, Northeast, 540151, Singapore"
520 ANG MO KIO AVENUE 5,520,ANG MO KIO AVE 5,"Error: Road retrieved. Returned address Ang Mo Kio Avenue 5, Ang Mo Kio, Singapore, Central, 569948, Singapore"
467 SEGAR ROAD,467,SEGAR RD,"Error: Road retrieved. Returned address Segar Road, Bukit Panjang, Northwest, 677738, Singapore"
708 HOUGANG AVENUE 2,708,HOUGANG AVE 2,"1.3666095, 103.88932953842172"
245 JURONG EAST STREET 24,245,JURONG EAST ST 24,"Error: Road retrieved. Returned address Jurong East Street 24, Jurong East, Southwest, 600229, Singapore"
511 JURONG WEST STREET 52,511,JURONG WEST ST 52,"Error: Road retrieved. Returned address Jurong West Street 52, Jurong West, Southwest, 649296, Singapore"
56 GEYLANG BAHRU,56,GEYLANG BAHRU,"1.3236176, 103.86840813911073"
849 TAMPINES STREET 83,849,TAMPINES ST 83,"1.35279835, 103.93546151190253"
256 TAMPINES STREET 21,256,TAMPINES ST 21,"1.35306215, 103.94980285863105"
261 YISHUN STREET 22,261,YISHUN ST 22,"1.4362462, 103.8381999"
339D KANG CHING ROAD,339D,KANG CHING RD,"1.33882645, 103.72202190663923"
421 PASIR RIS DRIVE 6,421,PASIR RIS DR 6,"1.37113825, 103.95499331691138"
272 PASIR RIS STREET 21,272,PASIR RIS ST 21,"1.36495985, 103.9644810059452"
213 PASIR RIS STREET 21,213,PASIR RIS ST 21,"1.3684299, 103.9605739543468"
289C PUNGGOL PLACE,289C,PUNGGOL PL,"Error: Road retrieved. Returned address Punggol Place, Punggol, Northeast, 828845, Singapore"
366 WOODLANDS AVENUE 5,366,WOODLANDS AVE 5,"Error: Road retrieved. Returned address Woodlands Avenue 5, Woodlands, Northwest, 730900, Singapore"
39 BEDOK SOUTH ROAD,39,BEDOK STH RD,"1.3213868500000001, 103.93973030237876"
658 JALAN TENAGA,658,JLN TENAGA,"1.3336643499999998, 103.90671362368981"
304 SHUNFU ROAD,304,SHUNFU RD,"1.3501463500000002, 103.83807691662597"
146 POTONG PASIR AVENUE 1,146,POTONG PASIR AVE 1,"Error: Road retrieved. Returned address Potong Pasir Avenue 1, Potong Pasir, Southeast, 350125, Singapore"
397 YISHUN AVENUE 6,397,YISHUN AVE 6,"Error: Road retrieved. Returned address Yishun Avenue 6, Yishun, Northwest, 760406, Singapore"
63B LENGKOK BAHRU,63B,LENGKOK BAHRU,"1.2893451, 103.8155797"
702 TAMPINES STREET 71,702,TAMPINES ST 71,"1.3562569, 103.93773064985031"
38 CIRCUIT ROAD,38,CIRCUIT RD,"1.3279755500000001, 103.8861329141408"
3A UPPER BOON KENG ROAD,3A,UPP BOON KENG RD,"1.3139661, 103.8723863167582"
13 UPPER BOON KENG ROAD,13,UPP BOON KENG RD,"1.3145201499999999, 103.87061731105615"
134 EDGEDALE PLAINS,134,EDGEDALE PLAINS,"Error: Road retrieved. Returned address Edgedale Plains, Punggol, Northeast, 828867, Singapore"
413 SEMBAWANG DRIVE,413,SEMBAWANG DR,"1.45160205, 103.81774263586337"
141 POTONG PASIR AVENUE 3,141,POTONG PASIR AVE 3,"1.33404185, 103.8674778196578"
828 YISHUN STREET 81,828,YISHUN ST 81,"Error: Road retrieved. Returned address Yishun Street 81, Yishun, Northwest, 760873, Singapore"
648 HOUGANG AVENUE 8,648,HOUGANG AVE 8,"Error: Road retrieved. Returned address Hougang Avenue 8, Hougang, Northeast, 530631, Singapore"
296B CHOA CHU KANG AVENUE 2,296B,CHOA CHU KANG AVE 2,"1.3768888, 103.74143651992264"
273B JURONG WEST AVENUE 3,273B,JURONG WEST AVE 3,"1.3517479, 103.70372041764318"
48 DORSET ROAD,48,DORSET RD,"Error: Not Singapore. Returned address 48, Dorset Road, Dorset, West Penn Township, Schuylkill County, Pennsylvania, 17960, United States"
156 LORONG 1 TOA PAYOH,156,LOR 1 TOA PAYOH,"1.33255225, 103.84506856012084"
669 JALAN DAMAI,669,JLN DAMAI,"1.3332418499999998, 103.90835227771302"
731 CLEMENTI WEST STREET 2,731,CLEMENTI WEST ST 2,"1.30414285, 103.76290403708452"
216 BUKIT BATOK STREET 21,216,BT BATOK ST 21,"1.3470843499999998, 103.75364830580085"
46 TELOK BLANGAH DRIVE,46,TELOK BLANGAH DR,"1.2715752, 103.8099378"
27A JALAN MEMBINA,27A,JLN MEMBINA,"1.28223555, 103.82462402019462"
613 ELIAS ROAD,613,ELIAS RD,"1.3749289500000001, 103.94150548686916"
414A FERNVALE LINK,414A,FERNVALE LINK,"1.3895406000000001, 103.8797349845855"
4 LORONG LEW LIAN,4,LOR LEW LIAN,"1.35022625, 103.87646381044665"
212 MARSILING CRESCENT,212,MARSILING CRES,"Error: Road retrieved. Returned address Marsiling Crescent, Woodlands, Northwest, 739148, Singapore"
550 ANG MO KIO AVENUE 10,550,ANG MO KIO AVE 10,"Error: Road retrieved. Returned address Ang Mo Kio Avenue 10, Ang Mo Kio, Singapore, Central, 560449, Singapore"
547 ANG MO KIO AVENUE 10,547,ANG MO KIO AVE 10,"Error: Road retrieved. Returned address Ang Mo Kio Avenue 10, Ang Mo Kio, Singapore, Central, 560449, Singapore"
16 JALAN TENTERAM,16,JLN TENTERAM,"1.32805165, 103.85953018220475"
630 PASIR RIS DRIVE 3,630,PASIR RIS DR 3,"1.3783956000000002, 103.9408817887066"
667B PUNGGOL DRIVE,667B,PUNGGOL DR,"Error: Road retrieved. Returned address Punggol Drive, Punggol, Northeast, 821665, Singapore"
593A MONTREAL LINK,593A,MONTREAL LINK,"Error: Road retrieved. Returned address Montreal Link, Sembawang, Northwest, 752592, Singapore"
519C TAMPINES CENTRAL 8,519C,TAMPINES CTRL 8,"1.35619795, 103.9400051164559"
621 YISHUN RING ROAD,621,YISHUN RING RD,"Error: Road retrieved. Returned address Yishun Ring Road, Yishun, Northwest, 760413, Singapore"
984C BUANGKOK LINK,984C,BUANGKOK LINK,"Error: Road retrieved. Returned address Buangkok Link, Hougang, Northeast, 530991, Singapore"
47 TEBAN GARDENS ROAD,47,TEBAN GDNS RD,"1.3201249, 103.73985825933735"
5 JALAN BATU,5,JLN BATU,"Error: Not Singapore. Returned address Jalan Batu, Majlis Perbandaran Klang, Klang, Selangor, 41050 KLANG, Malaysia"
209B COMPASSVALE LANE,209B,COMPASSVALE LANE,"1.3838038, 103.89870678350383"
253 COMPASSVALE STREET,253,COMPASSVALE ST,"1.3940759, 103.90045643468281"
257 YISHUN RING ROAD,257,YISHUN RING RD,"1.4346700000000001, 103.83938434858263"
684D CHOA CHU KANG CRESCENT,684D,CHOA CHU KANG CRES,"Error: Road retrieved. Returned address Choa Chu Kang Crescent, Northwest, 689097, Singapore"
417 EUNOS ROAD 5,417,EUNOS RD 5,"1.3181764, 103.896901593693"
34 WHAMPOA WEST,34,WHAMPOA WEST,"1.3199565, 103.8644014"
285B TOH GUAN ROAD,285B,TOH GUAN RD,"1.3381020000000001, 103.7471534293536"
746 JURONG WEST STREET 73,746,JURONG WEST ST 73,"Error: Road retrieved. Returned address Jurong West Street 73, Jurong West, Southwest, 640744, Singapore"
406 WOODLANDS STREET 41,406,WOODLANDS ST 41,"1.42952295, 103.77284340856443"
18 DOVER CRESCENT,18,DOVER CRES,"Error: Not Singapore. Returned address 18, Dover Crescent, Skyline Acres, Fredericton, York County, New Brunswick / Nouveau-Brunswick, E3B 4J7, Canada"
145 BISHAN STREET 11,145,BISHAN ST 11,"1.3447726, 103.85465555487406"
84 TELOK BLANGAH HEIGHTS,84,TELOK BLANGAH HTS,"1.2768427, 103.81000604641662"
122 PASIR RIS STREET 11,122,PASIR RIS ST 11,"1.3665569, 103.95447004469203"
122E RIVERVALE DRIVE,122E,RIVERVALE DR,"1.387778, 103.90573454120306"
238 CHOA CHU KANG CENTRAL,238,CHOA CHU KANG CTRL,"1.3791326499999998, 103.7481677490709"
355 CLEMENTI AVENUE 2,355,CLEMENTI AVE 2,"1.31441485, 103.76962525362316"
678B PUNGGOL DRIVE,678B,PUNGGOL DR,"1.40584115, 103.90917006990324"
706 PASIR RIS DRIVE 10,706,PASIR RIS DR 10,"1.3809265499999999, 103.93822926473207"
160 BISHAN STREET 13,160,BISHAN ST 13,"1.3470559, 103.8564181787334"
99 OLD AIRPORT ROAD,99,OLD AIRPORT RD,"1.3086003499999999, 103.8882672800285"
631 WOODLANDS RING ROAD,631,WOODLANDS RING RD,"Error: Road retrieved. Returned address Woodlands Ring Road, Woodlands, Northwest, 737890, Singapore"
138 PETIR ROAD,138,PETIR RD,"Error: Road retrieved. Returned address Petir Road, Bukit Panjang, Northwest, 678272, Singapore"
25 MARSILING DRIVE,25,MARSILING DR,"Error: Road retrieved. Returned address Marsiling Drive, Woodlands, Northwest, 731007, Singapore"
628 BEDOK RESERVOIR ROAD,628,BEDOK RESERVOIR RD,"1.3348973, 103.9150075010044"
421 BEDOK NORTH ROAD,421,BEDOK NTH RD,"Error: Road retrieved. Returned address Bedok North Road, Bedok, Southeast, 460401, Singapore"
211 CHOA CHU KANG CENTRAL,211,CHOA CHU KANG CTRL,"1.3820263499999998, 103.74794164656862"
706 HOUGANG AVENUE 2,706,HOUGANG AVE 2,"1.36594525, 103.88860659996024"
483 JURONG WEST STREET 41,483,JURONG WEST ST 41,"1.34736765, 103.7253432949302"
527D PASIR RIS STREET 51,527D,PASIR RIS ST 51,"1.3696509, 103.9479234"
332B ANCHORVALE LINK,332B,ANCHORVALE LINK,"1.39519145, 103.89156771410649"
215 SERANGOON AVENUE 4,215,SERANGOON AVE 4,"Error: Road retrieved. Returned address Serangoon Avenue 4, Serangoon Green, Serangoon, Southeast, 551223, Singapore"
262 SERANGOON CENTRAL DRIVE,262,SERANGOON CTRL DR,"1.3535176, 103.8724479"
165 SIMEI ROAD,165,SIMEI RD,"1.3455215, 103.9589818744339"
722 WOODLANDS AVENUE 6,722,WOODLANDS AVE 6,"1.4453494, 103.79976317167845"
176 BISHAN STREET 13,176,BISHAN ST 13,"1.34827415, 103.85375354042301"
510 WEST COAST DRIVE,510,WEST COAST DR,"1.3107883, 103.76082733258427"
337 CLEMENTI AVENUE 2,337,CLEMENTI AVE 2,"1.3160509999999999, 103.76918618112039"
3A GEYLANG SERAI,3A,GEYLANG SERAI,"1.3175221000000001, 103.89887737183973"
108 HOUGANG AVENUE 1,108,HOUGANG AVE 1,"1.3530486000000002, 103.8897018699488"
625 JURONG WEST STREET 61,625,JURONG WEST ST 61,"1.34135, 103.69862436412367"
105 POTONG PASIR AVENUE 1,105,POTONG PASIR AVE 1,"1.3344464999999999, 103.86886229899616"
706 WOODLANDS DRIVE 40,706,WOODLANDS DR 40,"Error: Road retrieved. Returned address Woodlands Drive 40, Woodlands, Northwest, 738489, Singapore"
132 BEDOK NORTH STREET 2,132,BEDOK NTH ST 2,Error: geocode failed on input 132 BEDOK NORTH STREET 2
123 HOUGANG AVENUE 1,123,HOUGANG AVE 1,"Error: Block retrieved. Returned address 123, Hougang Ave 1, Hougang, Southeast, 530123, Singapore"
659D JURONG WEST STREET 65,659D,JURONG WEST ST 65,"1.3364615, 103.70268181393249"
492 ADMIRALTY LINK,492,ADMIRALTY LINK,"1.4564669000000001, 103.81717600410714"
266 YISHUN STREET 22,266,YISHUN ST 22,"1.43701245, 103.83881188076089"
809 YISHUN RING ROAD,809,YISHUN RING RD,"1.41649725, 103.8309150337169"
618 JURONG WEST STREET 65,618,JURONG WEST ST 65,"1.3415501, 103.70043466230717"
152 ANG MO KIO AVENUE 5,152,ANG MO KIO AVE 5,"1.3766775500000001, 103.84016711967655"
213 CHOA CHU KANG CENTRAL,213,CHOA CHU KANG CTRL,"1.3821387, 103.7472487536943"
1 PINE CLOSE,1,PINE CL,"1.3080464, 103.88317928733079"
902 JURONG WEST STREET 91,902,JURONG WEST ST 91,"1.33917505, 103.68669362399106"
204A COMPASSVALE DRIVE,204A,COMPASSVALE DR,"1.3881428, 103.8950473023651"
319 UBI AVENUE 1,319,UBI AVE 1,"1.3281733, 103.90349645382537"
102C PUNGGOL FIELD,102C,PUNGGOL FIELD,"Error: Road retrieved. Returned address Punggol Field, Punggol Cove, Punggol, Northeast, 820198, Singapore"
733 YISHUN AVENUE 5,733,YISHUN AVE 5,"1.4295095999999998, 103.83044959005892"
101 GANGSA ROAD,101,GANGSA RD,"Error: Road retrieved. Returned address Gangsa Road, Bukit Panjang, Northwest, 679002, Singapore"
520 SERANGOON NORTH AVENUE 4,520,SERANGOON NTH AVE 4,"1.37188985, 103.87410002652452"
617 YISHUN RING ROAD,617,YISHUN RING RD,"Error: Road retrieved. Returned address Yishun Ring Road, Yishun, Northwest, 760413, Singapore"
856F TAMPINES STREET 82,856F,TAMPINES ST 82,"1.3529135, 103.9383788"
417 JURONG WEST STREET 42,417,JURONG WEST ST 42,"1.3512453, 103.72700060559"
510 SERANGOON NORTH AVENUE 4,510,SERANGOON NTH AVE 4,"Error: Road retrieved. Returned address Serangoon North Avenue 4, Ang Mo Kio Industrial Park 2, Serangoon North, Singapore, Central, 555859, Singapore"
106 TAMPINES STREET 11,106,TAMPINES ST 11,"1.34755145, 103.9477306"
321 TAH CHING ROAD,321,TAH CHING RD,"1.33736225, 103.72445790506899"
949 JURONG WEST STREET 91,949,JURONG WEST ST 91,"1.34350485, 103.6916978853452"
412 SAUJANA ROAD,412,SAUJANA RD,"1.38289445, 103.76832086193184"
37 CIRCUIT ROAD,37,CIRCUIT RD,"1.3282009000000001, 103.88650377273999"
457 HOUGANG AVENUE 10,457,HOUGANG AVE 10,"1.37706465, 103.89613237565177"
197A BOON LAY DRIVE,197A,BOON LAY DR,"1.34423255, 103.71379558271354"
160 PASIR RIS STREET 13,160,PASIR RIS ST 13,"1.3641391, 103.96210275726116"
168C PUNGGOL FIELD,168C,PUNGGOL FIELD,"1.39389995, 103.91378857141001"
868 TAMPINES STREET 83,868,TAMPINES ST 83,"1.3547243999999998, 103.93404408605291"
395 BUKIT BATOK WEST AVENUE 5,395,BT BATOK WEST AVE 5,"1.3662670000000001, 103.75234899351852"
174 BUKIT BATOK WEST AVENUE 8,174,BT BATOK WEST AVE 8,"1.34562095, 103.74109136500994"
106 GANGSA ROAD,106,GANGSA RD,"Error: Road retrieved. Returned address Gangsa Road, Bukit Panjang, Northwest, 679002, Singapore"
543 JELAPANG ROAD,543,JELAPANG RD,"Error: Road retrieved. Returned address Jelapang Road, Bukit Panjang, Northwest, 671524, Singapore"
637C PUNGGOL DRIVE,637C,PUNGGOL DR,"1.3993090499999998, 103.91509862474248"
331C ANCHORVALE STREET,331C,ANCHORVALE ST,"1.3956819500000002, 103.88972148801719"
651 JALAN TENAGA,651,JLN TENAGA,"1.3321527, 103.90725399961407"
10D BEDOK SOUTH AVENUE 2,10D,BEDOK STH AVE 2,"1.3217892500000001, 103.93641385448154"
198 PASIR RIS STREET 12,198,PASIR RIS ST 12,"1.36694885, 103.96032327174831"
269C COMPASSVALE LINK,269C,COMPASSVALE LINK,"Error: Road retrieved. Returned address Compassvale Link, Seng Kang, Northeast, 541275, Singapore"
308 YISHUN RING ROAD,308,YISHUN RING RD,"Error: Road retrieved. Returned address Yishun Ring Road, Yishun, Northwest, 760413, Singapore"
349 YISHUN AVENUE 11,349,YISHUN AVE 11,"1.42612695, 103.84387050850026"
367 BUKIT BATOK STREET 31,367,BT BATOK ST 31,"1.3603307999999998, 103.74971863169986"
987B JURONG WEST STREET 93,987B,JURONG WEST ST 93,"1.3365766, 103.6947827667004"
767 CHOA CHU KANG STREET 54,767,CHOA CHU KANG ST 54,"Error: Road retrieved. Returned address Choa Chu Kang Street 54, Zhenghua, Northwest, 689577, Singapore"
262 JURONG EAST STREET 24,262,JURONG EAST ST 24,"1.3439811, 103.7410462"
859 JURONG WEST STREET 81,859,JURONG WEST ST 81,"1.34928885, 103.696124388095"
439B SENGKANG WEST AVENUE,439B,SENGKANG WEST AVE,"1.39206055, 103.87828758536898"
729 WOODLANDS CIRCLE,729,WOODLANDS CIRCLE,"1.4425951499999998, 103.7984197228084"
542 WOODLANDS DRIVE 16,542,WOODLANDS DR 16,"Error: Road retrieved. Returned address Woodlands Drive 16, Woodlands, Northwest, 730548, Singapore"
351B CANBERRA ROAD,351B,CANBERRA RD,"1.45089135, 103.81998665"
728 YISHUN STREET 71,728,YISHUN ST 71,"1.42577215, 103.83077969011683"
545 BUKIT PANJANG RING ROAD,545,BT PANJANG RING RD,"Error: Road retrieved. Returned address Bukit Panjang Ring Road, Bukit Panjang, Northwest, 679910, Singapore"
14 UPPER BOON KENG ROAD,14,UPP BOON KENG RD,"1.31493535, 103.87008954578724"
5 MARINE TERRACE,5,MARINE TER,"1.30456715, 103.91729193818159"
443C FERNVALE ROAD,443C,FERNVALE RD,"1.3913145, 103.87346904796854"
334 KRETA AYER ROAD,334,KRETA AYER RD,"1.28163205, 103.84231222587111"
442 CLEMENTI AVENUE 3,442,CLEMENTI AVE 3,"1.31411085, 103.7644654653042"
888 TAMPINES STREET 81,888,TAMPINES ST 81,"1.3507688500000001, 103.93126328074608"
102 GANGSA ROAD,102,GANGSA RD,"Error: Road retrieved. Returned address Gangsa Road, Bukit Panjang, Northwest, 679002, Singapore"
548 PASIR RIS STREET 51,548,PASIR RIS ST 51,"1.3684593, 103.95365064280173"
306C PUNGGOL PLACE,306C,PUNGGOL PL,"1.4064208, 103.9061294838126"
352 YISHUN RING ROAD,352,YISHUN RING RD,"1.4264633500000001, 103.84494384999999"
6 FARRER ROAD,6,FARRER RD,"Error: Not Singapore. Returned address 6, Farrer Road, Polk County, Florida, 33843, United States"
552 JURONG WEST STREET 42,552,JURONG WEST ST 42,"1.352804, 103.71799269307363"
579 HOUGANG AVENUE 4,579,HOUGANG AVE 4,"Error: Road retrieved. Returned address Hougang Avenue 4, Hougang, Northeast, 530682, Singapore"
640A YISHUN STREET 61,640A,YISHUN ST 61,"1.42094475, 103.8390571101314"
476 ANG MO KIO AVENUE 10,476,ANG MO KIO AVE 10,"Error: Road retrieved. Returned address Ang Mo Kio Avenue 10, Ang Mo Kio, Singapore, Central, 560449, Singapore"
94C BEDOK NORTH AVENUE 4,94C,BEDOK NTH AVE 4,"1.3334902, 103.94283447842156"
4 DELTA AVENUE,4,DELTA AVE,"Error: Not Singapore. Returned address 4, Delta Avenue, Fort Thomas, Campbell County, Kentucky, 41075, United States"
339 UBI AVENUE 1,339,UBI AVE 1,"1.3264601, 103.90197973333997"
309 HOUGANG AVENUE 5,309,HOUGANG AVE 5,"Error: Road retrieved. Returned address Hougang Avenue 5, Hougang, Northeast, 530334, Singapore"
958 HOUGANG STREET 91,958,HOUGANG ST 91,"1.37663105, 103.87983059405063"
621 HOUGANG AVENUE 8,621,HOUGANG AVE 8,"1.3701116500000001, 103.88311920026007"
18 JALAN TENTERAM,18,JLN TENTERAM,"1.32784845, 103.8601104805071"
449 YISHUN RING ROAD,449,YISHUN RING RD,"1.42266925, 103.84415773091729"
725 YISHUN STREET 71,725,YISHUN ST 71,"1.4269295, 103.83068857887051"
236 BUKIT PANJANG RING ROAD,236,BT PANJANG RING RD,"Error: Road retrieved. Returned address Bukit Panjang Ring Road, Bukit Panjang, Northwest, 679910, Singapore"
181 JELEBU ROAD,181,JELEBU RD,"Error: Road retrieved. Returned address Jelebu Road, Bukit Panjang, Northwest, 677743, Singapore"
4 TG PAGAR PLAZA,4,TG PAGAR PLAZA,"Error: Not Singapore. Returned address Tg Alam, Pagar Alam, Sumatera Selatan, Indonesia"
7 TECK WHYE AVENUE,7,TECK WHYE AVE,"1.3814559499999999, 103.75451400120306"
430 CLEMENTI AVENUE 3,430,CLEMENTI AVE 3,"1.3132708499999999, 103.7626222523804"
423 CANBERRA ROAD,423,CANBERRA RD,"1.45378655, 103.81819129061152"
136 RIVERVALE STREET,136,RIVERVALE ST,"Error: Not Singapore. Returned address Rivervale Street, Ormeau, Gold Coast City, Queensland, 4208, Australia"
742 WOODLANDS CIRCLE,742,WOODLANDS CIRCLE,"1.44405235, 103.79615078317408"
635 BEDOK RESERVOIR ROAD,635,BEDOK RESERVOIR RD,"1.3307226, 103.90485276013047"
988C BUANGKOK GREEN,988C,BUANGKOK GREEN,"1.38036435, 103.87732611991703"
5 CHANGI VILLAGE ROAD,5,CHANGI VILLAGE RD,"Error: Road retrieved. Returned address Changi Village Road, Changi Village, Changi, Southeast, 500001, Singapore"
338 SEMBAWANG CRESCENT,338,SEMBAWANG CRES,"1.4458738, 103.8152454166087"
142 LORONG 2 TOA PAYOH,142,LOR 2 TOA PAYOH,"1.3357052999999999, 103.84504363276413"
871 WOODLANDS STREET 81,871,WOODLANDS ST 81,"Error: Road retrieved. Returned address Woodlands St 81, Woodlands, Northwest, 738525, Singapore"
896A WOODLANDS DRIVE 50,896A,WOODLANDS DR 50,"1.4363628, 103.79333384217709"
621 BEDOK RESERVOIR ROAD,621,BEDOK RESERVOIR RD,"1.33454915, 103.91684376546982"
413 CHOA CHU KANG AVENUE 3,413,CHOA CHU KANG AVE 3,"1.3813772, 103.74268887401371"
195D PUNGGOL ROAD,195D,PUNGGOL RD,"Error: Road retrieved. Returned address Punggol Road, Punggol, Northeast, 820198, Singapore"
230 LORONG 8 TOA PAYOH,230,LOR 8 TOA PAYOH,"Error: Road retrieved. Returned address Lorong 8 Toa Payoh, Toa Payoh, Singapore, Central, 310229, Singapore"
167 BUKIT BATOK WEST AVENUE 8,167,BT BATOK WEST AVE 8,"1.34690495, 103.74229532360239"
250 TAMPINES STREET 21,250,TAMPINES ST 21,"1.3522671000000002, 103.94848068174038"
411 BEDOK NORTH AVENUE 2,411,BEDOK NTH AVE 2,"1.32828785, 103.93180904359372"
361 YISHUN RING ROAD,361,YISHUN RING RD,"1.42826385, 103.84593339937538"
307 CHOA CHU KANG AVENUE 4,307,CHOA CHU KANG AVE 4,"1.3853596499999998, 103.74257100164294"
694 HOUGANG STREET 61,694,HOUGANG ST 61,"Error: Road retrieved. Returned address Hougang Street 61, Hougang, Northeast, 538793, Singapore"
830 TAMPINES STREET 82,830,TAMPINES ST 82,"1.3501886, 103.93474050281898"
332 CLEMENTI AVENUE 2,332,CLEMENTI AVE 2,"1.31474555, 103.76750914685249"
10 EUNOS CRESCENT,10,EUNOS CRES,"1.32231075, 103.90278503723323"
311 BUKIT BATOK STREET 32,311,BT BATOK ST 32,"1.36006615, 103.74839193923627"
180 LOMPANG ROAD,180,LOMPANG RD,"Error: Road retrieved. Returned address Lompang Road, Bukit Panjang, Northwest, 677743, Singapore"
15 MARINE TERRACE,15,MARINE TER,"Error: Not Singapore. Returned address 15, Marine Terrace, Parsonage, Muchalls, Aberdeenshire, Scotland, AB39 3RD, United Kingdom"
523 BEDOK NORTH STREET 3,523,BEDOK NTH ST 3,"1.33433005, 103.93057077988286"
21 TEBAN GARDENS ROAD,21,TEBAN GDNS RD,"1.323722, 103.73945944875888"
106 JALAN RAJAH,106,JLN RAJAH,"1.32835865, 103.85499481935832"
229 SERANGOON AVENUE 4,229,SERANGOON AVE 4,"Error: Road retrieved. Returned address Serangoon Avenue 4, Serangoon Green, Serangoon, Southeast, 551223, Singapore"
496C TAMPINES STREET 43,496C,TAMPINES ST 43,"1.36202315, 103.95032819344937"
777 YISHUN AVENUE 2,777,YISHUN AVE 2,"Error: Road retrieved. Returned address Yishun Avenue 2, Yishun, Northwest, 760175, Singapore"
120 BUKIT BATOK CENTRAL,120,BT BATOK CTRL,"1.3509313500000002, 103.74761607948531"
122 GEYLANG EAST CENTRAL,122,GEYLANG EAST CTRL,"Error: Road retrieved. Returned address Geylang East Central, Geylang, Southeast, 389708, Singapore"
707 HOUGANG AVENUE 2,707,HOUGANG AVE 2,"1.3665049, 103.8884604631548"
177 YUNG SHENG ROAD,177,YUNG SHENG RD,"Error: Road retrieved. Returned address Yung Sheng Road, Jurong West, Southwest, 610182, Singapore"
47 MARINE CRESCENT,47,MARINE CRES,"1.30538205, 103.9121803882599"
201B PUNGGOL FIELD,201B,PUNGGOL FIELD,"1.3999625500000001, 103.9038763823174"
299B COMPASSVALE STREET,299B,COMPASSVALE ST,"Error: Road retrieved. Returned address Compassvale Street, Seng Kang, Northeast, 540294, Singapore"
85A LORONG 4 TOA PAYOH,85A,LOR 4 TOA PAYOH,"1.3363038500000002, 103.84941162471823"
866 YISHUN STREET 81,866,YISHUN ST 81,"1.41439935, 103.83719568172816"
38 KIM PONG ROAD,38,KIM PONG RD,"Error: Road retrieved. Returned address Kim Pong Road, Bukit Merah, Singapore, Central, 163028, Singapore"
531 JELAPANG ROAD,531,JELAPANG RD,"Error: Road retrieved. Returned address Jelapang Road, Bukit Panjang, Northwest, 671524, Singapore"
53 CHIN SWEE ROAD,53,CHIN SWEE RD,"1.28761575, 103.84140105235244"
472 CHOA CHU KANG AVENUE 3,472,CHOA CHU KANG AVE 3,"1.37915235, 103.73801995546627"
489A CHOA CHU KANG AVENUE 5,489A,CHOA CHU KANG AVE 5,"1.37553925, 103.74042380572178"
341A SEMBAWANG CLOSE,341A,SEMBAWANG CL,"Error: Road retrieved. Returned address Sembawang Close, Sun Trellis, Sembawang, Northwest, 750333, Singapore"
336C YISHUN STREET 31,336C,YISHUN ST 31,"1.43195185, 103.84439392024777"
236 PASIR RIS STREET 21,236,PASIR RIS ST 21,"1.37417975, 103.96250814512575"
227 SERANGOON AVENUE 4,227,SERANGOON AVE 4,"1.35623275, 103.87087319239542"
661 HOUGANG AVENUE 4,661,HOUGANG AVE 4,"Error: Road retrieved. Returned address Hougang Avenue 4, Hougang, Northeast, 530682, Singapore"
722 JURONG WEST AVENUE 5,722,JURONG WEST AVE 5,"1.3437391, 103.69840696696787"
15 FARRER PARK ROAD,15,FARRER PK RD,"1.3111286500000001, 103.85181527506305"
102 JALAN DUSUN,102,JLN DUSUN,"Error: Road retrieved. Returned address Jalan Dusun, Novena, Singapore, Central, 329885, Singapore"
419 PASIR RIS DRIVE 6,419,PASIR RIS DR 6,"1.3716363, 103.95476374063342"
244 COMPASSVALE ROAD,244,COMPASSVALE RD,"1.3934442, 103.89916438468282"
221 LORONG 8 TOA PAYOH,221,LOR 8 TOA PAYOH,"Error: Road retrieved. Returned address Lorong 8 Toa Payoh, Toa Payoh, Singapore, Central, 310229, Singapore"
852 HOUGANG CENTRAL,852,HOUGANG CTRL,"1.3697693, 103.89370456428209"
639 YISHUN STREET 61,639,YISHUN ST 61,"1.42054715, 103.83845051694026"
614 ANG MO KIO AVENUE 4,614,ANG MO KIO AVE 4,"1.3780483499999998, 103.83939348606418"
101C PUNGGOL FIELD,101C,PUNGGOL FIELD,"1.39820385, 103.90674275937374"
175 ANG MO KIO AVENUE 4,175,ANG MO KIO AVE 4,"Error: Road retrieved. Returned address Ang Mo Kio Avenue 4, Ang Mo Kio, Singapore, Central, 568987, Singapore"
638C PUNGGOL DRIVE,638C,PUNGGOL DR,"1.3997906, 103.91553604562625"
343 YISHUN AVENUE 11,343,YISHUN AVE 11,"Error: Road retrieved. Returned address Yishun Avenue 11, Yishun, Northwest, 760413, Singapore"
106B DEPOT ROAD,106B,DEPOT RD,"1.2806748, 103.81082502879838"
808D CHOA CHU KANG AVENUE 1,808D,CHOA CHU KANG AVE 1,"Error: Road retrieved. Returned address Choa Chu Kang Avenue 1, Choa Chu Kang, Southwest, 682296, Singapore"
306C ANCHORVALE LINK,306C,ANCHORVALE LINK,"1.39007445, 103.88787842510017"
112 BEDOK RESERVOIR ROAD,112,BEDOK RESERVOIR RD,"1.32967695, 103.91035606477229"
166 BISHAN STREET 13,166,BISHAN ST 13,"1.3486326499999999, 103.85510491705668"
326 CLEMENTI AVENUE 5,326,CLEMENTI AVE 5,"Error: Road retrieved. Returned address Clementi Avenue 5, Clementi, Southwest, 120335, Singapore"
289D PUNGGOL PLACE,289D,PUNGGOL PL,"1.4020567000000002, 103.90362919547758"
189A RIVERVALE DRIVE,189A,RIVERVALE DR,"Error: Not Singapore. Returned address Rivervale Drive, Santa Cruz County, California, 95073, United States"
11 JOO SENG ROAD,11,JOO SENG RD,"Error: Road retrieved. Returned address Joo Seng Road, Joo Seng, Southeast, 349700, Singapore"
622 WOODLANDS DRIVE 52,622,WOODLANDS DR 52,"1.4344165, 103.79868103386664"
635 YISHUN STREET 61,635,YISHUN ST 61,"1.41920345, 103.83899394145162"
10 JALAN KUKOH,10,JLN KUKOH,"1.2869472499999999, 103.8390795"
406 CHOA CHU KANG AVENUE 3,406,CHOA CHU KANG AVE 3,"1.3801955000000001, 103.74004941379289"
671A CHOA CHU KANG CRESCENT,671A,CHOA CHU KANG CRES,"Error: Road retrieved. Returned address Choa Chu Kang Crescent, Northwest, 689097, Singapore"
609 CLEMENTI WEST STREET 1,609,CLEMENTI WEST ST 1,"1.30405605, 103.76553421786328"
435 HOUGANG AVENUE 8,435,HOUGANG AVE 8,"Error: Road retrieved. Returned address Hougang Avenue 8, Hougang, Northeast, 530631, Singapore"
50 COMMONWEALTH DRIVE,50,C'WEALTH DR,"Error: Not Singapore. Returned address 50, Commonwealth Drive, Town of Bethlehem, Albany County, New York, 12077, United States"
243 TAMPINES STREET 21,243,TAMPINES ST 21,"1.3541716, 103.94711268403657"
683C WOODLANDS DRIVE 62,683C,WOODLANDS DR 62,"Error: Road retrieved. Returned address Woodlands Drive 62, Woodlands, Northwest, 737942, Singapore"
796 WOODLANDS DRIVE 72,796,WOODLANDS DR 72,"Error: Road retrieved. Returned address Woodlands Drive 72, Woodlands, Northwest, 730789, Singapore"
134 YISHUN STREET 11,134,YISHUN ST 11,"1.4323644500000001, 103.83139617894295"
354 ANG MO KIO STREET 32,354,ANG MO KIO ST 32,"1.36396695, 103.8519937564394"
98 BEDOK NORTH AVENUE 4,98,BEDOK NTH AVE 4,"1.3342282, 103.93982195090473"
238 BUKIT PANJANG RING ROAD,238,BT PANJANG RING RD,"Error: Road retrieved. Returned address Bukit Panjang Ring Road, Bukit Panjang, Northwest, 679910, Singapore"
608 SENJA ROAD,608,SENJA RD,"Error: Road retrieved. Returned address Senja Road, Bukit Panjang, Northwest, 677741, Singapore"
467B ADMIRALTY DRIVE,467B,ADMIRALTY DR,"Error: Not Singapore. Returned address Admiralty Drive, Sunset Beach, Huntington Beach, Orange County, California, 92649, United States"
210 TAMPINES STREET 23,210,TAMPINES ST 23,"1.3540577, 103.953967776"
302 TAMPINES STREET 32,302,TAMPINES ST 32,"1.35262685, 103.95519684081721"
778 YISHUN AVENUE 2,778,YISHUN AVE 2,"Error: Road retrieved. Returned address Yishun Avenue 2, Yishun, Northwest, 760175, Singapore"
642 YISHUN STREET 61,642,YISHUN ST 61,"1.42090345, 103.8374263"
658 YISHUN AVENUE 4,658,YISHUN AVE 4,"1.4218023, 103.83926797945179"
269 TAMPINES STREET 21,269,TAMPINES ST 21,"Error: Road retrieved. Returned address Tampines Street 21, Tampines, Northeast, 520241, Singapore"
176 ANG MO KIO AVENUE 4,176,ANG MO KIO AVE 4,"Error: Road retrieved. Returned address Ang Mo Kio Avenue 4, Ang Mo Kio, Singapore, Central, 568987, Singapore"
387 BUKIT BATOK WEST AVENUE 5,387,BT BATOK WEST AVE 5,"1.36484325, 103.75259874233973"
711 CLEMENTI WEST STREET 2,711,CLEMENTI WEST ST 2,"1.30502805, 103.76109553449069"
713 JURONG WEST STREET 71,713,JURONG WEST ST 71,"1.34352555, 103.69619334465213"
261 BOON LAY DRIVE,261,BOON LAY DR,"1.3454853, 103.7077685706362"
166 YISHUN RING ROAD,166,YISHUN RING RD,"1.4361308, 103.83188287034918"
102 ANG MO KIO AVENUE 3,102,ANG MO KIO AVE 3,"Error: Road retrieved. Returned address Ang Mo Kio Avenue 3, Ang Mo Kio, Singapore, Central, 560564, Singapore"
116 BISHAN STREET 12,116,BISHAN ST 12,"1.347461, 103.84954582963363"
108 SIMEI STREET 1,108,SIMEI ST 1,"1.3429722, 103.95101418655096"
839 WOODLANDS STREET 82,839,WOODLANDS ST 82,"1.44282865, 103.79173107114401"
421 CHOA CHU KANG AVENUE 4,421,CHOA CHU KANG AVE 4,"1.3817811, 103.741031"
305D PUNGGOL DRIVE,305D,PUNGGOL DR,"Error: Road retrieved. Returned address Punggol Drive, Punggol, Northeast, 821665, Singapore"
496D TAMPINES AVENUE 9,496D,TAMPINES AVE 9,"1.3614963, 103.95038274011559"
109 BISHAN STREET 12,109,BISHAN ST 12,"Error: Road retrieved. Returned address Bishan Street 12, Bishan, Singapore, Central, 570139, Singapore"
169 LORONG 1 TOA PAYOH,169,LOR 1 TOA PAYOH,"Error: Road retrieved. Returned address Lorong 1 Toa Payoh, Toa Payoh, Singapore, Central, 313130, Singapore"
310 CLEMENTI AVENUE 4,310,CLEMENTI AVE 4,"1.32023545, 103.76608136487303"
163B RIVERVALE CRESCENT,163B,RIVERVALE CRES,"1.38913285, 103.90873809000594"
862 WOODLANDS STREET 83,862,WOODLANDS ST 83,"Error: Road retrieved. Returned address Woodlands Street 83, Woodlands, Northwest, 738489, Singapore"
532 BEDOK NORTH STREET 3,532,BEDOK NTH ST 3,"1.33397915, 103.92518715710797"
176 LOMPANG ROAD,176,LOMPANG RD,"Error: Road retrieved. Returned address Lompang Road, Bukit Panjang, Northwest, 677743, Singapore"
24 HOUGANG AVENUE 3,24,HOUGANG AVE 3,"1.3656055500000002, 103.89205370670612"
645 HOUGANG AVENUE 8,645,HOUGANG AVE 8,"1.37176845, 103.88144141923571"
12 FARRER PARK ROAD,12,FARRER PK RD,"1.3120277, 103.85167627533578"
113 LORONG 3 GEYLANG,113,LOR 3 GEYLANG,"1.31178035, 103.87381145749501"
211B PUNGGOL WALK,211B,PUNGGOL WALK,"1.40121245, 103.89977998927513"
435C FERNVALE ROAD,435C,FERNVALE RD,"1.3936515, 103.87685373996666"
498A TAMPINES STREET 45,498A,TAMPINES ST 45,"1.3615292, 103.95804511038438"
342B YISHUN RING ROAD,342B,YISHUN RING RD,"1.4302288, 103.8447848164324"
215 CHOA CHU KANG CENTRAL,215,CHOA CHU KANG CTRL,"1.3829023999999999, 103.74706986286668"
314 UBI AVENUE 1,314,UBI AVE 1,"1.3291434, 103.9035045321431"
237 YISHUN RING ROAD,237,YISHUN RING RD,"1.43344825, 103.8388810696008"
127 ANG MO KIO AVENUE 3,127,ANG MO KIO AVE 3,"Error: Road retrieved. Returned address Ang Mo Kio Avenue 3, Ang Mo Kio, Singapore, Central, 560564, Singapore"
551 CHOA CHU KANG STREET 52,551,CHOA CHU KANG ST 52,"Error: Road retrieved. Returned address Choa Chu Kang Street 52, Northwest, 689286, Singapore"
217 JURONG EAST STREET 21,217,JURONG EAST ST 21,"1.3399488499999999, 103.73806988533556"
273A JURONG WEST AVENUE 3,273A,JURONG WEST AVE 3,"1.35143835, 103.70351903893206"
709 TAMPINES STREET 71,709,TAMPINES ST 71,"1.35804825, 103.93765318582533"
157 WOODLANDS STREET 13,157,WOODLANDS ST 13,"Error: Road retrieved. Returned address Woodlands Street 13, Woodlands, Northwest, 738623, Singapore"
762 YISHUN STREET 72,762,YISHUN ST 72,"Error: Road retrieved. Returned address Yishun Street 72, Yishun, Northwest, 760731, Singapore"
723 YISHUN STREET 71,723,YISHUN ST 71,"1.42607355, 103.8299186918859"
406 ANG MO KIO AVENUE 10,406,ANG MO KIO AVE 10,"Error: Road retrieved. Returned address Ang Mo Kio Avenue 10, Ang Mo Kio, Singapore, Central, 560449, Singapore"
38B BENDEMEER ROAD,38B,BENDEMEER RD,"Error: Not Singapore. Returned address Bendemeer Road, London Borough of Wandsworth, London, Greater London, England, SW15 1EU, United Kingdom"
214 ANG MO KIO AVENUE 3,214,ANG MO KIO AVE 3,"Error: Road retrieved. Returned address Ang Mo Kio Avenue 3, Ang Mo Kio, Singapore, Central, 560564, Singapore"
443A FAJAR ROAD,443A,FAJAR RD,"1.3814666500000001, 103.769648580244"
429 PASIR RIS DRIVE 6,429,PASIR RIS DR 6,"1.37002425, 103.95677835670564"
3 LORONG 7 TOA PAYOH,3,LOR 7 TOA PAYOH,"1.3391920000000002, 103.85447744999999"
714 CLEMENTI WEST STREET 2,714,CLEMENTI WEST ST 2,"1.3039898, 103.76189325625282"
272C JURONG WEST STREET 24,272C,JURONG WEST ST 24,"1.3509177499999998, 103.70470373506677"
988C JURONG WEST STREET 93,988C,JURONG WEST ST 93,"1.3359012, 103.6959311"
521 WOODLANDS DRIVE 14,521,WOODLANDS DR 14,"Error: Road retrieved. Returned address Woodlands Drive 14, Fragrant Woods, Woodlands, Northwest, 738079, Singapore"
689F WOODLANDS DRIVE 75,689F,WOODLANDS DR 75,NONE
628 YISHUN STREET 61,628,YISHUN ST 61,"Error: Road retrieved. Returned address Yishun Street 61, Nee Soon Central Meadows, Yishun, Northwest, 768548, Singapore"
295 CHOA CHU KANG AVENUE 2,295,CHOA CHU KANG AVE 2,"1.37822315, 103.74107142474821"
979A BUANGKOK CRESCENT,979A,BUANGKOK CRES,"Error: Road retrieved. Returned address Buangkok Crescent, Hougang, Northeast, 536980, Singapore"
479 PASIR RIS DRIVE 4,479,PASIR RIS DR 4,"1.3751407, 103.95950798930483"
332 TAMPINES STREET 32,332,TAMPINES ST 32,"1.3533643, 103.96064760252145"
635 ANG MO KIO AVENUE 6,635,ANG MO KIO AVE 6,"Error: Road retrieved. Returned address Ang Mo Kio Avenue 6, Ang Mo Kio, Singapore, Central, 569845, Singapore"
322 UBI AVENUE 1,322,UBI AVE 1,"1.32802805, 103.90498647967523"
139 TAMPINES STREET 11,139,TAMPINES ST 11,"1.34637605, 103.9450248427422"
686A WOODLANDS DRIVE 73,686A,WOODLANDS DR 73,"1.44219885, 103.80553090298652"
403 SIN MING AVENUE,403,SIN MING AVE,"1.3628103500000002, 103.83311130066438"
88 COMMONWEALTH CLOSE,88,C'WEALTH CL,"1.3048546, 103.79922298162589"
296C COMPASSVALE CRESCENT,296C,COMPASSVALE CRES,"1.39747185, 103.89963192978277"
340 CHOA CHU KANG LOOP,340,CHOA CHU KANG LOOP,"1.3840827999999998, 103.74549721797288"
312 JURONG EAST STREET 32,312,JURONG EAST ST 32,"1.34721415, 103.73188833651486"
619 ANG MO KIO AVENUE 4,619,ANG MO KIO AVE 4,"1.3785227500000001, 103.83848947021875"
305 SHUNFU ROAD,305,SHUNFU RD,"1.35010695, 103.83876000070319"
2 BEACH ROAD,2,BEACH RD,"Error: Not Singapore. Returned address 2, Beach Road, Halfmoon Beach, Clifton Park, Town of Halfmoon, Saratoga County, New York, 12065, United States"
702 WOODLANDS DRIVE 40,702,WOODLANDS DR 40,"Error: Road retrieved. Returned address Woodlands Drive 40, Woodlands, Northwest, 738489, Singapore"
103 BISHAN STREET 12,103,BISHAN ST 12,"Error: Road retrieved. Returned address Bishan Street 12, Bishan, Singapore, Central, 570139, Singapore"
193 BUKIT BATOK WEST AVENUE 6,193,BT BATOK WEST AVE 6,"1.34594955, 103.74448766097709"
673C EDGEFIELD PLAINS,673C,EDGEFIELD PLAINS,"1.4072661499999999, 103.91061600625"
4 HOLLAND CLOSE,4,HOLLAND CL,"1.30814235, 103.7960137907919"
81 STRATHMORE AVENUE,81,STRATHMORE AVE,"Error: Not Singapore. Returned address 81, Strathmore Avenue, Buffalo, Erie County, New York, 14220, United States"
410A FERNVALE ROAD,410A,FERNVALE RD,"1.39019045, 103.87596644124227"
125 RIVERVALE STREET,125,RIVERVALE ST,"1.38899705, 103.90266986041962"
890C TAMPINES AVENUE 1,890C,TAMPINES AVE 1,"1.3473886, 103.93384851404404"
890A TAMPINES AVENUE 1,890A,TAMPINES AVE 1,"1.34671975, 103.93387617445754"
409 WOODLANDS STREET 41,409,WOODLANDS ST 41,"1.42904805, 103.77331092702966"
522 WOODLANDS DRIVE 14,522,WOODLANDS DR 14,"Error: Road retrieved. Returned address Woodlands Drive 14, Fragrant Woods, Woodlands, Northwest, 738079, Singapore"
171 YISHUN AVENUE 7,171,YISHUN AVE 7,"1.4369083, 103.83212593048185"
107 BUKIT BATOK WEST AVENUE 6,107,BT BATOK WEST AVE 6,"1.3478452, 103.7468113385716"
49 DORSET ROAD,49,DORSET RD,"Error: Not Singapore. Returned address 49, Dorset Road, Fireplace, Suffolk County, New York, 11937, United States"
394 BUKIT BATOK WEST AVENUE 5,394,BT BATOK WEST AVE 5,"1.3663636000000001, 103.75283907106822"
38 JALAN RUMAH TINGGI,38,JLN RUMAH TINGGI,"1.28873075, 103.80976902516207"
135 CASHEW ROAD,135,CASHEW RD,"Error: Not Singapore. Returned address 135, Cashew Road, Greensboro, Hale County, Alabama, 36744, United States"
310 HOUGANG AVENUE 5,310,HOUGANG AVE 5,"1.36637995, 103.8961696444062"
412B FERNVALE LINK,412B,FERNVALE LINK,"1.3897826, 103.87797925906294"
123 PAYA LEBAR WAY,123,PAYA LEBAR WAY,"1.32274445, 103.88329689756097"
360 YUNG AN ROAD,360,YUNG AN RD,"1.33605505, 103.72082663587021"
4 TOH YI DRIVE,4,TOH YI DR,"1.33853615, 103.77440426333834"
810 TAMPINES AVENUE 4,810,TAMPINES AVE 4,"1.3464600999999998, 103.93655595573648"
123 KIM TIAN ROAD,123,KIM TIAN RD,"1.2837025, 103.82920367886385"
772 PASIR RIS STREET 71,772,PASIR RIS ST 71,"1.3753746, 103.93678253875032"
110A PUNGGOL FIELD,110A,PUNGGOL FIELD,"1.3963709, 103.9090457"
320A ANCHORVALE DRIVE,320A,ANCHORVALE DR,"1.3903301, 103.89079933117958"
2 CHAI CHEE ROAD,2,CHAI CHEE RD,"1.3269415, 103.92243793133756"
402 HOUGANG AVENUE 10,402,HOUGANG AVE 10,"Error: Road retrieved. Returned address Hougang Avenue 10, Hougang, Northeast, 538766, Singapore"
455 HOUGANG AVENUE 10,455,HOUGANG AVE 10,"Error: Road retrieved. Returned address Hougang Avenue 10, Hougang, Northeast, 538766, Singapore"
102B PUNGGOL FIELD,102B,PUNGGOL FIELD,"1.3991946, 103.90538382554479"
671B KLANG LANE,671B,KLANG LANE,"Error: Road retrieved. Returned address Klang Lane, Rochor, Singapore, Central, 219924, Singapore"
348 UBI AVENUE 1,348,UBI AVE 1,"1.32617055, 103.9006105012342"
293A COMPASSVALE CRESCENT,293A,COMPASSVALE CRES,"1.3964307, 103.8959386555216"
38 LORONG 5 TOA PAYOH,38,LOR 5 TOA PAYOH,"1.3353065, 103.8556829"
6 BEACH ROAD,6,BEACH RD,"Error: Not Singapore. Returned address 6, Beach Road, Bellview Beach, Suffolk County, New York, 11934, United States"
129 BUKIT BATOK WEST AVENUE 6,129,BT BATOK WEST AVE 6,"1.3514106, 103.74611890120772"
230E TAMPINES STREET 24,230E,TAMPINES ST 24,"1.3560889999999999, 103.95106575"
435 ANG MO KIO AVENUE 10,435,ANG MO KIO AVE 10,"Error: Road retrieved. Returned address Ang Mo Kio Avenue 10, Ang Mo Kio, Singapore, Central, 560449, Singapore"
94 GEYLANG BAHRU,94,GEYLANG BAHRU,"1.3226607499999998, 103.87137131760369"
750 YISHUN STREET 72,750,YISHUN ST 72,"1.4279989, 103.83428946434088"
116 LENGKONG TIGA,116,LENGKONG TIGA,"1.3228763, 103.91168448463522"
238 BUKIT BATOK EAST AVENUE 5,238,BT BATOK EAST AVE 5,"1.34997735, 103.75451574441294"
602C PUNGGOL CENTRAL,602C,PUNGGOL CTRL,"1.4028291, 103.90717020660905"
54 LORONG 5 TOA PAYOH,54,LOR 5 TOA PAYOH,"Error: Road retrieved. Returned address Lorong 5 Toa Payoh, Toa Payoh, Singapore, Central, 310034, Singapore"
268 BISHAN STREET 24,268,BISHAN ST 24,"1.35749725, 103.84189258032242"
630 JURONG WEST STREET 65,630,JURONG WEST ST 65,"1.34267235, 103.70020969305786"
160 MEI LING STREET,160,MEI LING ST,"1.2920658999999999, 103.8043038834926"
116A RIVERVALE DRIVE,116A,RIVERVALE DR,"1.3825946500000001, 103.90257309711112"
889 TAMPINES STREET 81,889,TAMPINES ST 81,"1.3498510000000001, 103.93115902863552"
645 YISHUN STREET 61,645,YISHUN ST 61,"Error: Road retrieved. Returned address Yishun Street 61, Nee Soon Central Meadows, Yishun, Northwest, 768548, Singapore"
469C SENGKANG WEST WAY,469C,SENGKANG WEST WAY,"1.3963961, 103.87770712841984"
575 HOUGANG STREET 51,575,HOUGANG ST 51,"1.37796525, 103.88696274386824"
366 CORPORATION DRIVE,366,CORPORATION DR,"1.33808645, 103.7196431693363"
945 JURONG WEST STREET 91,945,JURONG WEST ST 91,"1.3442349999999998, 103.69015829686359"
310A PUNGGOL WALK,310A,PUNGGOL WALK,"1.4090714, 103.9013588201766"
477 TAMPINES STREET 43,477,TAMPINES ST 43,"1.36093565, 103.95243332520765"
787D WOODLANDS CRESCENT,787D,WOODLANDS CRES,"1.4453022999999998, 103.8014275275886"
850 WOODLANDS STREET 82,850,WOODLANDS ST 82,"Error: Road retrieved. Returned address Woodlands Street 82, Woodlands, Northwest, 738954, Singapore"
770 YISHUN AVENUE 3,770,YISHUN AVE 3,"1.4244126499999998, 103.83209819924687"
10 TECK WHYE AVENUE,10,TECK WHYE AVE,"Error: Road retrieved. Returned address Teck Whye Avenue, Choa Chu Kang, Southwest, 680010, Singapore"
115 WHAMPOA ROAD,115,WHAMPOA RD,"1.32643215, 103.85758062735965"
305D ANCHORVALE LINK,305D,ANCHORVALE LINK,"1.3890292, 103.88732421892"
553 WOODLANDS DRIVE 44,553,WOODLANDS DR 44,"1.4316332, 103.7949072135871"
451 ANG MO KIO AVENUE 10,451,ANG MO KIO AVE 10,"Error: Road retrieved. Returned address Ang Mo Kio Avenue 10, Ang Mo Kio, Singapore, Central, 560449, Singapore"
404 BEDOK NORTH AVENUE 3,404,BEDOK NTH AVE 3,"1.3293495, 103.93396337817384"
222 BUKIT BATOK EAST AVENUE 3,222,BT BATOK EAST AVE 3,"1.34783215, 103.75400042728626"
699C HOUGANG STREET 52,699C,HOUGANG ST 52,"Error: Road retrieved. Returned address Hougang Street 52, Hougang, Northeast, 530699, Singapore"
66 MARINE DRIVE,66,MARINE DR,"1.3038846, 103.90973548696641"
759 WOODLANDS AVENUE 6,759,WOODLANDS AVE 6,"Error: Road retrieved. Returned address Woodlands Avenue 6, Woodlands, Northwest, 737858, Singapore"
104 WOODLANDS STREET 13,104,WOODLANDS ST 13,"1.43644535, 103.78160378059441"
855 WOODLANDS STREET 83,855,WOODLANDS ST 83,"1.4401414, 103.79314950072165"
312 BUKIT BATOK STREET 32,312,BT BATOK ST 32,"1.3598712000000002, 103.74756680806979"
117 BEDOK NORTH ROAD,117,BEDOK NTH RD,"1.3306745, 103.93865997318979"
40 JALAN BAHAGIA,40,JLN BAHAGIA,"1.3273248500000001, 103.85620850000001"
43 MARINE CRESCENT,43,MARINE CRES,"1.3055406999999999, 103.9130303379668"
638B PUNGGOL DRIVE,638B,PUNGGOL DR,"1.3999485, 103.9151694747392"
611 BEDOK RESERVOIR ROAD,611,BEDOK RESERVOIR RD,"1.33105705, 103.91524226298515"
285 BISHAN STREET 22,285,BISHAN ST 22,"1.3588413, 103.84385347762068"
13 CANTONMENT CLOSE,13,CANTONMENT CL,"1.274708, 103.84052804252133"
372 CLEMENTI AVENUE 4,372,CLEMENTI AVE 4,"1.3197704, 103.76782960626159"
948 JURONG WEST STREET 91,948,JURONG WEST ST 91,"1.34439735, 103.69100848058531"
232 PASIR RIS DRIVE 4,232,PASIR RIS DR 4,"1.37456845, 103.96151120133288"
443B FERNVALE ROAD,443B,FERNVALE RD,"1.3912724, 103.87406772441861"
309 SERANGOON AVENUE 2,309,SERANGOON AVE 2,"Error: Road retrieved. Returned address Serangoon Avenue 2, Serangoon, Southeast, 556138, Singapore"
540 ANG MO KIO AVENUE 10,540,ANG MO KIO AVE 10,"1.3751224, 103.85516867496611"
88 BEDOK NORTH STREET 4,88,BEDOK NTH ST 4,"1.3331407, 103.9390281"
716 CLEMENTI WEST STREET 2,716,CLEMENTI WEST ST 2,"Error: Road retrieved. Returned address Clementi West Street 2, Clementi, Southwest, 120721, Singapore"
383 BUKIT BATOK WEST AVENUE 5,383,BT BATOK WEST AVE 5,"1.3622668500000001, 103.75234902286566"
8B BOON TIONG ROAD,8B,BOON TIONG RD,"Error: Road retrieved. Returned address Boon Tiong Road, Boon Tiong Aracadia, Bukit Merah, Singapore, Central, 163028, Singapore"
323C SENGKANG EAST WAY,323C,SENGKANG EAST WAY,"1.3928622000000002, 103.89259111703124"
428 WOODLANDS STREET 41,428,WOODLANDS ST 41,"1.42698175, 103.77264070079431"
175 YISHUN AVENUE 7,175,YISHUN AVE 7,"1.4375665, 103.83254467774024"
751 CHOA CHU KANG NORTH 5,751,CHOA CHU KANG NTH 5,"Error: Road retrieved. Returned address Choa Chu Kang North 5, Northwest, 680533, Singapore"
269 TOH GUAN ROAD,269,TOH GUAN RD,"1.3415697999999998, 103.74563231339783"
523 JURONG WEST STREET 52,523,JURONG WEST ST 52,"1.34675325, 103.71619164621603"
912 JURONG WEST STREET 91,912,JURONG WEST ST 91,"1.3413783000000001, 103.68726291513678"
111 EDGEFIELD PLAINS,111,EDGEFIELD PLAINS,"1.3967171500000002, 103.90672185206975"
832 TAMPINES STREET 82,832,TAMPINES ST 82,"1.35008525, 103.93537578361786"
144 BEDOK RESERVOIR ROAD,144,BEDOK RESERVOIR RD,"1.33488585, 103.91248375214855"
172 HOUGANG AVENUE 1,172,HOUGANG AVE 1,"Error: Road retrieved. Returned address Hougang Avenue 1, Hougang, Northeast, 530110, Singapore"
940 HOUGANG STREET 92,940,HOUGANG ST 92,"1.3734541500000002, 103.87980498099417"
614 YISHUN STREET 61,614,YISHUN ST 61,"1.41974085, 103.8361781981992"
252 CHOA CHU KANG AVENUE 2,252,CHOA CHU KANG AVE 2,"1.37817835, 103.74525185961872"
203D COMPASSVALE ROAD,203D,COMPASSVALE RD,"1.3871547, 103.89553582351917"
167 BEDOK SOUTH AVENUE 3,167,BEDOK STH AVE 3,"1.3196103, 103.94491591312158"
101A LORONG 2 TOA PAYOH,101A,LOR 2 TOA PAYOH,"1.3397228, 103.84727618564389"
545 WOODLANDS DRIVE 16,545,WOODLANDS DR 16,"1.42926975, 103.79358668123132"
116 BEDOK NORTH ROAD,116,BEDOK NTH RD,"1.331026, 103.93823329489689"
133 BUKIT BATOK WEST AVENUE 6,133,BT BATOK WEST AVE 6,"1.3515905, 103.74500141311475"
6 LORONG LEW LIAN,6,LOR LEW LIAN,"1.3494434, 103.87730812026098"
520B TAMPINES CENTRAL 8,520B,TAMPINES CTRL 8,"1.35725105, 103.93967584937548"
332 UBI AVENUE 1,332,UBI AVE 1,"Error: Road retrieved. Returned address Ubi Avenue 1, Geylang, Southeast, 400345, Singapore"
256 ANG MO KIO AVENUE 4,256,ANG MO KIO AVE 4,"Error: Road retrieved. Returned address Ang Mo Kio Avenue 4, Ang Mo Kio, Singapore, Central, 568987, Singapore"
762 BEDOK RESERVOIR VIEW,762,BEDOK RESERVOIR VIEW,"1.3363128, 103.93459167200558"
20 EUNOS CRESCENT,20,EUNOS CRES,"1.3246651, 103.90338546565485"
931 HOUGANG STREET 91,931,HOUGANG ST 91,"1.3755027000000002, 103.88063594220952"
333 SERANGOON AVENUE 3,333,SERANGOON AVE 3,"Error: Road retrieved. Returned address Serangoon Avenue 3, The Scala, Serangoon, Southeast, 556112, Singapore"
210 HOUGANG STREET 21,210,HOUGANG ST 21,"1.35900395, 103.88718970196078"
628 JURONG WEST STREET 65,628,JURONG WEST ST 65,"1.34217355, 103.69945267239086"
83 COMMONWEALTH CLOSE,83,C'WEALTH CL,"1.30467435, 103.80042799560482"
341B SEMBAWANG CLOSE,341B,SEMBAWANG CL,"Error: Road retrieved. Returned address Sembawang Close, Sun Trellis, Sembawang, Northwest, 750333, Singapore"
415C FERNVALE LINK,415C,FERNVALE LINK,"1.3893479000000002, 103.88036763695146"
747B BEDOK RESERVOIR CRESCENT,747B,BEDOK RESERVOIR CRES,"1.3366405000000001, 103.92161105080501"
218 BISHAN STREET 23,218,BISHAN ST 23,"1.3568660000000001, 103.84971597315595"
690B CHOA CHU KANG CRESCENT,690B,CHOA CHU KANG CRES,"Error: Road retrieved. Returned address Choa Chu Kang Crescent, Northwest, 689097, Singapore"
504 HOUGANG AVENUE 8,504,HOUGANG AVE 8,"1.3733647, 103.88821347490706"
108 PASIR RIS STREET 12,108,PASIR RIS ST 12,"1.3675008499999999, 103.95705945101432"
536 BUKIT BATOK STREET 52,536,BT BATOK ST 52,"1.35550815, 103.75117056396218"
812 JURONG WEST STREET 81,812,JURONG WEST ST 81,"1.346335, 103.69566464870582"
28 NEW UPPER CHANGI ROAD,28,NEW UPP CHANGI RD,"1.3236778, 103.93508555164637"
302 SHUNFU ROAD,302,SHUNFU RD,"1.34955705, 103.83920987650208"
63 TEBAN GARDENS ROAD,63,TEBAN GDNS RD,"Error: Road retrieved. Returned address Teban Gardens Road, Teban Gardens, Jurong East, Southwest, 600049, Singapore"
577 PASIR RIS STREET 53,577,PASIR RIS ST 53,"1.3734414, 103.94684305218121"
679C PUNGGOL DRIVE,679C,PUNGGOL DR,"1.40642555, 103.90883295944813"
126D EDGEDALE PLAINS,126D,EDGEDALE PLAINS,"Error: Road retrieved. Returned address Edgedale Plains, Punggol, Northeast, 828867, Singapore"
293 BISHAN STREET 22,293,BISHAN ST 22,"Error: Road retrieved. Returned address Bishan Street 22, Bishan, Singapore, Central, 570293, Singapore"
312 UBI AVENUE 1,312,UBI AVE 1,"1.32967875, 103.90380173508487"
613 HOUGANG AVENUE 8,613,HOUGANG AVE 8,"Error: Road retrieved. Returned address Hougang Avenue 8, Hougang, Northeast, 530631, Singapore"
204 JURONG EAST STREET 21,204,JURONG EAST ST 21,"1.3374603, 103.74163461351333"
95 WHAMPOA DRIVE,95,WHAMPOA DR,"1.32220845, 103.85621870138675"
233 BAIN STREET,233,BAIN ST,"1.2968006, 103.8539024310368"
332 HOUGANG AVENUE 5,332,HOUGANG AVE 5,"Error: Road retrieved. Returned address Hougang Avenue 5, Hougang, Northeast, 530334, Singapore"
261C SENGKANG EAST WAY,261C,SENGKANG EAST WAY,"1.39332855, 103.89486569070641"
710 PASIR RIS STREET 72,710,PASIR RIS ST 72,"1.38204585, 103.93750470321567"
516 BEDOK NORTH AVENUE 2,516,BEDOK NTH AVE 2,"1.33102305, 103.93006189456521"
270 BANGKIT ROAD,270,BANGKIT RD,"1.37648825, 103.77414541402788"
638 CHOA CHU KANG STREET 64,638,CHOA CHU KANG ST 64,"Error: Road retrieved. Returned address Choa Chu Kang Street 64, Zhenghua, Northwest, 689097, Singapore"
117 CLEMENTI STREET 13,117,CLEMENTI ST 13,"1.324403, 103.77130583474761"
611 JURONG WEST STREET 65,611,JURONG WEST ST 65,"1.3389389, 103.70095739781401"
216A COMPASSVALE DRIVE,216A,COMPASSVALE DR,"1.3907322, 103.89334081581272"
462 HOUGANG AVENUE 10,462,HOUGANG AVE 10,"1.372192, 103.89464308497986"
980B BUANGKOK CRESCENT,980B,BUANGKOK CRES,"Error: Road retrieved. Returned address Buangkok Crescent, Hougang, Northeast, 536980, Singapore"
221A JURONG EAST STREET 21,221A,JURONG EAST ST 21,"1.3406771499999999, 103.73635123490925"
197B BOON LAY DRIVE,197B,BOON LAY DR,"1.34391305, 103.71343915818494"
337A TAH CHING ROAD,337A,TAH CHING RD,"1.3377330500000002, 103.72276792152472"
910 JURONG WEST STREET 91,910,JURONG WEST ST 91,"1.3420220999999999, 103.68624504639425"
433 TAMPINES STREET 43,433,TAMPINES ST 43,"1.3590154, 103.95108896466584"
855 TAMPINES STREET 83,855,TAMPINES ST 83,"1.35344525, 103.93553981050346"
570C WOODLANDS AVENUE 1,570C,WOODLANDS AVE 1,"1.4314491, 103.79013040000001"
541 BUKIT BATOK STREET 52,541,BT BATOK ST 52,"1.3540222, 103.75161262412706"
936 JURONG WEST STREET 91,936,JURONG WEST ST 91,"1.3425064, 103.68943358552971"
109B EDGEDALE PLAINS,109B,EDGEDALE PLAINS,"1.3950086, 103.90964404764591"
146 BISHAN STREET 11,146,BISHAN ST 11,"1.3443513999999999, 103.8539971939865"
453 SIN MING AVENUE,453,SIN MING AVE,"Error: Road retrieved. Returned address Sin Ming Avenue, Bishan, Singapore, Central, 579646, Singapore"
434 CHOA CHU KANG AVENUE 4,434,CHOA CHU KANG AVE 4,"1.3845879, 103.74099999715601"
613 CLEMENTI WEST STREET 1,613,CLEMENTI WEST ST 1,"1.3033697499999999, 103.7675524944988"
119 BEDOK RESERVOIR ROAD,119,BEDOK RESERVOIR RD,"1.33106165, 103.90945452360316"
302D PUNGGOL PLACE,302D,PUNGGOL PL,"Error: Road retrieved. Returned address Punggol Place, Punggol, Northeast, 828845, Singapore"
6 GHIM MOH ROAD,6,GHIM MOH RD,"1.3122869499999998, 103.78848871688174"
310 TAMPINES STREET 32,310,TAMPINES ST 32,"1.35345815, 103.95721586505215"
149 SILAT AVENUE,149,SILAT AVE,"1.2773807, 103.8318569"
264 TAMPINES STREET 21,264,TAMPINES ST 21,"1.3528894, 103.95144455647755"
518C TAMPINES CENTRAL 7,518C,TAMPINES CTRL 7,"1.3563583499999998, 103.93900959999999"
942 TAMPINES AVENUE 5,942,TAMPINES AVE 5,"1.3497284, 103.94054072250877"
70 BEDOK SOUTH ROAD,70,BEDOK STH RD,"1.31996045, 103.94281609841187"
166 HOUGANG AVENUE 1,166,HOUGANG AVE 1,"Error: Block retrieved. Returned address 166, Hougang Ave 1, Hougang, Southeast, 530129, Singapore"
404 SERANGOON AVENUE 1,404,SERANGOON AVE 1,"1.3472103500000001, 103.8725875"
403 ANG MO KIO AVENUE 10,403,ANG MO KIO AVE 10,"1.36127745, 103.85464246178717"
133 BISHAN STREET 12,133,BISHAN ST 12,"1.3456093, 103.85177707002062"
338 JURONG EAST AVENUE 1,338,JURONG EAST AVE 1,"1.3500695, 103.731428"
82 STRATHMORE AVENUE,82,STRATHMORE AVE,"Error: Not Singapore. Returned address 82, Strathmore Avenue, Lower Stoke, Coventry, West Midlands Combined Authority, West Midlands, England, CV1 2AF, United Kingdom"
123 LORONG 1 TOA PAYOH,123,LOR 1 TOA PAYOH,"Error: Road retrieved. Returned address Lorong 1 Toa Payoh, Toa Payoh, Singapore, Central, 313130, Singapore"
323A SENGKANG EAST WAY,323A,SENGKANG EAST WAY,"1.3928512, 103.89312820867131"
212C COMPASSVALE DRIVE,212C,COMPASSVALE DR,"1.38615785, 103.90096797686411"
70B TELOK BLANGAH HEIGHTS,70B,TELOK BLANGAH HTS,"1.27666905, 103.8107654886577"
691A CHOA CHU KANG CRESCENT,691A,CHOA CHU KANG CRES,"Error: Road retrieved. Returned address Choa Chu Kang Crescent, Northwest, 689097, Singapore"
434 CLEMENTI AVENUE 3,434,CLEMENTI AVE 3,"1.3145760000000002, 103.76169905041792"
248 JURONG EAST STREET 24,248,JURONG EAST ST 24,"1.3422055, 103.74009817798208"
833 JURONG WEST STREET 81,833,JURONG WEST ST 81,"1.3436306500000001, 103.69445633726579"
175A YUNG KUANG ROAD,175A,YUNG KUANG RD,"1.3320486, 103.72171347353323"
212B PUNGGOL WALK,212B,PUNGGOL WALK,"1.4004542, 103.89937406735527"
186B RIVERVALE DRIVE,186B,RIVERVALE DR,"Error: Not Singapore. Returned address Rivervale Drive, Santa Cruz County, California, 95073, United States"
287 TAMPINES STREET 22,287,TAMPINES ST 22,"1.3490163000000002, 103.95386727409243"
106 YISHUN RING ROAD,106,YISHUN RING RD,"Error: Road retrieved. Returned address Yishun Ring Road, Yishun, Northwest, 760413, Singapore"
527 BEDOK NORTH STREET 3,527,BEDOK NTH ST 3,"1.3337518, 103.9282671"
773 BEDOK RESERVOIR VIEW,773,BEDOK RESERVOIR VIEW,"1.33639925, 103.93736247195241"
287 BISHAN STREET 24,287,BISHAN ST 24,"1.35788375, 103.84389661499344"
115 BUKIT BATOK WEST AVENUE 6,115,BT BATOK WEST AVE 6,"1.3491802, 103.7466128333752"
616 HOUGANG AVENUE 8,616,HOUGANG AVE 8,"Error: Road retrieved. Returned address Hougang Avenue 8, Hougang, Northeast, 530631, Singapore"
652B JURONG WEST STREET 61,652B,JURONG WEST ST 61,"1.336593, 103.69787999354527"
641C PUNGGOL DRIVE,641C,PUNGGOL DR,"1.3990524, 103.91641695899992"
174A EDGEDALE PLAINS,174A,EDGEDALE PLAINS,"1.39643755, 103.91125970468642"
842 TAMPINES STREET 82,842,TAMPINES ST 82,"1.35183125, 103.93568298638641"
4 BEDOK SOUTH AVENUE 1,4,BEDOK STH AVE 1,"1.3224323, 103.93331630890668"
130 BEDOK NORTH STREET 2,130,BEDOK NTH ST 2,"1.3271476500000001, 103.93672584551965"
16 TELOK BLANGAH CRESCENT,16,TELOK BLANGAH CRES,"1.2780475, 103.82150331414044"
487C CHOA CHU KANG AVENUE 5,487C,CHOA CHU KANG AVE 5,"1.37651045, 103.73947373100245"
481 JURONG WEST STREET 41,481,JURONG WEST ST 41,"1.34693935, 103.7256341113914"
313 SERANGOON AVENUE 2,313,SERANGOON AVE 2,"1.3532297, 103.86523311461636"
174 YISHUN AVENUE 7,174,YISHUN AVE 7,"1.4372369, 103.83221712267672"
364 YISHUN RING ROAD,364,YISHUN RING RD,"Error: Road retrieved. Returned address Yishun Ring Road, Yishun, Northwest, 760413, Singapore"
225 BISHAN STREET 23,225,BISHAN ST 23,"1.35860995, 103.84755052604547"
981C BUANGKOK CRESCENT,981C,BUANGKOK CRES,"Error: Road retrieved. Returned address Buangkok Crescent, Hougang, Northeast, 536980, Singapore"
132 BISHAN STREET 12,132,BISHAN ST 12,"1.34568265, 103.85155865389521"
823 JURONG WEST STREET 81,823,JURONG WEST ST 81,"1.346692, 103.69428680164674"
22 MARSILING DRIVE,22,MARSILING DR,"Error: Road retrieved. Returned address Marsiling Drive, Woodlands, Northwest, 731007, Singapore"
159 JALAN TECK WHYE,159,JLN TECK WHYE,"1.3801754, 103.75653026338821"
218 JURONG EAST STREET 21,218,JURONG EAST ST 21,"1.3403081499999998, 103.7379446098272"
441 JURONG WEST AVENUE 1,441,JURONG WEST AVE 1,"1.3514225500000001, 103.72076378988513"
663C PUNGGOL DRIVE,663C,PUNGGOL DR,"1.4004102, 103.9176624317495"
795 YISHUN RING ROAD,795,YISHUN RING RD,"1.4196625, 103.83221179065416"
318 JURONG EAST STREET 31,318,JURONG EAST ST 31,"1.3473161, 103.7306301"
477 JURONG WEST STREET 41,477,JURONG WEST ST 41,"1.3476873, 103.72511885"
768 PASIR RIS STREET 71,768,PASIR RIS ST 71,"1.3753207, 103.93565070376007"
77 TELOK BLANGAH DRIVE,77,TELOK BLANGAH DR,"1.2739768, 103.80889611206038"
131 CHOA CHU KANG AVENUE 1,131,CHOA CHU KANG AVE 1,"1.3814145500000001, 103.75108675675348"
928 JURONG WEST STREET 92,928,JURONG WEST ST 92,"1.3409155, 103.68925619566745"
171 WOODLANDS STREET 11,171,WOODLANDS ST 11,"Error: Road retrieved. Returned address Woodlands Street 11, Woodlands, Northwest, 731302, Singapore"
554 ANG MO KIO AVENUE 10,554,ANG MO KIO AVE 10,"Error: Road retrieved. Returned address Ang Mo Kio Avenue 10, Ang Mo Kio, Singapore, Central, 560449, Singapore"
288B BUKIT BATOK STREET 25,288B,BT BATOK ST 25,"1.3461156, 103.76067481232771"
854 TAMPINES STREET 82,854,TAMPINES ST 82,"1.3530402000000001, 103.93650438308075"
345 ANG MO KIO AVENUE 3,345,ANG MO KIO AVE 3,"Error: Road retrieved. Returned address Ang Mo Kio Avenue 3, Ang Mo Kio, Singapore, Central, 563455, Singapore"
679 CHOA CHU KANG CRESCENT,679,CHOA CHU KANG CRES,"Error: Road retrieved. Returned address Choa Chu Kang Crescent, Northwest, 689097, Singapore"
109C EDGEDALE PLAINS,109C,EDGEDALE PLAINS,"Error: Road retrieved. Returned address Edgedale Plains, Punggol, Northeast, 828867, Singapore"
357B ADMIRALTY DRIVE,357B,ADMIRALTY DR,"Error: Not Singapore. Returned address Admiralty Drive, Sunset Beach, Huntington Beach, Orange County, California, 92649, United States"
441D FERNVALE ROAD,441D,FERNVALE RD,"1.39209495, 103.87508768342173"
55 LORONG 5 TOA PAYOH,55,LOR 5 TOA PAYOH,"1.33733355, 103.85123932269678"
