address,block,street_name,lat_long
496E TAMPINES AVENUE 9,496E,TAMPINES AVE 9,"1.36110515, 103.94984401614559"
491F TAMPINES STREET 45,491F,TAMPINES ST 45,"1.36292745, 103.95508217517096"
144 LORONG 2 TOA PAYOH,144,LOR 2 TOA PAYOH,"Error: Road retrieved. Returned address Lorong 2 Toa Payoh, Toa Payoh, Singapore, Central, 319640, Singapore"
252 YISHUN RING ROAD,252,YISHUN RING RD,"Error: Road retrieved. Returned address Yishun Ring Road, Yishun, Northwest, 760413, Singapore"
803A KEAT HONG CLOSE,803A,KEAT HONG CL,"1.3739713999999998, 103.74261706500718"
589D MONTREAL DRIVE,589D,MONTREAL DR,"Error: Not Singapore. Returned address Montreal Drive, San Jose, Santa Clara County, California, 95130, United States"
891 TAMPINES AVENUE 8,891,TAMPINES AVE 8,"1.3491363, 103.93121371770016"
63 SIMS PLACE,63,SIMS PL,"Error: Road retrieved. Returned address Sims Place, Geylang, Southeast, 380063, Singapore"
33 BALAM ROAD,33,BALAM RD,"1.32979465, 103.88622214073106"
138D YUAN CHING ROAD,138D,YUAN CHING RD,"Error: Road retrieved. Returned address Yuan Ching Road, Jurong East, Southwest, 649845, Singapore"
989D JURONG WEST STREET 93,989D,JURONG WEST ST 93,"1.3357538, 103.69545889170112"
268A PUNGGOL FIELD,268A,PUNGGOL FIELD,"Error: Road retrieved. Returned address Punggol Field, Punggol Cove, Punggol, Northeast, 820198, Singapore"
735 WOODLANDS CIRCLE,735,WOODLANDS CIRCLE,"1.44355135, 103.79743604677208"
665 WOODLANDS RING ROAD,665,WOODLANDS RING RD,"1.4380804, 103.79763885877443"
870 WOODLANDS STREET 81,870,WOODLANDS ST 81,"Error: Road retrieved. Returned address Woodlands St 81, Woodlands, Northwest, 738525, Singapore"
129 YISHUN STREET 11,129,YISHUN ST 11,"1.4337053, 103.8317947233807"
552 ANG MO KIO AVENUE 10,552,ANG MO KIO AVE 10,"1.37222145, 103.85694768733333"
172 GANGSA ROAD,172,GANGSA RD,"Error: Road retrieved. Returned address Gangsa Road, Bukit Panjang, Northwest, 679002, Singapore"
702 WEST COAST ROAD,702,WEST COAST RD,"1.30721985, 103.76120571098966"
672B EDGEFIELD PLAINS,672B,EDGEFIELD PLAINS,"1.40669645, 103.91245705649695"
111 SERANGOON NORTH AVENUE 1,111,SERANGOON NTH AVE 1,"1.3690875, 103.87062104985377"
897A TAMPINES STREET 81,897A,TAMPINES ST 81,"1.34749375, 103.93515642280215"
30 NEW UPPER CHANGI ROAD,30,NEW UPP CHANGI RD,"1.3235087, 103.93650865164638"
34 TELOK BLANGAH WAY,34,TELOK BLANGAH WAY,"Error: Road retrieved. Returned address Telok Blangah Way, Bukit Merah, Singapore, Central, 098803, Singapore"
484 SEGAR ROAD,484,SEGAR RD,"Error: Road retrieved. Returned address Segar Road, Bukit Panjang, Northwest, 677738, Singapore"
752 CHOA CHU KANG NORTH 5,752,CHOA CHU KANG NTH 5,"Error: Road retrieved. Returned address Choa Chu Kang North 5, Northwest, 680533, Singapore"
866 WOODLANDS STREET 83,866,WOODLANDS ST 83,"1.4416285, 103.79262783151273"
255 ANG MO KIO AVENUE 4,255,ANG MO KIO AVE 4,"Error: Road retrieved. Returned address Ang Mo Kio Avenue 4, Ang Mo Kio, Singapore, Central, 568987, Singapore"
142 BISHAN STREET 12,142,BISHAN ST 12,"1.34546505, 103.85359009279637"
726 JURONG WEST AVENUE 5,726,JURONG WEST AVE 5,"1.34563065, 103.69712702560966"
506B SERANGOON NORTH AVENUE 4,506B,SERANGOON NTH AVE 4,"1.3726102999999998, 103.87554862396954"
556 WOODLANDS DRIVE 53,556,WOODLANDS DR 53,"Error: Road retrieved. Returned address Woodlands Drive 53, Woodlands, Northwest, 738240, Singapore"
203 BEDOK NORTH STREET 1,203,BEDOK NTH ST 1,"1.32572745, 103.92926752226094"
54 MARINE TERRACE,54,MARINE TER,"Error: Not Singapore. Returned address Marine Terrace, Foord, Folkestone, Folkestone and Hythe, Kent, South East, England, CT20 1PZ, United Kingdom"
126 PASIR RIS STREET 11,126,PASIR RIS ST 11,"1.3655590499999999, 103.955089142883"
18 TAMAN HO SWEE,18,TAMAN HO SWEE,"Error: Road retrieved. Returned address Taman Ho Swee, Bukit Ho Swee View, Bukit Merah, Singapore, Central, 161022, Singapore"
463 TAMPINES STREET 44,463,TAMPINES ST 44,"1.35918265, 103.95463942500001"
326 BUKIT BATOK STREET 33,326,BT BATOK ST 33,"1.36258175, 103.74815778045757"
217 TAMPINES STREET 23,217,TAMPINES ST 23,"1.3542225, 103.95178820002823"
476 PASIR RIS DRIVE 6,476,PASIR RIS DR 6,"1.3748873499999998, 103.95826337332926"
185 EDGEFIELD PLAINS,185,EDGEFIELD PLAINS,"Error: Road retrieved. Returned address Edgefield Plains, Punggol, Northeast, 828850, Singapore"
438 TAMPINES STREET 43,438,TAMPINES ST 43,"1.36029895, 103.951590025"
459 ANG MO KIO AVENUE 10,459,ANG MO KIO AVE 10,"1.36699175, 103.85940047199074"
174 BISHAN STREET 13,174,BISHAN ST 13,"1.3482699500000002, 103.854283470979"
29 MARSILING DRIVE,29,MARSILING DR,"1.4430795, 103.77338887593024"
403 BUKIT BATOK WEST AVENUE 7,403,BT BATOK WEST AVE 7,"1.3651725, 103.74480560228413"
293 YISHUN STREET 22,293,YISHUN ST 22,"1.4361765, 103.83757271933058"
495E TAMPINES STREET 43,495E,TAMPINES ST 43,"1.3641394500000001, 103.9523983440557"
178 BUKIT BATOK WEST AVENUE 8,178,BT BATOK WEST AVE 8,"1.34600415, 103.74273114983285"
168 PETIR ROAD,168,PETIR RD,"Error: Road retrieved. Returned address Petir Road, Bukit Panjang, Northwest, 678272, Singapore"
34 EUNOS CRESCENT,34,EUNOS CRES,"1.32095, 103.9011000997701"
206 MARSILING DRIVE,206,MARSILING DR,"1.4452729, 103.77379409446456"
185 BISHAN STREET 13,185,BISHAN ST 13,"Error: Road retrieved. Returned address Bishan Street 13, Bishan, Singapore, Central, 579799, Singapore"
156 RIVERVALE CRESCENT,156,RIVERVALE CRES,"Error: Road retrieved. Returned address Rivervale Crescent, Seng Kang, Northeast, 540151, Singapore"
229 LORONG 8 TOA PAYOH,229,LOR 8 TOA PAYOH,"1.338714, 103.85920481944444"
111 BUKIT BATOK WEST AVENUE 6,111,BT BATOK WEST AVE 6,"1.3484159, 103.74601470220307"
8A BOON TIONG ROAD,8A,BOON TIONG RD,"Error: Road retrieved. Returned address Boon Tiong Road, Boon Tiong Aracadia, Bukit Merah, Singapore, Central, 163028, Singapore"
116 CLEMENTI STREET 13,116,CLEMENTI ST 13,"1.324262, 103.771956766074"
503 ANG MO KIO AVENUE 5,503,ANG MO KIO AVE 5,"Error: Road retrieved. Returned address Ang Mo Kio Avenue 5, Ang Mo Kio, Singapore, Central, 569948, Singapore"
490D CHOA CHU KANG AVENUE 5,490D,CHOA CHU KANG AVE 5,"1.37610665, 103.74104759178394"
701 TAMPINES STREET 71,701,TAMPINES ST 71,"1.3562564, 103.93657508427864"
416 JURONG WEST STREET 42,416,JURONG WEST ST 42,"1.3524812000000002, 103.7258053557511"
740 PASIR RIS STREET 71,740,PASIR RIS ST 71,"1.37792375, 103.93583951246532"
421 SERANGOON CENTRAL,421,SERANGOON CTRL,"1.3485719, 103.87506094337016"
604 WOODLANDS DRIVE 42,604,WOODLANDS DR 42,"Error: Road retrieved. Returned address Woodlands Drive 42, Woodlands, Northwest, 730888, Singapore"
436 WOODLANDS STREET 41,436,WOODLANDS ST 41,"Error: Road retrieved. Returned address Woodlands Street 41, Woodlands, Northwest, 31, Singapore"
627 ANG MO KIO AVENUE 9,627,ANG MO KIO AVE 9,"Error: Road retrieved. Returned address Ang Mo Kio Avenue 9, Ang Mo Kio, Singapore, Central, 569845, Singapore"
500 SERANGOON NORTH AVENUE 4,500,SERANGOON NTH AVE 4,"1.37466615, 103.8756994701829"
426 WOODLANDS STREET 41,426,WOODLANDS ST 41,"1.427188, 103.77338925000001"
650 PASIR RIS DRIVE 10,650,PASIR RIS DR 10,"1.3787715500000002, 103.93802034005449"
210A COMPASSVALE LANE,210A,COMPASSVALE LANE,"1.3848976, 103.89992793730224"
18 JOO SENG ROAD,18,JOO SENG RD,"1.3367127, 103.88124751732668"
665 JALAN DAMAI,665,JLN DAMAI,"1.33412555, 103.90812306443013"
39 JALAN RUMAH TINGGI,39,JLN RUMAH TINGGI,"1.28871865, 103.81012980089483"
235 CHOA CHU KANG CENTRAL,235,CHOA CHU KANG CTRL,"1.37974245, 103.74875768516962"
101 BEDOK NORTH AVENUE 4,101,BEDOK NTH AVE 4,"1.33446945, 103.93793810303602"
157 TAMPINES STREET 12,157,TAMPINES ST 12,"1.3510102499999999, 103.94501446143663"
20 BEDOK SOUTH ROAD,20,BEDOK STH RD,"1.3199222499999999, 103.93371506822493"
108 MCNAIR ROAD,108,MCNAIR RD,"1.32177025, 103.8598264499982"
413 COMMONWEALTH AVENUE WEST,413,C'WEALTH AVE WEST,"1.31135415, 103.77120417895499"
191 BISHAN STREET 13,191,BISHAN ST 13,"1.3505233, 103.8513741"
1 BEDOK SOUTH AVENUE 1,1,BEDOK STH AVE 1,"1.32084015, 103.93373861082546"
10 CHAI CHEE ROAD,10,CHAI CHEE RD,"1.3274203, 103.92465768731158"
195 BISHAN STREET 13,195,BISHAN ST 13,"Error: Road retrieved. Returned address Bishan Street 13, Bishan, Singapore, Central, 579799, Singapore"
981A BUANGKOK CRESCENT,981A,BUANGKOK CRES,"Error: Road retrieved. Returned address Buangkok Crescent, Hougang, Northeast, 536980, Singapore"
119 MCNAIR ROAD,119,MCNAIR RD,"Error: Not Singapore. Returned address 119, McNair Road, Damascus, Windsor Town, Broome County, New York, 13865, United States"
279A SENGKANG EAST AVENUE,279A,SENGKANG EAST AVE,"1.3858454, 103.89289586212121"
319A ANCHORVALE DRIVE,319A,ANCHORVALE DR,"1.3908699, 103.8899724"
302 HOUGANG AVENUE 5,302,HOUGANG AVE 5,"Error: Road retrieved. Returned address Hougang Avenue 5, Hougang, Northeast, 530334, Singapore"
653A JURONG WEST STREET 61,653A,JURONG WEST ST 61,"1.3368778, 103.69660159483345"
54 KENT ROAD,54,KENT RD,"Error: Not Singapore. Returned address 54, Kent Road, Kings Farm, Gravesham, Kent, South East, England, DA11 0SY, United Kingdom"
869 WOODLANDS STREET 83,869,WOODLANDS ST 83,"Error: Road retrieved. Returned address Woodlands Street 83, Woodlands, Northwest, 738489, Singapore"
315A ANG MO KIO STREET 31,315A,ANG MO KIO ST 31,"1.3643904, 103.84666558884439"
112 WHAMPOA ROAD,112,WHAMPOA RD,"1.3260597, 103.85673135156325"
108B MCNAIR ROAD,108B,MCNAIR RD,"1.3200707999999999, 103.85914718510696"
272B PUNGGOL WALK,272B,PUNGGOL WALK,"1.40333995, 103.90022014082686"
498G TAMPINES STREET 45,498G,TAMPINES ST 45,"1.36242375, 103.95810586704647"
201 BUKIT BATOK STREET 21,201,BT BATOK ST 21,"1.3459292, 103.74790074170181"
276 BANGKIT ROAD,276,BANGKIT RD,"1.3764311500000002, 103.77577318519651"
413 TAMPINES STREET 41,413,TAMPINES ST 41,"1.3594572, 103.94553027782234"
303 TAMPINES STREET 32,303,TAMPINES ST 32,"1.35195695, 103.95563792230219"
807C CHAI CHEE ROAD,807C,CHAI CHEE RD,"1.32797585, 103.92323441126848"
303 JURONG EAST STREET 32,303,JURONG EAST ST 32,"Error: Road retrieved. Returned address Jurong East Street 32, Jurong East, Southwest, 600371, Singapore"
16 SAINT GEORGE'S ROAD,16,ST. GEORGE'S RD,"Error: Not Singapore. Returned address 16, St George's Road, Chestnut Hills, Etobicoke Centre, Etobicoke, Toronto, Golden Horseshoe, Ontario, M8X 2A3, Canada"
632 VEERASAMY ROAD,632,VEERASAMY RD,"Error: Road retrieved. Returned address Veerasamy Road, Rochor, Singapore, Central, 207309, Singapore"
17 TOH YI DRIVE,17,TOH YI DR,"1.3396678, 103.77268797940391"
241 PASIR RIS STREET 21,241,PASIR RIS ST 21,"1.3730204000000001, 103.96250754307741"
13 GHIM MOH ROAD,13,GHIM MOH RD,"1.30970305, 103.7891289876282"
248 HOUGANG AVENUE 3,248,HOUGANG AVE 3,"1.3594951000000002, 103.8926391807698"
820 JURONG WEST STREET 81,820,JURONG WEST ST 81,"1.3463078, 103.6952"
340A SEMBAWANG CLOSE,340A,SEMBAWANG CL,"1.4475413000000001, 103.81773246866237"
257 TAMPINES STREET 21,257,TAMPINES ST 21,"1.3539683, 103.94963666639515"
740 TAMPINES STREET 72,740,TAMPINES ST 72,"1.3593575, 103.93280765177364"
704 YISHUN AVENUE 5,704,YISHUN AVE 5,"1.4292532, 103.82890230000001"
48 LOWER DELTA ROAD,48,LOWER DELTA RD,"Error: Road retrieved. Returned address Lower Delta Road, Radin Mas, Bukit Merah, Singapore, Central, 169311, Singapore"
466 SEGAR ROAD,466,SEGAR RD,"Error: Road retrieved. Returned address Segar Road, Bukit Panjang, Northwest, 677738, Singapore"
121B RIVERVALE DRIVE,121B,RIVERVALE DR,"1.3864220500000002, 103.90487423412829"
277 TAMPINES STREET 22,277,TAMPINES ST 22,"1.3472333, 103.95111705663061"
736 YISHUN STREET 72,736,YISHUN ST 72,"Error: Road retrieved. Returned address Yishun Street 72, Yishun, Northwest, 760731, Singapore"
724 BEDOK RESERVOIR ROAD,724,BEDOK RESERVOIR RD,"1.337127, 103.9284145827755"
81 BEDOK NORTH ROAD,81,BEDOK NTH RD,"1.32889495, 103.94061351185583"
298A COMPASSVALE STREET,298A,COMPASSVALE ST,"Error: Road retrieved. Returned address Compassvale Street, Seng Kang, Northeast, 540294, Singapore"
807 WOODLANDS STREET 81,807,WOODLANDS ST 81,"Error: Road retrieved. Returned address Woodlands St 81, Woodlands, Northwest, 738525, Singapore"
672A CHOA CHU KANG CRESCENT,672A,CHOA CHU KANG CRES,"Error: Road retrieved. Returned address Choa Chu Kang Crescent, Northwest, 689097, Singapore"
341 HOUGANG AVENUE 7,341,HOUGANG AVE 7,"Error: Road retrieved. Returned address Hougang Avenue 7, Hougang, Northeast, 530377, Singapore"
31 TEBAN GARDENS ROAD,31,TEBAN GDNS RD,"1.32026825, 103.73910864290288"
13 FARRER PARK ROAD,13,FARRER PK RD,"1.3115879499999998, 103.85135125799167"
125 TAMPINES STREET 11,125,TAMPINES ST 11,"1.3461549499999999, 103.9499970567504"
311 TAMPINES STREET 33,311,TAMPINES ST 33,"1.3534507, 103.95762051455068"
516 WOODLANDS DRIVE 14,516,WOODLANDS DR 14,"Error: Road retrieved. Returned address Woodlands Drive 14, Fragrant Woods, Woodlands, Northwest, 738079, Singapore"
131 YISHUN STREET 11,131,YISHUN ST 11,"1.4331667000000001, 103.83139803107184"
162 MEI LING STREET,162,MEI LING ST,"1.29220465, 103.80287055054754"
309A ANCHORVALE ROAD,309A,ANCHORVALE RD,"1.39165015, 103.88609292917015"
38 BEO CRESCENT,38,BEO CRES,"1.2885496, 103.82729473441896"
32 EUNOS CRESCENT,32,EUNOS CRES,"1.3204761999999999, 103.90134135724622"
175 BOON LAY DRIVE,175,BOON LAY DR,"1.3466651, 103.70950362903535"
74 WHAMPOA DRIVE,74,WHAMPOA DR,"1.3247292000000002, 103.8578382"
55 MARINE TERRACE,55,MARINE TER,"Error: Not Singapore. Returned address CVGT Burnie, 55, Marine Terrace, South Burnie, Burnie, City of Burnie, Tasmania, 7320, Australia"
120B RIVERVALE DRIVE,120B,RIVERVALE DR,"1.38579775, 103.90445957278709"
120 LORONG 2 TOA PAYOH,120,LOR 2 TOA PAYOH,"1.3390909, 103.84558547818281"
113 WOODLANDS STREET 13,113,WOODLANDS ST 13,"Error: Road retrieved. Returned address Woodlands Street 13, Woodlands, Northwest, 738623, Singapore"
701 YISHUN AVENUE 5,701,YISHUN AVE 5,"1.4299526, 103.82886105"
244 TAMPINES STREET 21,244,TAMPINES ST 21,"1.3537917, 103.94712148840186"
912 TAMPINES STREET 91,912,TAMPINES ST 91,"1.34934545, 103.93905628704795"
721 YISHUN STREET 71,721,YISHUN ST 71,"1.42613085, 103.82899595535054"
54 CHAI CHEE STREET,54,CHAI CHEE ST,"1.3293913000000002, 103.9210537498026"
145 BEDOK RESERVOIR ROAD,145,BEDOK RESERVOIR RD,"1.33427655, 103.91208623381178"
261 BUKIT BATOK EAST AVENUE 4,261,BT BATOK EAST AVE 4,"1.3506374, 103.75946359922867"
695 HOUGANG STREET 61,695,HOUGANG ST 61,"Error: Road retrieved. Returned address Hougang Street 61, Hougang, Northeast, 538793, Singapore"
660B JURONG WEST STREET 64,660B,JURONG WEST ST 64,"1.3362026, 103.70417499993158"
109 SIMEI STREET 1,109,SIMEI ST 1,"1.3423768, 103.95028068813123"
541 ANG MO KIO AVENUE 10,541,ANG MO KIO AVE 10,"1.37412025, 103.85549780670698"
137 BEDOK RESERVOIR ROAD,137,BEDOK RESERVOIR RD,"1.3336868499999999, 103.91287168455418"
58 HAVELOCK ROAD,58,HAVELOCK RD,"Error: Not Singapore. Returned address 58, Havelock Road, Havelock, Richmond County, Virginia, 22572, United States"
342 CHOA CHU KANG LOOP,342,CHOA CHU KANG LOOP,"1.3840211, 103.74635498653979"
119 PASIR RIS STREET 11,119,PASIR RIS ST 11,"1.3674392499999999, 103.95510529101134"
671 WOODLANDS DRIVE 71,671,WOODLANDS DR 71,"Error: Road retrieved. Returned address Woodlands Drive 71, Woodlands, Northwest, 738344, Singapore"
546 BEDOK NORTH STREET 3,546,BEDOK NTH ST 3,"1.3308022, 103.92563099195786"
141 TECK WHYE LANE,141,TECK WHYE LANE,"1.3803311, 103.75272577619356"
252 JURONG EAST STREET 24,252,JURONG EAST ST 24,"1.3431921999999998, 103.73772937848912"
718 PASIR RIS STREET 72,718,PASIR RIS ST 72,"1.38233395, 103.9363111654676"
897C WOODLANDS DRIVE 50,897C,WOODLANDS DR 50,"1.4356737, 103.79385468324324"
48 TEBAN GARDENS ROAD,48,TEBAN GDNS RD,"1.3204758, 103.74001002925168"
113 BUKIT BATOK WEST AVENUE 6,113,BT BATOK WEST AVE 6,"1.3487334, 103.74495259935634"
636 PASIR RIS DRIVE 1,636,PASIR RIS DR 1,"1.3769273499999999, 103.94104175710606"
290B BUKIT BATOK STREET 24,290B,BT BATOK ST 24,"1.343642, 103.7568157742278"
447 HOUGANG AVENUE 10,447,HOUGANG AVE 10,"Error: Road retrieved. Returned address Hougang Avenue 10, Hougang, Northeast, 538766, Singapore"
450 TAMPINES STREET 42,450,TAMPINES ST 42,"1.3573868999999998, 103.951685425"
368 CORPORATION DRIVE,368,CORPORATION DR,"1.3373631, 103.719728"
721 WOODLANDS CIRCLE,721,WOODLANDS CIRCLE,"Error: Not Singapore. Returned address 721, Woodlands Circle, Woodlands, Cumberland County, Tennessee, 38571, United States"
771 WOODLANDS DRIVE 60,771,WOODLANDS DR 60,"Error: Road retrieved. Returned address Woodlands Drive 60, Woodlands, Northwest, 731799, Singapore"
308 BUKIT BATOK STREET 31,308,BT BATOK ST 31,"1.3585289, 103.74811358175864"
212 BUKIT BATOK STREET 21,212,BT BATOK ST 21,"1.34696405, 103.75192582566098"
88 TELOK BLANGAH HEIGHTS,88,TELOK BLANGAH HTS,"1.2774535999999999, 103.80826710945055"
132 LORONG AH SOO,132,LOR AH SOO,"Error: Road retrieved. Returned address Lorong Ah Soo, Hougang, Northeast, 530129, Singapore"
832 JURONG WEST STREET 81,832,JURONG WEST ST 81,"1.3443204, 103.69514215872832"
933 JURONG WEST STREET 91,933,JURONG WEST ST 91,"1.34214515, 103.6897267424265"
676B JURONG WEST STREET 64,676B,JURONG WEST ST 64,"1.34603715, 103.70415396421053"
661C JURONG WEST STREET 64,661C,JURONG WEST ST 64,"1.33621665, 103.70527194699454"
622C PUNGGOL CENTRAL,622C,PUNGGOL CTRL,"1.40072155, 103.91076839507787"
289A PUNGGOL PLACE,289A,PUNGGOL PL,"Error: Road retrieved. Returned address Punggol Place, Punggol, Northeast, 828845, Singapore"
802 TAMPINES AVENUE 4,802,TAMPINES AVE 4,"1.3457624, 103.9380472"
23 MARSILING DRIVE,23,MARSILING DR,"Error: Road retrieved. Returned address Marsiling Drive, Woodlands, Northwest, 731007, Singapore"
273A COMPASSVALE LINK,273A,COMPASSVALE LINK,"1.3840824999999999, 103.89493486444881"
308C PUNGGOL WALK,308C,PUNGGOL WALK,"1.4082781, 103.8991066"
330 SEMBAWANG CLOSE,330,SEMBAWANG CL,"1.4466546500000002, 103.81811769076538"
212 TAMPINES STREET 23,212,TAMPINES ST 23,"1.3544000999999999, 103.95418769060734"
119B RIVERVALE DRIVE,119B,RIVERVALE DR,"Error: Not Singapore. Returned address Rivervale Drive, Santa Cruz County, California, 95073, United States"
160 YISHUN STREET 11,160,YISHUN ST 11,"1.43236865, 103.83333677629099"
207 BUKIT BATOK STREET 21,207,BT BATOK ST 21,"1.3462442000000001, 103.7494054077894"
210 CHOA CHU KANG CENTRAL,210,CHOA CHU KANG CTRL,"1.3826317, 103.74772514465849"
157 MEI LING STREET,157,MEI LING ST,"1.2930218, 103.8033701"
333 ANG MO KIO AVENUE 1,333,ANG MO KIO AVE 1,"1.3613511, 103.85168949999999"
53 TEBAN GARDENS ROAD,53,TEBAN GDNS RD,"1.3213523999999999, 103.73768137531815"
285A TOH GUAN ROAD,285A,TOH GUAN RD,"1.33839815, 103.7461525399392"
466 JURONG WEST STREET 41,466,JURONG WEST ST 41,"1.3498512, 103.72267584716698"
195 RIVERVALE DRIVE,195,RIVERVALE DR,"1.39296365, 103.9021751904549"
281 BISHAN STREET 24,281,BISHAN ST 24,"1.3573919, 103.84472228679755"
442B FAJAR ROAD,442B,FAJAR RD,"1.38146315, 103.77134603128442"
239 JURONG EAST STREET 21,239,JURONG EAST ST 21,"1.34094065, 103.7409508044749"
264E COMPASSVALE BOW,264E,COMPASSVALE BOW,"1.38173655, 103.89554639166104"
207C COMPASSVALE LANE,207C,COMPASSVALE LANE,"1.38465735, 103.89808147852862"
126 BISHAN STREET 12,126,BISHAN ST 12,"1.3462676, 103.85209200135668"
286D TOH GUAN ROAD,286D,TOH GUAN RD,"1.3396256, 103.74452078442565"
647 WOODLANDS RING ROAD,647,WOODLANDS RING RD,"1.4378758500000002, 103.80099073617006"
799 YISHUN RING ROAD,799,YISHUN RING RD,"1.41933135, 103.83257444072817"
649 JALAN TENAGA,649,JLN TENAGA,"1.3323285, 103.9061071"
43 TELOK BLANGAH RISE,43,TELOK BLANGAH RISE,"1.2703715, 103.82331360303257"
41 JALAN BAHAGIA,41,JLN BAHAGIA,"1.3270424, 103.85659525"
193 LORONG 4 TOA PAYOH,193,LOR 4 TOA PAYOH,"Error: Road retrieved. Returned address Lorong 4 Toa Payoh, Toa Payoh, Singapore, Central, 310193, Singapore"
145 YISHUN STREET 11,145,YISHUN ST 11,"Error: Road retrieved. Returned address Yishun Street 11, Yishun, Northwest, 768643, Singapore"
22 TELOK BLANGAH CRESCENT,22,TELOK BLANGAH CRES,"1.27655135, 103.81981762554926"
347 CLEMENTI AVENUE 5,347,CLEMENTI AVE 5,"1.3171872, 103.77084443962963"
808B CHOA CHU KANG AVENUE 1,808B,CHOA CHU KANG AVE 1,"Error: Road retrieved. Returned address Choa Chu Kang Avenue 1, Choa Chu Kang, Southwest, 682296, Singapore"
273A BISHAN STREET 24,273A,BISHAN ST 24,"1.35636435, 103.84398571653658"
136 PETIR ROAD,136,PETIR RD,"Error: Road retrieved. Returned address Petir Road, Bukit Panjang, Northwest, 678272, Singapore"
50 TEBAN GARDENS ROAD,50,TEBAN GDNS RD,"1.32053595, 103.73793450399381"
761 JURONG WEST STREET 74,761,JURONG WEST ST 74,"1.3490822, 103.69952693168591"
282A SENGKANG EAST AVENUE,282A,SENGKANG EAST AVE,"1.38532005, 103.89198107824268"
159 SIMEI ROAD,159,SIMEI RD,"1.345002, 103.96006542495103"
431B YISHUN AVENUE 1,431B,YISHUN AVE 1,"Error: Road retrieved. Returned address Yishun Avenue 1, Yishun, Northwest, 763476, Singapore"
606 YISHUN STREET 61,606,YISHUN ST 61,"1.4213263, 103.83630116339762"
739 PASIR RIS DRIVE 10,739,PASIR RIS DR 10,"1.3785840999999999, 103.9368080129155"
3 HOLLAND CLOSE,3,HOLLAND CL,"1.30820295, 103.79671197368137"
787C WOODLANDS CRESCENT,787C,WOODLANDS CRES,Error: geocode failed on input 787C WOODLANDS CRESCENT
356 YISHUN RING ROAD,356,YISHUN RING RD,"1.4254052000000001, 103.84562058425318"
235 ANG MO KIO AVENUE 3,235,ANG MO KIO AVE 3,"Error: Road retrieved. Returned address Ang Mo Kio Avenue 3, Ang Mo Kio, Singapore, Central, 560235, Singapore"
642D PUNGGOL DRIVE,642D,PUNGGOL DR,"1.3988572499999998, 103.91577782450261"
719 WOODLANDS AVENUE 6,719,WOODLANDS AVE 6,"Error: Road retrieved. Returned address Woodlands Avenue 6, Woodlands, Northwest, 737858, Singapore"
180A RIVERVALE CRESCENT,180A,RIVERVALE CRES,"Error: Road retrieved. Returned address Rivervale Crescent, Seng Kang, Northeast, 540151, Singapore"
38 UPPER BOON KENG ROAD,38,UPP BOON KENG RD,"1.31805085, 103.87419887374405"
508 WEST COAST DRIVE,508,WEST COAST DR,"1.31166925, 103.76173370622814"
417 CLEMENTI AVENUE 1,417,CLEMENTI AVE 1,"1.31027885, 103.77076171925694"
516 HOUGANG AVENUE 10,516,HOUGANG AVE 10,"1.3727498, 103.88904455028234"
716 JURONG WEST STREET 71,716,JURONG WEST ST 71,"1.34405745, 103.69675152438822"
123B RIVERVALE DRIVE,123B,RIVERVALE DR,"1.3862583499999999, 103.90263689276966"
221 SERANGOON AVENUE 4,221,SERANGOON AVE 4,"Error: Road retrieved. Returned address Serangoon Avenue 4, Serangoon Green, Serangoon, Southeast, 551223, Singapore"
119 BISHAN STREET 12,119,BISHAN ST 12,"1.3473349, 103.85049360204962"
290F BUKIT BATOK STREET 24,290F,BT BATOK ST 24,"1.3434317999999998, 103.7578146026361"
619 HOUGANG AVENUE 8,619,HOUGANG AVE 8,"Error: Road retrieved. Returned address Hougang Avenue 8, Hougang, Northeast, 530631, Singapore"
289D BUKIT BATOK STREET 25,289D,BT BATOK ST 25,"1.34351825, 103.75925101424917"
408 HOUGANG AVENUE 10,408,HOUGANG AVE 10,"1.37303715, 103.89504473244133"
818 JURONG WEST STREET 81,818,JURONG WEST ST 81,"1.345138, 103.69520130601984"
264 WATERLOO STREET,264,WATERLOO ST,"Error: Not Singapore. Returned address 264, Waterloo Street, Waterloo, Warner, Merrimack County, New Hampshire, 03278, United States"
865 TAMPINES STREET 83,865,TAMPINES ST 83,"1.3538723, 103.93424928207455"
972 HOUGANG STREET 91,972,HOUGANG ST 91,"Error: Road retrieved. Returned address Hougang Street 91, Hougang, Northeast, 530920, Singapore"
846 WOODLANDS AVENUE 4,846,WOODLANDS AVE 4,"1.44342885, 103.79369145847333"
551 JURONG WEST STREET 42,551,JURONG WEST ST 42,"1.352388, 103.71698621290469"
215B COMPASSVALE DRIVE,215B,COMPASSVALE DR,"Error: Road retrieved. Returned address Compassvale Drive, Seng Kang, Northeast, 544749, Singapore"
234 COMPASSVALE WALK,234,COMPASSVALE WALK,"1.39065055, 103.90028133243455"
270 BISHAN STREET 24,270,BISHAN ST 24,"1.35694035, 103.84207348812265"
113 SERANGOON NORTH AVENUE 1,113,SERANGOON NTH AVE 1,"1.3686503499999998, 103.87026121708269"
154 PASIR RIS STREET 13,154,PASIR RIS ST 13,"1.3633932, 103.9632331373327"
767 BEDOK RESERVOIR VIEW,767,BEDOK RESERVOIR VIEW,"1.3359166999999998, 103.93694437760419"
250 BANGKIT ROAD,250,BANGKIT RD,"Error: Road retrieved. Returned address Bangkit Road, Bukit Panjang, Northwest, 670260, Singapore"
128 PENDING ROAD,128,PENDING RD,"Error: Road retrieved. Returned address Pending Road, Bukit Panjang, Northwest, 670129, Singapore"
357 HOUGANG AVENUE 7,357,HOUGANG AVE 7,"1.37288845, 103.8996200034686"
621 JURONG WEST STREET 65,621,JURONG WEST ST 65,"1.3410727, 103.69975192335232"
619A PUNGGOL DRIVE,619A,PUNGGOL DR,"1.4026646, 103.91149308845556"
270C PUNGGOL FIELD,270C,PUNGGOL FIELD,"1.4042572, 103.89877514710687"
173 LORONG 1 TOA PAYOH,173,LOR 1 TOA PAYOH,"Error: Road retrieved. Returned address Lorong 1 Toa Payoh, Toa Payoh, Singapore, Central, 313130, Singapore"
134 BEDOK RESERVOIR ROAD,134,BEDOK RESERVOIR RD,"1.3327558499999999, 103.91259975176146"
244 BUKIT BATOK EAST AVENUE 5,244,BT BATOK EAST AVE 5,"1.34931315, 103.7573411219289"
696 HOUGANG STREET 61,696,HOUGANG ST 61,"Error: Road retrieved. Returned address Hougang Street 61, Hougang, Northeast, 538793, Singapore"
158 HOUGANG STREET 11,158,HOUGANG ST 11,"Error: Road retrieved. Returned address Hougang Street 11, Hougang, Northeast, 534075, Singapore"
233 JURONG EAST STREET 21,233,JURONG EAST ST 21,"1.340372, 103.74099207584271"
625 HOUGANG AVENUE 8,625,HOUGANG AVE 8,"1.3700093, 103.88164290824179"
515 JURONG WEST STREET 52,515,JURONG WEST ST 52,"1.34616655, 103.72052638296296"
537 PASIR RIS STREET 51,537,PASIR RIS ST 51,"1.3697968999999999, 103.94968594262403"
108 COMMONWEALTH CRESCENT,108,C'WEALTH CRES,"1.307525, 103.79915115"
115 LORONG 1 TOA PAYOH,115,LOR 1 TOA PAYOH,"1.34062665, 103.844298306073"
471 SEMBAWANG DRIVE,471,SEMBAWANG DR,"1.4519828499999998, 103.81580421594406"
627 CHOA CHU KANG STREET 62,627,CHOA CHU KANG ST 62,"1.3979328, 103.74610960111153"
456 JURONG WEST STREET 41,456,JURONG WEST ST 41,"1.3506929, 103.7199211"
461 PASIR RIS DRIVE 4,461,PASIR RIS DR 4,"1.3712693, 103.9586665410526"
721 TAMPINES STREET 71,721,TAMPINES ST 71,"1.3599595, 103.93642317845455"
139B LORONG 1A TOA PAYOH,139B,LOR 1A TOA PAYOH,"1.3366847000000002, 103.84404897894737"
185 BEDOK NORTH ROAD,185,BEDOK NTH RD,"1.32622095, 103.94081436470657"
116 BUKIT MERAH CENTRAL,116,BT MERAH CTRL,"Error: Road retrieved. Returned address Bukit Merah Central, Bukit Merah, Singapore, Central, 150166, Singapore"
919 JURONG WEST STREET 91,919,JURONG WEST ST 91,"1.3399961999999999, 103.68721351605416"
107B EDGEFIELD PLAINS,107B,EDGEFIELD PLAINS,"1.3969515499999998, 103.90732975376218"
183A RIVERVALE CRESCENT,183A,RIVERVALE CRES,"1.39166845, 103.90790935922558"
51 TEBAN GARDENS ROAD,51,TEBAN GDNS RD,"1.32075915, 103.73695659682002"
8 JALAN BUKIT HO SWEE,8,JLN BT HO SWEE,"1.2875047, 103.83203268667415"
161 YUNG PING ROAD,161,YUNG PING RD,NONE
155 PASIR RIS STREET 13,155,PASIR RIS ST 13,"1.3634442999999998, 103.9636207346777"
276 TAMPINES STREET 22,276,TAMPINES ST 22,"1.34751645, 103.95090080153821"
111B DEPOT ROAD,111B,DEPOT RD,"1.28117855, 103.80854878521765"
124 ANG MO KIO AVENUE 6,124,ANG MO KIO AVE 6,"Error: Road retrieved. Returned address Ang Mo Kio Avenue 6, Ang Mo Kio, Singapore, Central, 569845, Singapore"
700B ANG MO KIO AVENUE 6,700B,ANG MO KIO AVE 6,"1.3694566, 103.84627600671641"
102 BEDOK NORTH AVENUE 4,102,BEDOK NTH AVE 4,"1.3338812500000001, 103.93746031397716"
135 BUKIT BATOK WEST AVENUE 6,135,BT BATOK WEST AVE 6,"1.3512245, 103.74484594148277"
260B PUNGGOL WAY,260B,PUNGGOL WAY,"1.4048612, 103.89631852783899"
618 YISHUN RING ROAD,618,YISHUN RING RD,"1.4187472, 103.83560853691084"
604 YISHUN STREET 61,604,YISHUN ST 61,"Error: Road retrieved. Returned address Yishun Street 61, Nee Soon Central Meadows, Yishun, Northwest, 768548, Singapore"
609 ANG MO KIO AVENUE 4,609,ANG MO KIO AVE 4,"Error: Road retrieved. Returned address Ang Mo Kio Avenue 4, Ang Mo Kio, Singapore, Central, 568987, Singapore"
185 BOON LAY AVENUE,185,BOON LAY AVE,"1.3465804000000001, 103.71118223874672"
782 PASIR RIS STREET 71,782,PASIR RIS ST 71,"1.3733675, 103.93889665649704"
159 YISHUN STREET 11,159,YISHUN ST 11,"Error: Road retrieved. Returned address Yishun Street 11, Yishun, Northwest, 768643, Singapore"
232 PENDING ROAD,232,PENDING RD,"Error: Road retrieved. Returned address Pending Road, Bukit Panjang, Northwest, 670129, Singapore"
658A JURONG WEST STREET 65,658A,JURONG WEST ST 65,"1.3368329, 103.7010676291296"
63 MARINE DRIVE,63,MARINE DR,"1.3023886, 103.90923366979624"
623C PUNGGOL CENTRAL,623C,PUNGGOL CTRL,"1.399735, 103.91145876910468"
266A PUNGGOL WAY,266A,PUNGGOL WAY,"1.405934, 103.89804347624583"
741 YISHUN AVENUE 5,741,YISHUN AVE 5,"1.43004905, 103.83307795"
336A YISHUN STREET 31,336A,YISHUN ST 31,"1.43134315, 103.84488488880905"
18 BEDOK SOUTH ROAD,18,BEDOK STH RD,"1.3210368, 103.9347053"
472A FERNVALE STREET,472A,FERNVALE ST,"1.3974106499999999, 103.88134762712414"
209 ANG MO KIO AVENUE 3,209,ANG MO KIO AVE 3,"Error: Road retrieved. Returned address Ang Mo Kio Avenue 3, Ang Mo Kio, Singapore, Central, 560564, Singapore"
442D FAJAR ROAD,442D,FAJAR RD,"1.3809621, 103.77072819689441"
320 JURONG EAST STREET 31,320,JURONG EAST ST 31,"1.34848685, 103.73099568029801"
103 SPOTTISWOODE PARK ROAD,103,SPOTTISWOODE PK RD,"1.2746192, 103.83526641477837"
375 CLEMENTI AVENUE 4,375,CLEMENTI AVE 4,"1.31847775, 103.76676684948336"
322 HOUGANG AVENUE 5,322,HOUGANG AVE 5,"1.36712085, 103.89698191598302"
80A LORONG 4 TOA PAYOH,80A,LOR 4 TOA PAYOH,"Error: Road retrieved. Returned address Lorong 4 Toa Payoh, Toa Payoh, Singapore, Central, 319194, Singapore"
202 TOA PAYOH NORTH,202,TOA PAYOH NTH,"Error: Road retrieved. Returned address Toa Payoh North, Toa Payoh, Singapore, Central, 318990, Singapore"
21 HOUGANG AVENUE 3,21,HOUGANG AVE 3,"1.3642427000000001, 103.89149021859964"
877 YISHUN STREET 81,877,YISHUN ST 81,"1.4139485, 103.83528858080246"
705 HOUGANG AVENUE 2,705,HOUGANG AVE 2,"1.3657667999999998, 103.88808726433689"
473A FERNVALE STREET,473A,FERNVALE ST,"1.39777955, 103.88117175055115"
260C SENGKANG EAST WAY,260C,SENGKANG EAST WAY,"1.3940869999999999, 103.8953854692526"
406 BEDOK NORTH AVENUE 3,406,BEDOK NTH AVE 3,"1.3282064500000001, 103.93452055718015"
742 PASIR RIS STREET 71,742,PASIR RIS ST 71,"1.37712135, 103.9361136932945"
604C PUNGGOL ROAD,604C,PUNGGOL RD,"Error: Road retrieved. Returned address Punggol Road, Punggol, Northeast, 820198, Singapore"
46 STIRLING ROAD,46,STIRLING RD,"Error: Not Singapore. Returned address 46, Stirling Road, Longstanton, Northstowe, Cambridge, Cambridgeshire, East of England, England, CB24 1BW, United Kingdom"
804 WOODLANDS STREET 81,804,WOODLANDS ST 81,"Error: Road retrieved. Returned address Woodlands St 81, Woodlands, Northwest, 738525, Singapore"
213 ANG MO KIO AVENUE 3,213,ANG MO KIO AVE 3,"Error: Road retrieved. Returned address Ang Mo Kio Avenue 3, Ang Mo Kio, Singapore, Central, 560564, Singapore"
20 TIONG BAHRU ROAD,20,TIONG BAHRU RD,"1.2857536500000002, 103.83214749999999"
471B UPPER SERANGOON CRESCENT,471B,UPP SERANGOON CRES,"1.37799775, 103.900936255397"
742 TAMPINES STREET 72,742,TAMPINES ST 72,"1.3597193, 103.93349364501127"
149 WOODLANDS STREET 13,149,WOODLANDS ST 13,"Error: Road retrieved. Returned address Woodlands Street 13, Woodlands, Northwest, 738623, Singapore"
735 YISHUN STREET 72,735,YISHUN ST 72,"Error: Road retrieved. Returned address Yishun Street 72, Yishun, Northwest, 760731, Singapore"
334 ANG MO KIO AVENUE 1,334,ANG MO KIO AVE 1,"1.363707, 103.85099245049506"
113 DEPOT ROAD,113,DEPOT RD,"Error: Not Singapore. Returned address 113, Depot Road, Oakhill, New Town, Horsham, West Sussex, South East, England, RH13 5HN, United Kingdom"
11 HAIG ROAD,11,HAIG RD,"1.3148739, 103.89665209795498"
605 HOUGANG AVENUE 4,605,HOUGANG AVE 4,"1.3709451000000001, 103.88652189999999"
685C JURONG WEST CENTRAL 1,685C,JURONG WEST CTRL 1,"1.3425497499999999, 103.70418813636181"
258A PUNGGOL FIELD,258A,PUNGGOL FIELD,"1.40383325, 103.89609322590225"
466A SEMBAWANG DRIVE,466A,SEMBAWANG DR,"Error: Road retrieved. Returned address Sembawang Drive, Sembawang, Northwest, 757632, Singapore"
357 YISHUN RING ROAD,357,YISHUN RING RD,"1.4261074, 103.84603171933642"
360 BUKIT BATOK STREET 31,360,BT BATOK ST 31,"1.3610383, 103.75066154498248"
427 CHOA CHU KANG AVENUE 4,427,CHOA CHU KANG AVE 4,"1.3808357500000001, 103.73968870727505"
109 CLEMENTI STREET 11,109,CLEMENTI ST 11,Error: geocode failed on input 109 CLEMENTI STREET 11
20 BALAM ROAD,20,BALAM RD,"1.33084395, 103.88753277611656"
468 HOUGANG AVENUE 8,468,HOUGANG AVE 8,"1.3737305499999999, 103.89721912867071"
240 COMPASSVALE WALK,240,COMPASSVALE WALK,"1.39069055, 103.8979545408551"
491D TAMPINES STREET 45,491D,TAMPINES ST 45,"1.3625101, 103.95440882423243"
219B BEDOK CENTRAL,219B,BEDOK CTRL,"1.32538245, 103.93372610775734"
961 HOUGANG AVENUE 9,961,HOUGANG AVE 9,"Error: Road retrieved. Returned address Hougang Avenue 9, Hougang, Northeast, 538692, Singapore"
334 JURONG EAST AVENUE 1,334,JURONG EAST AVE 1,"1.3507812000000001, 103.73150589381189"
148 SERANGOON NORTH AVENUE 1,148,SERANGOON NTH AVE 1,"1.36852345, 103.87370235031466"
410 TAMPINES STREET 41,410,TAMPINES ST 41,"1.35879605, 103.94625884999999"
984B BUANGKOK LINK,984B,BUANGKOK LINK,"Error: Road retrieved. Returned address Buangkok Link, Hougang, Northeast, 530991, Singapore"
123C RIVERVALE DRIVE,123C,RIVERVALE DR,"1.3865063, 103.90204709147096"
7 BEDOK SOUTH AVENUE 2,7,BEDOK STH AVE 2,"1.3226539499999999, 103.93534281733545"
16 TOH YI DRIVE,16,TOH YI DR,"1.33936885, 103.7725436"
663C JURONG WEST STREET 65,663C,JURONG WEST ST 65,"1.33812495, 103.70251990938206"
633A PUNGGOL DRIVE,633A,PUNGGOL DR,"1.4013273000000002, 103.9131541374675"
896 TAMPINES STREET 81,896,TAMPINES ST 81,"1.3483038999999999, 103.93240379528027"
167C SIMEI LANE,167C,SIMEI LANE,"1.3430138500000002, 103.95933401971772"
317C YISHUN AVENUE 9,317C,YISHUN AVE 9,"Error: Road retrieved. Returned address Yishun Avenue 9, Yishun, Northwest, 760246, Singapore"
392 YISHUN AVENUE 6,392,YISHUN AVE 6,"1.4286672, 103.84919299029958"
315A PUNGGOL WAY,315A,PUNGGOL WAY,"1.4082846999999998, 103.89698744048917"
181 STIRLING ROAD,181,STIRLING RD,"Error: Not Singapore. Returned address Stirling Road, Berea, Buffalo City Ward 18, East London, Buffalo City Metropolitan Municipality, Eastern Cape, 5241, South Africa"
365 TAMPINES STREET 34,365,TAMPINES ST 34,"1.3576111000000002, 103.96053993187394"
618 HOUGANG AVENUE 8,618,HOUGANG AVE 8,"Error: Road retrieved. Returned address Hougang Avenue 8, Hougang, Northeast, 530631, Singapore"
78 BEDOK NORTH ROAD,78,BEDOK NTH RD,"1.3272392, 103.94078766672152"
454 FAJAR ROAD,454,FAJAR RD,"1.3844995999999998, 103.77127237409609"
970 HOUGANG STREET 91,970,HOUGANG ST 91,"Error: Road retrieved. Returned address Hougang Street 91, Hougang, Northeast, 530920, Singapore"
201D PUNGGOL FIELD,201D,PUNGGOL FIELD,"Error: Road retrieved. Returned address Punggol Field, Punggol Cove, Punggol, Northeast, 820198, Singapore"
440A FERNVALE LINK,440A,FERNVALE LINK,"1.3932738, 103.87848966634715"
525 SERANGOON NORTH AVENUE 4,525,SERANGOON NTH AVE 4,"Error: Road retrieved. Returned address Serangoon North Avenue 4, Ang Mo Kio Industrial Park 2, Serangoon North, Singapore, Central, 555859, Singapore"
227 SIMEI STREET 4,227,SIMEI ST 4,"1.3419959499999998, 103.95623901581527"
519B TAMPINES CENTRAL 8,519B,TAMPINES CTRL 8,"1.3574154, 103.93997506049769"
135 POTONG PASIR AVENUE 3,135,POTONG PASIR AVE 3,"1.3346835, 103.8668514"
107 ANG MO KIO AVENUE 4,107,ANG MO KIO AVE 4,"Error: Road retrieved. Returned address Ang Mo Kio Avenue 4, Ang Mo Kio, Singapore, Central, 568987, Singapore"
405 SIN MING AVENUE,405,SIN MING AVE,"1.3628505, 103.83474575"
372 HOUGANG STREET 31,372,HOUGANG ST 31,"Error: Road retrieved. Returned address Hougang Street 31, Hougang, Northeast, 530371, Singapore"
470A UPPER SERANGOON CRESCENT,470A,UPP SERANGOON CRES,"1.37910355, 103.90168313769145"
216 MARSILING LANE,216,MARSILING LANE,"Error: Road retrieved. Returned address Marsiling Lane, Woodlands, Northwest, 739148, Singapore"
158B RIVERVALE CRESCENT,158B,RIVERVALE CRES,"Error: Road retrieved. Returned address Rivervale Crescent, Seng Kang, Northeast, 540151, Singapore"
390 YISHUN AVENUE 6,390,YISHUN AVE 6,"1.4292335, 103.84841175"
272 CHOA CHU KANG AVENUE 2,272,CHOA CHU KANG AVE 2,"1.3788369, 103.74308432879769"
462 CHOA CHU KANG AVENUE 4,462,CHOA CHU KANG AVE 4,"1.3775153, 103.73525597678571"
483 CHOA CHU KANG AVENUE 5,483,CHOA CHU KANG AVE 5,"1.3759227, 103.73768168890007"
664 YISHUN AVENUE 4,664,YISHUN AVE 4,"1.4201996000000001, 103.84067062130987"
1A CANTONMENT ROAD,1A,CANTONMENT RD,"1.2778303, 103.84095280047099"
432 CHOA CHU KANG AVENUE 4,432,CHOA CHU KANG AVE 4,"1.3845233000000001, 103.74202965656823"
410 PANDAN GARDENS,410,PANDAN GDNS,"1.3190026, 103.74745608486668"
513 WELLINGTON CIRCLE,513,WELLINGTON CIRCLE,"Error: Not Singapore. Returned address 513, Wellington Circle, Rochester Hills, Oakland County, Michigan, 48309, United States"
310A ANCHORVALE ROAD,310A,ANCHORVALE RD,"Error: Road retrieved. Returned address Anchorvale Road, Seng Kang, Northeast, 544336, Singapore"
308 WOODLANDS AVENUE 1,308,WOODLANDS AVE 1,"1.42983945, 103.7765874909091"
896C WOODLANDS DRIVE 50,896C,WOODLANDS DR 50,"1.4370246999999998, 103.79305627841495"
346 ANG MO KIO AVENUE 3,346,ANG MO KIO AVE 3,"Error: Road retrieved. Returned address Ang Mo Kio Avenue 3, Ang Mo Kio, Singapore, Central, 560564, Singapore"
455 SIN MING AVENUE,455,SIN MING AVE,"Error: Road retrieved. Returned address Sin Ming Avenue, Bishan, Singapore, Central, 579646, Singapore"
233 BUKIT BATOK EAST AVENUE 5,233,BT BATOK EAST AVE 5,"1.3487315500000001, 103.75528685606164"
405 BUKIT BATOK WEST AVENUE 7,405,BT BATOK WEST AVE 7,"1.36575775, 103.74545556338535"
202B SENGKANG EAST ROAD,202B,SENGKANG EAST RD,"Error: Road retrieved. Returned address Sengkang East Road, Seng Kang, Northeast, 530566, Singapore"
236 HOUGANG AVENUE 1,236,HOUGANG AVE 1,"1.35785525, 103.88894913696808"
129 BISHAN STREET 12,129,BISHAN ST 12,"1.3457534, 103.8504073290526"
963 HOUGANG AVENUE 9,963,HOUGANG AVE 9,"Error: Road retrieved. Returned address Hougang Avenue 9, Hougang, Northeast, 538692, Singapore"
330 CLEMENTI AVENUE 2,330,CLEMENTI AVE 2,"1.3136846, 103.76780273019526"
952 HOUGANG AVENUE 9,952,HOUGANG AVE 9,"1.3755214, 103.87746037085202"
413 SERANGOON CENTRAL,413,SERANGOON CTRL,"1.3489849999999999, 103.87367130532101"
150 WOODLANDS STREET 13,150,WOODLANDS ST 13,"1.4353417, 103.77371983206605"
964 HOUGANG AVENUE 9,964,HOUGANG AVE 9,"Error: Road retrieved. Returned address Hougang Avenue 9, Hougang, Northeast, 538692, Singapore"
672C EDGEFIELD PLAINS,672C,EDGEFIELD PLAINS,"1.40742455, 103.91124209112276"
446C JALAN KAYU,446C,JLN KAYU,"1.3922720499999999, 103.87351725367463"
138B LORONG 1A TOA PAYOH,138B,LOR 1A TOA PAYOH,"1.3362471, 103.84556524992942"
689D WOODLANDS DRIVE 75,689D,WOODLANDS DR 75,NONE
734 WOODLANDS CIRCLE,734,WOODLANDS CIRCLE,"1.4440176, 103.79805140669197"
550 WOODLANDS DRIVE 44,550,WOODLANDS DR 44,"Error: Road retrieved. Returned address Woodlands Drive 44, Vista Point, Woodlands, Northwest, 730548, Singapore"
501 BEDOK NORTH STREET 3,501,BEDOK NTH ST 3,"1.33161695, 103.93123729911773"
915 JURONG WEST STREET 91,915,JURONG WEST ST 91,"1.3410923000000001, 103.68789314425557"
317 TAMPINES STREET 33,317,TAMPINES ST 33,"1.3516647499999999, 103.95662194273004"
493B TAMPINES AVENUE 9,493B,TAMPINES AVE 9,"1.36231655, 103.95213620454817"
170 ANG MO KIO AVENUE 4,170,ANG MO KIO AVE 4,"Error: Road retrieved. Returned address Ang Mo Kio Avenue 4, Ang Mo Kio, Singapore, Central, 568987, Singapore"
5 TELOK BLANGAH CRESCENT,5,TELOK BLANGAH CRES,"1.27866735, 103.81924021016684"
40 TELOK BLANGAH RISE,40,TELOK BLANGAH RISE,"1.2716843500000001, 103.82363023093377"
681C JURONG WEST CENTRAL 1,681C,JURONG WEST CTRL 1,"1.34460465, 103.70456193950466"
317 SERANGOON AVENUE 2,317,SERANGOON AVE 2,"Error: Road retrieved. Returned address Serangoon Avenue 2, Serangoon, Southeast, 556138, Singapore"
8 TOH YI DRIVE,8,TOH YI DR,"1.3379367, 103.77401090008142"
523 ANG MO KIO AVENUE 5,523,ANG MO KIO AVE 5,"Error: Road retrieved. Returned address Ang Mo Kio Avenue 5, Ang Mo Kio, Singapore, Central, 569948, Singapore"
211 ANG MO KIO AVENUE 3,211,ANG MO KIO AVE 3,"Error: Road retrieved. Returned address Ang Mo Kio Avenue 3, Ang Mo Kio, Singapore, Central, 560564, Singapore"
562 ANG MO KIO AVENUE 3,562,ANG MO KIO AVE 3,"Error: Road retrieved. Returned address Ang Mo Kio Avenue 3, Ang Mo Kio, Singapore, Central, 560564, Singapore"
639 BEDOK RESERVOIR ROAD,639,BEDOK RESERVOIR RD,"1.33174675, 103.90461897372587"
54 HAVELOCK ROAD,54,HAVELOCK RD,"Error: Not Singapore. Returned address 54, Havelock Road, Sidley, Bexhill-on-Sea, Rother, East Sussex, South East, England, TN39 4AH, United Kingdom"
50 HOY FATT ROAD,50,HOY FATT RD,"Error: Road retrieved. Returned address Hoy Fatt Road, Bukit Merah, Singapore, Central, 150053, Singapore"
346 TAMPINES STREET 33,346,TAMPINES ST 33,"1.35130145, 103.9626779180191"
7 TOH YI DRIVE,7,TOH YI DR,"1.335348, 103.77096579006239"
17 TELOK BLANGAH CRESCENT,17,TELOK BLANGAH CRES,"1.2777451, 103.82164643413644"
431 CHOA CHU KANG AVENUE 4,431,CHOA CHU KANG AVE 4,"1.3840545, 103.7419342394149"
205 CLEMENTI AVENUE 6,205,CLEMENTI AVE 6,"Error: Road retrieved. Returned address Clementi Avenue 6, Clementi, Southwest, 128808, Singapore"
520 JURONG WEST STREET 52,520,JURONG WEST ST 52,"1.34596665, 103.71749298172602"
883 TAMPINES STREET 84,883,TAMPINES ST 84,"1.35185275, 103.93286937967355"
218 LORONG 8 TOA PAYOH,218,LOR 8 TOA PAYOH,"Error: Road retrieved. Returned address Lorong 8 Toa Payoh, Toa Payoh, Singapore, Central, 310229, Singapore"
199D PUNGGOL FIELD,199D,PUNGGOL FIELD,"Error: Road retrieved. Returned address Punggol Field, Punggol Cove, Punggol, Northeast, 820198, Singapore"
514 SERANGOON NORTH AVENUE 4,514,SERANGOON NTH AVE 4,"Error: Road retrieved. Returned address Serangoon North Avenue 4, Ang Mo Kio Industrial Park 2, Serangoon North, Singapore, Central, 555859, Singapore"
809 WOODLANDS STREET 81,809,WOODLANDS ST 81,"Error: Road retrieved. Returned address Woodlands St 81, Woodlands, Northwest, 738525, Singapore"
346 YISHUN AVENUE 11,346,YISHUN AVE 11,"Error: Road retrieved. Returned address Yishun Avenue 11, Yishun, Northwest, 760413, Singapore"
339 HOUGANG AVENUE 7,339,HOUGANG AVE 7,"Error: Road retrieved. Returned address Hougang Avenue 7, Hougang, Northeast, 530377, Singapore"
35 MARINE CRESCENT,35,MARINE CRES,"1.30314875, 103.9128505243531"
448 PASIR RIS DRIVE 6,448,PASIR RIS DR 6,"1.37057235, 103.95811075"
185B RIVERVALE CRESCENT,185B,RIVERVALE CRES,"1.3929461, 103.90699473099329"
64 NEW UPPER CHANGI ROAD,64,NEW UPP CHANGI RD,"1.3241961500000001, 103.93980599990168"
419 FAJAR ROAD,419,FAJAR RD,"1.38422345, 103.76955325213956"
105 HENDERSON CRESCENT,105,HENDERSON CRES,"Error: Not Singapore. Returned address 105, Henderson Crescent, Alliston, New Tecumseth, Simcoe County, Central Ontario, Ontario, L9R 0E9, Canada"
488 SEGAR ROAD,488,SEGAR RD,"1.3895681500000001, 103.77128250365321"
323 UBI AVENUE 1,323,UBI AVE 1,"1.3281216, 103.90452363582887"
612B PUNGGOL DRIVE,612B,PUNGGOL DR,"1.4049447, 103.90805710902163"
306D PUNGGOL DRIVE,306D,PUNGGOL DR,"Error: Road retrieved. Returned address Punggol Drive, Punggol, Northeast, 821665, Singapore"
313D ANCHORVALE ROAD,313D,ANCHORVALE RD,"1.3921016, 103.88786539708879"
520 HOUGANG AVENUE 6,520,HOUGANG AVE 6,"Error: Road retrieved. Returned address Hougang Avenue 6, Hougang, Northeast, 538787, Singapore"
272 TOH GUAN ROAD,272,TOH GUAN RD,"1.3421181500000001, 103.74564528559794"
187 BOON LAY AVENUE,187,BOON LAY AVE,"1.34517205, 103.71070161287156"
97 GEYLANG BAHRU,97,GEYLANG BAHRU,"1.3237017, 103.87030096757391"
67 KALLANG BAHRU,67,KALLANG BAHRU,"Error: Road retrieved. Returned address Kallang Bahru, Kallang, Singapore, Central, 338735, Singapore"
343 TAMPINES STREET 33,343,TAMPINES ST 33,"1.3518919, 103.9611685"
26D JALAN MEMBINA,26D,JLN MEMBINA,"1.2822391, 103.82511443574904"
23 BALAM ROAD,23,BALAM RD,"1.3309883999999998, 103.88650176792441"
672A JURONG WEST STREET 65,672A,JURONG WEST ST 65,"1.34378915, 103.70107533375368"
103 JALAN RAJAH,103,JLN RAJAH,"1.3273709, 103.85292972948056"
592B MONTREAL LINK,592B,MONTREAL LINK,"Error: Road retrieved. Returned address Montreal Link, Sembawang, Northwest, 752592, Singapore"
5 UPPER ALJUNIED LANE,5,UPP ALJUNIED LANE,"1.3337309, 103.87993665906413"
246 YISHUN AVENUE 9,246,YISHUN AVE 9,"1.4350014500000001, 103.84255177979426"
875 YISHUN STREET 81,875,YISHUN ST 81,"1.414769, 103.83628806450768"
105 BUKIT BATOK CENTRAL,105,BT BATOK CTRL,"1.34863035, 103.74729087591473"
519 JELAPANG ROAD,519,JELAPANG RD,"Error: Road retrieved. Returned address Jelapang Road, Bukit Panjang, Northwest, 671524, Singapore"
607 SENJA ROAD,607,SENJA RD,"Error: Road retrieved. Returned address Senja Road, Bukit Panjang, Northwest, 677741, Singapore"
180A BOON LAY DRIVE,180A,BOON LAY DR,"1.3476549, 103.70879988804776"
313B SUMANG LINK,313B,SUMANG LINK,"1.4103080000000001, 103.90198346651277"
469 ADMIRALTY DRIVE,469,ADMIRALTY DR,"Error: Not Singapore. Returned address Admiralty Drive, Sunset Beach, Huntington Beach, Orange County, California, 92649, United States"
863A TAMPINES STREET 83,863A,TAMPINES ST 83,"1.35544925, 103.93669131462826"
129 ANG MO KIO AVENUE 3,129,ANG MO KIO AVE 3,"Error: Road retrieved. Returned address Ang Mo Kio Avenue 3, Ang Mo Kio, Singapore, Central, 560564, Singapore"
645 JURONG WEST STREET 61,645,JURONG WEST ST 61,"1.3390887999999999, 103.69655672330583"
223A JURONG EAST STREET 21,223A,JURONG EAST ST 21,"1.3413165999999999, 103.73675820010926"
104B EDGEFIELD PLAINS,104B,EDGEFIELD PLAINS,"1.3966348499999999, 103.90545345913068"
492B TAMPINES AVENUE 9,492B,TAMPINES AVE 9,"1.3631907, 103.9533707"
174B EDGEDALE PLAINS,174B,EDGEDALE PLAINS,"1.3967364500000001, 103.91095731379167"
751 WOODLANDS CIRCLE,751,WOODLANDS CIRCLE,"Error: Not Singapore. Returned address 751, Woodlands Circle, Woodlands, Cumberland County, Tennessee, 38571, United States"
957 HOUGANG STREET 91,957,HOUGANG ST 91,"1.3766170500000001, 103.87940900897058"
268 TOH GUAN ROAD,268,TOH GUAN RD,"1.3419675500000001, 103.74524508151394"
256 PASIR RIS STREET 21,256,PASIR RIS ST 21,"1.3675978, 103.96405456858943"
414 PASIR RIS DRIVE 6,414,PASIR RIS DR 6,"1.3723404499999998, 103.95631272127653"
601 BEDOK RESERVOIR ROAD,601,BEDOK RESERVOIR RD,"1.3299436, 103.9113629270509"
147 BEDOK RESERVOIR ROAD,147,BEDOK RESERVOIR RD,"1.3348851000000002, 103.91173421423875"
118 PENDING ROAD,118,PENDING RD,"Error: Road retrieved. Returned address Pending Road, Bukit Panjang, Northwest, 670129, Singapore"
329 UBI AVENUE 1,329,UBI AVE 1,"1.3270263, 103.90481862189799"
474 JURONG WEST STREET 41,474,JURONG WEST ST 41,"1.3481116000000002, 103.72421776180556"
815 JURONG WEST STREET 81,815,JURONG WEST ST 81,"1.34527675, 103.69601295740313"
210B PUNGGOL PLACE,210B,PUNGGOL PL,"1.4001253999999999, 103.90002203008862"
213A COMPASSVALE LANE,213A,COMPASSVALE LANE,"1.38592995, 103.90025756484557"
440 TAMPINES STREET 43,440,TAMPINES ST 43,"1.3607377, 103.95141543351825"
861 TAMPINES AVENUE 5,861,TAMPINES AVE 5,"1.3550559, 103.93729209742705"
290C BUKIT BATOK EAST AVENUE 3,290C,BT BATOK EAST AVE 3,"1.34400085, 103.7574301450152"
816 JURONG WEST STREET 81,816,JURONG WEST ST 81,"1.3454411, 103.6964889"
64 TEBAN GARDENS ROAD,64,TEBAN GDNS RD,"Error: Road retrieved. Returned address Teban Gardens Road, Teban Gardens, Jurong East, Southwest, 600049, Singapore"
302C PUNGGOL PLACE,302C,PUNGGOL PL,"Error: Road retrieved. Returned address Punggol Place, Punggol, Northeast, 828845, Singapore"
114 EDGEFIELD PLAINS,114,EDGEFIELD PLAINS,"Error: Road retrieved. Returned address Edgefield Plains, Punggol, Northeast, 828850, Singapore"
259 YISHUN STREET 22,259,YISHUN ST 22,"Error: Road retrieved. Returned address Yishun Street 22, Yishun, Northwest, 760264, Singapore"
136 BEDOK NORTH AVENUE 3,136,BEDOK NTH AVE 3,"1.3281386, 103.93522413349112"
437 JURONG WEST AVENUE 1,437,JURONG WEST AVE 1,"1.35170125, 103.72408895443874"
745 JURONG WEST STREET 73,745,JURONG WEST ST 73,"Error: Road retrieved. Returned address Jurong West Street 73, Jurong West, Southwest, 640744, Singapore"
86 TELOK BLANGAH HEIGHTS,86,TELOK BLANGAH HTS,"1.2768370500000001, 103.80850945299625"
443D FAJAR ROAD,443D,FAJAR RD,"1.38053245, 103.7704253923563"
275 CHOA CHU KANG AVENUE 2,275,CHOA CHU KANG AVE 2,"1.37926755, 103.74231270883989"
99 ALJUNIED CRESCENT,99,ALJUNIED CRES,"1.3213713, 103.88430092423873"
608 ELIAS ROAD,608,ELIAS RD,"1.375868, 103.94303728156203"
424 CANBERRA ROAD,424,CANBERRA RD,"1.4538829, 103.81878775224604"
2 LORONG LEW LIAN,2,LOR LEW LIAN,"1.35047825, 103.87545689574871"
424 SERANGOON CENTRAL,424,SERANGOON CTRL,"1.3481472499999998, 103.87558581006166"
86 REDHILL CLOSE,86,REDHILL CL,"Error: Road retrieved. Returned address Redhill Close, Bukit Merah, Singapore, Central, 150086, Singapore"
449 CHOA CHU KANG AVENUE 4,449,CHOA CHU KANG AVE 4,"1.3791581, 103.7363220101308"
114 WHAMPOA ROAD,114,WHAMPOA RD,"1.3255504500000002, 103.85762684106031"
250 PASIR RIS STREET 21,250,PASIR RIS ST 21,"1.37026645, 103.9628940305045"
107D EDGEFIELD PLAINS,107D,EDGEFIELD PLAINS,"Error: Road retrieved. Returned address Edgefield Plains, Punggol, Northeast, 828850, Singapore"
474 SEMBAWANG DRIVE,474,SEMBAWANG DR,"Error: Road retrieved. Returned address Sembawang Drive, Sembawang, Northwest, 757632, Singapore"
112 SIMEI STREET 1,112,SIMEI ST 1,"1.3429403, 103.94937010700485"
805A KEAT HONG CLOSE,805A,KEAT HONG CL,"1.37298125, 103.74267636746785"
917 HOUGANG AVENUE 9,917,HOUGANG AVE 9,"1.3749763499999998, 103.88346410871776"
785 CHOA CHU KANG DRIVE,785,CHOA CHU KANG DR,"Error: Road retrieved. Returned address Choa Chu Kang Drive, Choa Chu Kang, Southwest, 689717, Singapore"
255 SIMEI STREET 1,255,SIMEI ST 1,"1.342418, 103.95174726532554"
650 WOODLANDS RING ROAD,650,WOODLANDS RING RD,"1.43829685, 103.80066619263678"
318C ANCHORVALE LINK,318C,ANCHORVALE LINK,"1.39333545, 103.88900427198364"
343 UBI AVENUE 1,343,UBI AVE 1,"1.3264955999999999, 103.90047830801"
623 HOUGANG AVENUE 8,623,HOUGANG AVE 8,"1.3705035, 103.88232260000001"
988A BUANGKOK GREEN,988A,BUANGKOK GREEN,"1.37956125, 103.87738892505894"
305 JURONG EAST STREET 32,305,JURONG EAST ST 32,"1.3453751999999999, 103.73537288431373"
469 PASIR RIS DRIVE 6,469,PASIR RIS DR 6,"1.37356525, 103.95759090075211"
111 LORONG 1 TOA PAYOH,111,LOR 1 TOA PAYOH,"Error: Road retrieved. Returned address Lorong 1 Toa Payoh, Toa Payoh, Singapore, Central, 311139, Singapore"
3 DELTA AVENUE,3,DELTA AVE,"Error: Not Singapore. Returned address 3, Delta Avenue, Fort Thomas, Campbell County, Kentucky, 41075, United States"
171C EDGEDALE PLAINS,171C,EDGEDALE PLAINS,"Error: Road retrieved. Returned address Edgedale Plains, Punggol, Northeast, 828867, Singapore"
330A ANCHORVALE STREET,330A,ANCHORVALE ST,"1.3966168, 103.8900411"
722 TAMPINES STREET 72,722,TAMPINES ST 72,"1.3599526, 103.93567352199571"
62 NEW UPPER CHANGI ROAD,62,NEW UPP CHANGI RD,"1.3233129, 103.93995603515901"
821 JURONG WEST STREET 81,821,JURONG WEST ST 81,"1.3470274, 103.69432379379894"
135 RIVERVALE STREET,135,RIVERVALE ST,"Error: Not Singapore. Returned address Rivervale Street, Ormeau, Gold Coast City, Queensland, 4208, Australia"
105 ALJUNIED CRESCENT,105,ALJUNIED CRES,"1.3194769499999999, 103.88276969928657"
144 LORONG AH SOO,144,LOR AH SOO,"1.35193, 103.88302286686852"
2 DOVER ROAD,2,DOVER RD,"1.3030867000000002, 103.78289999834134"
270 TAMPINES STREET 21,270,TAMPINES ST 21,"Error: Road retrieved. Returned address Tampines Street 21, Tampines, Northeast, 520241, Singapore"
17B CIRCUIT ROAD,17B,CIRCUIT RD,"1.3299009, 103.88921536691106"
132 EDGEDALE PLAINS,132,EDGEDALE PLAINS,"Error: Road retrieved. Returned address Edgedale Plains, Punggol, Northeast, 828867, Singapore"
268C PUNGGOL FIELD,268C,PUNGGOL FIELD,"1.4031893, 103.8981118"
404 WOODLANDS STREET 41,404,WOODLANDS ST 41,"Error: Road retrieved. Returned address Woodlands Street 41, Woodlands, Northwest, 31, Singapore"
214 MARSILING LANE,214,MARSILING LANE,"Error: Road retrieved. Returned address Marsiling Lane, Woodlands, Northwest, 739148, Singapore"
873 YISHUN STREET 81,873,YISHUN ST 81,"1.4144860499999998, 103.83687106386259"
762 WOODLANDS AVENUE 6,762,WOODLANDS AVE 6,"Error: Road retrieved. Returned address Woodlands Avenue 6, Woodlands, Northwest, 737858, Singapore"
512 WOODLANDS DRIVE 14,512,WOODLANDS DR 14,"Error: Road retrieved. Returned address Woodlands Drive 14, Fragrant Woods, Woodlands, Northwest, 738079, Singapore"
766 YISHUN AVENUE 3,766,YISHUN AVE 3,"1.42476395, 103.83391616815521"
501 BUKIT BATOK STREET 52,501,BT BATOK ST 52,"1.3516092, 103.75526329322919"
516 PASIR RIS STREET 52,516,PASIR RIS ST 52,"1.3742246, 103.94357483004357"
271B SENGKANG CENTRAL,271B,SENGKANG CTRL,"1.3855037499999998, 103.89454759162194"
826 TAMPINES STREET 81,826,TAMPINES ST 81,"1.3493242, 103.933568"
216 YISHUN STREET 21,216,YISHUN ST 21,"1.4322459, 103.83640395"
172 BISHAN STREET 13,172,BISHAN ST 13,"1.34705665, 103.85328479863257"
531 PASIR RIS DRIVE 1,531,PASIR RIS DR 1,"1.371347, 103.9504026703521"
109 WOODLANDS STREET 13,109,WOODLANDS ST 13,"1.4374536, 103.78106191432958"
342 CLEMENTI AVENUE 5,342,CLEMENTI AVE 5,"1.3183261499999999, 103.7698987686174"
258 SERANGOON CENTRAL DRIVE,258,SERANGOON CTRL DR,"Error: Road retrieved. Returned address Serangoon Central Drive, Serangoon, Southeast, 550261, Singapore"
684A WOODLANDS DRIVE 73,684A,WOODLANDS DR 73,"1.4411839, 103.80508184062265"
668B JURONG WEST STREET 64,668B,JURONG WEST ST 64,"Error: Road retrieved. Returned address Jurong West Street 64, Jurong West, Southwest, 643685, Singapore"
596A ANG MO KIO STREET 52,596A,ANG MO KIO ST 52,"Error: Road retrieved. Returned address Ang Mo Kio Street 52, Ang Mo Kio, Singapore, Central, 560525, Singapore"
550 BEDOK NORTH AVENUE 1,550,BEDOK NTH AVE 1,"1.3322337000000002, 103.92632329441884"
94D BEDOK NORTH AVENUE 4,94D,BEDOK NTH AVE 4,"1.33361565, 103.94139191642938"
144 BISHAN STREET 12,144,BISHAN ST 12,"1.3458613, 103.85360316116112"
217 PETIR ROAD,217,PETIR RD,"Error: Road retrieved. Returned address Petir Road, Bukit Panjang, Northwest, 678272, Singapore"
664B JURONG WEST STREET 64,664B,JURONG WEST ST 64,"1.3385584, 103.70381221180182"
434B FERNVALE ROAD,434B,FERNVALE RD,"1.3946049, 103.87661418650087"
509 SERANGOON NORTH AVENUE 4,509,SERANGOON NTH AVE 4,"Error: Road retrieved. Returned address Serangoon North Avenue 4, Ang Mo Kio Industrial Park 2, Serangoon North, Singapore, Central, 555859, Singapore"
805 TAMPINES AVENUE 4,805,TAMPINES AVE 4,"1.3461010999999998, 103.93741594422974"
588D ANG MO KIO STREET 52,588D,ANG MO KIO ST 52,"Error: Road retrieved. Returned address Ang Mo Kio Street 52, Ang Mo Kio, Singapore, Central, 560525, Singapore"
67 CIRCUIT ROAD,67,CIRCUIT RD,"1.32585865, 103.8878968551058"
186 BOON LAY AVENUE,186,BOON LAY AVE,"1.34571175, 103.71175412444319"
646 PASIR RIS DRIVE 10,646,PASIR RIS DR 10,"1.378108, 103.93818633914886"
578 PASIR RIS STREET 53,578,PASIR RIS ST 53,"1.37404445, 103.94760948849375"
209A PUNGGOL PLACE,209A,PUNGGOL PL,"1.3998106, 103.90055501349045"
203A PUNGGOL FIELD,203A,PUNGGOL FIELD,"Error: Road retrieved. Returned address Punggol Field, Punggol Cove, Punggol, Northeast, 820198, Singapore"
265B COMPASSVALE LINK,265B,COMPASSVALE LINK,"1.38222325, 103.89573941654929"
310 YISHUN RING ROAD,310,YISHUN RING RD,"1.4322108, 103.84129587616215"
108 ANG MO KIO AVENUE 4,108,ANG MO KIO AVE 4,"Error: Road retrieved. Returned address Ang Mo Kio Avenue 4, Ang Mo Kio, Singapore, Central, 568987, Singapore"
444 HOUGANG AVENUE 8,444,HOUGANG AVE 8,"Error: Road retrieved. Returned address Hougang Avenue 8, Hougang, Northeast, 530631, Singapore"
287B JURONG EAST STREET 21,287B,JURONG EAST ST 21,"1.3383444500000001, 103.74445354916035"
367 CORPORATION DRIVE,367,CORPORATION DR,"1.33788995, 103.71911706933629"
988A JURONG WEST STREET 93,988A,JURONG WEST ST 93,"1.33652615, 103.69586608430708"
122 SIMEI STREET 1,122,SIMEI ST 1,"1.3454446500000001, 103.95238952602958"
359 YISHUN RING ROAD,359,YISHUN RING RD,"1.4274049, 103.84569545553924"
32 JALAN BUKIT HO SWEE,32,JLN BT HO SWEE,"1.28741255, 103.8284284"
37 JALAN RUMAH TINGGI,37,JLN RUMAH TINGGI,"1.2891887999999998, 103.80919904713744"
45 LENGKOK BAHRU,45,LENGKOK BAHRU,"1.28673745, 103.81269328707202"
563 CHOA CHU KANG STREET 52,563,CHOA CHU KANG ST 52,"Error: Road retrieved. Returned address Choa Chu Kang Street 52, Northwest, 689286, Singapore"
247 JURONG EAST STREET 24,247,JURONG EAST ST 24,"1.3420966, 103.73900814937159"
617 JURONG WEST STREET 65,617,JURONG WEST ST 65,"1.34093925, 103.70062256565691"
405A FERNVALE LANE,405A,FERNVALE LANE,"1.3888532, 103.87384175133303"
53 LORONG 5 TOA PAYOH,53,LOR 5 TOA PAYOH,"1.33796245, 103.85076283393147"
298 YISHUN STREET 20,298,YISHUN ST 20,"Error: Road retrieved. Returned address Yishun Street 20, Yishun, Northwest, 760291, Singapore"
506 WEST COAST DRIVE,506,WEST COAST DR,"1.31245905, 103.76098891941668"
27 JALAN BAHAGIA,27,JLN BAHAGIA,"1.3260922499999999, 103.85897905330496"
612 ANG MO KIO AVENUE 4,612,ANG MO KIO AVE 4,"Error: Road retrieved. Returned address Ang Mo Kio Avenue 4, Ang Mo Kio, Singapore, Central, 568987, Singapore"
121 BEDOK NORTH ROAD,121,BEDOK NTH RD,"1.32959945, 103.93892811792992"
26 JALAN KLINIK,26,JLN KLINIK,"Error: Not Singapore. Returned address Jalan Klinik, Pasir Puteh, ڤاسير ڤوتيه / Pasir Puteh, Kelantan, 16800, Malaysia"
698D HOUGANG STREET 52,698D,HOUGANG ST 52,"Error: Road retrieved. Returned address Hougang Street 52, Hougang, Northeast, 530699, Singapore"
339 TAMPINES STREET 33,339,TAMPINES ST 33,"1.3513709999999999, 103.95894086273708"
702 YISHUN AVENUE 5,702,YISHUN AVE 5,"1.4298243, 103.82949992546128"
170 BEDOK SOUTH ROAD,170,BEDOK STH RD,"1.3206687000000001, 103.94605820963045"
199A PUNGGOL FIELD,199A,PUNGGOL FIELD,"1.399799, 103.9061748928446"
800 YISHUN RING ROAD,800,YISHUN RING RD,"1.41868405, 103.83210662085227"
604 JURONG WEST STREET 62,604,JURONG WEST ST 62,"1.33858695, 103.70010251980506"
458 ANG MO KIO AVENUE 10,458,ANG MO KIO AVE 10,"Error: Road retrieved. Returned address Ang Mo Kio Avenue 10, Ang Mo Kio, Singapore, Central, 560449, Singapore"
99 BEDOK NORTH AVENUE 4,99,BEDOK NTH AVE 4,"1.33391945, 103.93944638073918"
63A LENGKOK BAHRU,63A,LENGKOK BAHRU,"1.28970785, 103.81528548126079"
501 JELAPANG ROAD,501,JELAPANG RD,"Error: Road retrieved. Returned address Jelapang Road, Bukit Panjang, Northwest, 671524, Singapore"
476A CHOA CHU KANG AVENUE 5,476A,CHOA CHU KANG AVE 5,"1.3766384500000002, 103.7380001212963"
713 CLEMENTI WEST STREET 2,713,CLEMENTI WEST ST 2,"1.30416475, 103.7622406568451"
37 TEBAN GARDENS ROAD,37,TEBAN GDNS RD,"1.32050795, 103.74271220034939"
652C JURONG WEST STREET 61,652C,JURONG WEST ST 61,"1.3365965, 103.69734590628232"
427 PASIR RIS DRIVE 6,427,PASIR RIS DR 6,"1.3703163, 103.9560556"
580 PASIR RIS STREET 53,580,PASIR RIS ST 53,"1.37460835, 103.94697777818828"
424B YISHUN AVENUE 11,424B,YISHUN AVE 11,"1.4232151000000002, 103.84826425"
804 YISHUN RING ROAD,804,YISHUN RING RD,"Error: Road retrieved. Returned address Yishun Ring Road, Yishun, Northwest, 760413, Singapore"
311 ANG MO KIO AVENUE 3,311,ANG MO KIO AVE 3,"Error: Road retrieved. Returned address Ang Mo Kio Avenue 3, Ang Mo Kio, Singapore, Central, 560564, Singapore"
228 BUKIT BATOK CENTRAL,228,BT BATOK CTRL,"1.34844605, 103.75415662081468"
274A PUNGGOL PLACE,274A,PUNGGOL PL,"1.4027158, 103.90237415806946"
11 HOLLAND DRIVE,11,HOLLAND DR,"Error: Not Singapore. Returned address 11, Holland Drive, Tithebarn Green, Broadclyst, West Clyst, Exeter, Devon, South West England, England, EX1 3BL, United Kingdom"
409 SEMBAWANG DRIVE,409,SEMBAWANG DR,"1.4530607, 103.81767187586576"
403D FERNVALE LANE,403D,FERNVALE LANE,"1.38816125, 103.87311989508729"
219 SERANGOON AVENUE 4,219,SERANGOON AVE 4,"1.35837905, 103.87220995"
450A TAMPINES STREET 42,450A,TAMPINES ST 42,"1.35821865, 103.95242906373907"
827 YISHUN STREET 81,827,YISHUN ST 81,"Error: Road retrieved. Returned address Yishun Street 81, Yishun, Northwest, 760873, Singapore"
130 ANG MO KIO AVENUE 3,130,ANG MO KIO AVE 3,"Error: Road retrieved. Returned address Ang Mo Kio Avenue 3, Ang Mo Kio, Singapore, Central, 560564, Singapore"
706 BEDOK NORTH ROAD,706,BEDOK NTH RD,"1.3361812999999998, 103.91900468937348"
175 LOMPANG ROAD,175,LOMPANG RD,"Error: Road retrieved. Returned address Lompang Road, Bukit Panjang, Northwest, 677743, Singapore"
817 JURONG WEST STREET 81,817,JURONG WEST ST 81,"1.3447547000000002, 103.69616864332326"
129 PASIR RIS STREET 11,129,PASIR RIS ST 11,"1.3667848, 103.95604905599842"
309 TAMPINES STREET 32,309,TAMPINES ST 32,"1.3534410000000001, 103.956768925"
213 MARSILING CRESCENT,213,MARSILING CRES,"Error: Road retrieved. Returned address Marsiling Crescent, Woodlands, Northwest, 739148, Singapore"
172 YISHUN AVENUE 7,172,YISHUN AVE 7,"1.43663085, 103.83132286119186"
237 BUKIT BATOK EAST AVENUE 5,237,BT BATOK EAST AVE 5,"1.3494693, 103.7553714386543"
677C JURONG WEST STREET 64,677C,JURONG WEST ST 64,"1.34538335, 103.70476803911504"
518 BEDOK NORTH AVENUE 2,518,BEDOK NTH AVE 2,"1.33154035, 103.92914669646751"
29A CHAI CHEE AVENUE,29A,CHAI CHEE AVE,"1.3247048000000001, 103.9238311336324"
39 CIRCUIT ROAD,39,CIRCUIT RD,"1.3274308000000001, 103.88569323920265"
134 PASIR RIS STREET 11,134,PASIR RIS ST 11,"1.36517405, 103.95637928577258"
551 BEDOK NORTH AVENUE 1,551,BEDOK NTH AVE 1,"1.3324656, 103.9270204"
286A TOH GUAN ROAD,286A,TOH GUAN RD,"1.3388315, 103.74571412300207"
604A PUNGGOL ROAD,604A,PUNGGOL RD,"1.404533, 103.9071851"
650C JURONG WEST STREET 61,650C,JURONG WEST ST 61,"1.3384375, 103.6964040520831"
409 TAMPINES STREET 41,409,TAMPINES ST 41,"1.3590281499999999, 103.9448664"
355 WOODLANDS AVENUE 1,355,WOODLANDS AVE 1,"1.43279015, 103.78433621431184"
422 BUKIT BATOK WEST AVENUE 2,422,BT BATOK WEST AVE 2,"1.3621666000000001, 103.74581024489446"
299 BUKIT BATOK STREET 22,299,BT BATOK ST 22,"1.34427845, 103.74725973313787"
533 JURONG WEST STREET 52,533,JURONG WEST ST 52,"1.34891235, 103.71649066968727"
129 LORONG AH SOO,129,LOR AH SOO,"1.35172655, 103.88792814549939"
